LastUpdated,Postal_Code,City,NO2,O3,PM10,PM2.5,Country.Code,Location,Latitude,Longitude,Country.Label,Department,Region
2024-09-18 23:00:00,01000,Bourg-en-Bresse,37.4,12.0,7.9,5.7,FR,Inconnu,43.6892899998647,7.2420740002946,France,Alpes-Maritimes,Provence-Alpes-Côte d'Azur
2024-09-16 08:00:00,01700,Miribel,4.4,67.7,9.4,,FR,Inconnu,45.8952799999222,6.11833300032625,France,Haute-Savoie,Auvergne-Rhône-Alpes
2017-12-12 16:00:00,02100,Saint-Quentin,38.07,56.8,8.7,6.1,FR,Inconnu,45.4479800001969,4.38876400007321,France,Loire,Auvergne-Rhône-Alpes
2024-09-16 23:00:00,02100,Saint-Quentin,3.7,56.8,8.7,4.1,FR,Biotropica les jardins animaliers,49.3048700002814,1.2143670002142,France,Eure,Normandie
2024-09-16 23:00:00,02470,Neuilly-Saint-Front,2.4,54.3,7.3,4.2,FR,Stade Intercommunal Henri Fouchard,45.454516999977,4.76652799989327,France,Isère,Auvergne-Rhône-Alpes
2017-10-11 12:00:00,02500,Hirson,,39.13,,,FR,Inconnu,50.5353849998623,2.63569199974933,France,Pas-de-Calais,Hauts-de-France
2016-12-01 21:00:00,03000,Moulins,29.0,3.75,19.25,4.8,FR,Inconnu,45.6018999997678,4.80220000011266,France,Rhône,Auvergne-Rhône-Alpes
2024-09-16 14:00:00,03000,Moulins,3.6,87.1,7.0,4.8,FR,Inconnu,43.4798199999506,-1.48915700043803,France,Pyrénées-Atlantiques,Nouvelle-Aquitaine
2024-09-16 14:00:00,03100,Montluçon,7.7,78.0,10.9,7.4,FR,Inconnu,47.3441400000065,0.653778000432585,France,Indre-et-Loire,Centre-Val de Loire
2024-09-10 20:00:00,03200,Vichy,4.6,85.2,6.8,7.4,FR,Inconnu,49.4423560001848,1.0937889998627,France,Seine-Maritime,Normandie
2024-09-16 14:00:00,03230,Paray-le-Frésil,1.3,82.2,7.2,4.5,FR,Inconnu,-21.3128950000391,55.4741939995754,France,La Réunion,La Réunion
2018-08-23 14:00:00,03270,Busset,,110.58,,,FR,Square Pasteur,45.564719999865,5.92833299988358,France,Savoie,Auvergne-Rhône-Alpes
2021-01-08 08:00:00,03460,Villeneuve-sur-Allier,23.7,,,,FR,Inconnu,49.4005000001846,1.09904199999622,France,Seine-Maritime,Normandie
2024-01-29 18:00:00,04100,Manosque,31.9,41.0,27.6,12.1,FR,Inconnu,49.0630870001199,1.86638099958461,France,Val-d'Oise,Île-de-France
2024-09-18 23:00:00,04100,Manosque,9.6,67.5,9.1,5.7,FR,Inconnu,45.5694299999296,5.93298599996747,France,Savoie,Auvergne-Rhône-Alpes
2024-01-26 09:00:00,04870,Saint-Michel-l'Observatoire,0.3,85.8,5.1,3.3,FR,Inconnu,48.8573100002683,7.31417500024352,France,Bas-Rhin,Grand Est
2024-01-31 09:00:00,04870,Saint-Michel-l'Observatoire,1.8,75.7,8.2,5.5,FR,Inconnu,46.0722240002064,5.82083300042506,France,Haute-Savoie,Auvergne-Rhône-Alpes
2024-09-16 08:00:00,05000,Gap,24.0,56.9,20.5,6.1,FR,Inconnu,5.03460199976914,-52.5637929997931,France,Guyane,Guyane
2024-09-18 23:00:00,05000,Gap,11.1,56.9,14.2,10.3,FR,Inconnu,48.5135100002817,-2.74952999981289,France,Côtes-d'Armor,Bretagne
2024-09-16 23:00:00,05220,Le Monêtier-les-Bains,,97.8,,,FR,Inconnu,49.0213399997733,1.14831899956664,France,Eure,Normandie
2024-01-29 18:00:00,06110,Cannes,33.2,64.5,16.4,11.5,FR,Inconnu,46.1955999993861,6.21125000009234,France,Aveyron,Occitanie
2021-03-29 03:00:00,06130,Grasse,,90.4,,,FR,Inconnu,47.2747599997626,4.09947599964745,France,Nièvre,Bourgogne-Franche-Comté
2024-09-18 23:00:00,06140,Coursegoules,,64.7,,,FR,Inconnu,14.6074439996039,-61.0697800003841,France,Martinique,Martinique
2024-01-29 18:00:00,06200,Nice,15.5,81.3,11.1,4.8,FR,Inconnu,45.6082199999151,5.27087200021089,France,Isère,Auvergne-Rhône-Alpes
2024-09-16 08:00:00,06200,Nice,15.5,44.91422190459174,11.1,4.8,FR,Inconnu,43.4702379999568,-1.55387600021659,France,Pyrénées-Atlantiques,Nouvelle-Aquitaine
2024-09-18 23:00:00,06200,Nice,15.5,44.5,11.1,4.8,FR,Inconnu,47.3073699998269,5.06588099964679,France,Côte-d'Or,Bourgogne-Franche-Comté
2024-09-18 23:00:00,06300,Nice,36.6,8.4,8.9,4.6,FR,3e Arrondissement,45.7577319999332,4.85421400016547,France,Rhône,Auvergne-Rhône-Alpes
2024-01-29 18:00:00,06390,Contes,38.3,,47.0,,FR,Inconnu,42.5358300001085,9.47597199989833,France,Haute-Corse,Corse
2024-09-18 23:00:00,06390,Contes,6.3,,2.6,,FR,Inconnu,48.5413900000572,2.66138900015433,France,Seine-et-Marne,Île-de-France
2024-09-18 23:00:00,06400,Cannes,23.8,31.9,10.3,6.1,FR,1e Arrondissement,48.8621199998727,2.34461599976858,France,Paris,Île-de-France
2024-09-18 23:00:00,06440,Peillon,,,6.9,2.8,FR,Inconnu,49.1677799998708,5.38746100010222,France,Meuse,Grand Est
2024-01-29 18:00:00,06470,Beuil,,72.5,,,FR,Inconnu,48.9038999997566,2.38470000004744,France,Seine-Saint-Denis,Île-de-France
2024-09-18 23:00:00,06470,Beuil,,82.6,,,FR,Inconnu,48.9372200002586,2.36166700032988,France,Seine-Saint-Denis,Île-de-France
2024-01-29 18:00:00,06600,Antibes,33.7,57.8,,,FR,Inconnu,43.4165300001598,5.2222810000055,France,Bouches-du-Rhône,Provence-Alpes-Côte d'Azur
2024-03-11 08:00:00,06600,Antibes,35.9,18.8,,,FR,Inconnu,43.4165300001598,5.2222810000055,France,Bouches-du-Rhône,Provence-Alpes-Côte d'Azur
2024-09-16 23:00:00,08000,Charleville-Mézières,7.8,64.5,8.6,,FR,Inconnu,48.8183500000267,7.78640900010634,France,Bas-Rhin,Grand Est
2024-03-11 09:00:00,08500,Les Mazures,4.0,57.0,5.5,3.8,FR,Inconnu,48.7991680000162,2.13055599976146,France,Yvelines,Île-de-France
2019-04-01 11:00:00,09100,Pamiers,,62.2,,,FR,Inconnu,49.9077799999888,4.63000000024383,France,Ardennes,Grand Est
2023-01-09 14:00:00,10000,Troyes,5.7,,6.1,,FR,Inconnu,43.5873450000132,1.44400300032376,France,Haute-Garonne,Occitanie
2024-09-16 08:00:00,10300,Sainte-Savine,3.1,49.8,9.5,5.0,FR,Inconnu,49.1749299998364,3.26081899955954,France,Aisne,Hauts-de-France
2024-09-16 23:00:00,10410,Saint-Parres-aux-Tertres,,63.6,,,FR,Inconnu,49.1749299998364,3.26081899955954,France,Aisne,Hauts-de-France
2024-09-16 23:00:00,12000,Rodez,3.1,71.7,7.7,4.5,FR,Inconnu,50.7482300002354,2.25977999995667,France,Pas-de-Calais,Hauts-de-France
2019-02-12 01:00:00,12100,Millau,,51.3,,,FR,Inconnu,43.6236080001413,1.43853099990713,France,Haute-Garonne,Occitanie
2024-09-18 23:00:00,1226,Thônex,32.33,13.87,8.75,,FR,Saint-Pol-sur-Mer,51.0327599998369,2.33235799993157,France,Nord,Hauts-de-France
2024-01-29 18:00:00,13004,Marseille,22.7,68.2,17.2,11.5,FR,Inconnu,43.5756949998691,1.41806400006942,France,Haute-Garonne,Occitanie
2024-03-10 02:00:00,13004,Marseille,12.9,56.7,5.6,3.7,FR,Inconnu,47.9710660000466,0.221422000085985,France,Sarthe,Pays de la Loire
2024-01-29 18:00:00,13008,Marseille,32.3,,36.9,15.3,FR,Inconnu,47.7877299999136,-0.444044000271216,France,Mayenne,Pays de la Loire
2024-09-16 08:00:00,13008,Marseille,30.8,,21.8,14.3,FR,Inconnu,50.9472900000261,1.84308000007845,France,Pas-de-Calais,Hauts-de-France
2017-12-07 17:00:00,13014,Marseille,106.5,,,,FR,Inconnu,50.9959400001875,2.36627000018506,France,Nord,Hauts-de-France
2024-01-29 18:00:00,13015,Marseille,41.8,,25.5,15.3,FR,Inconnu,43.4413900001802,1.82194399969583,France,Haute-Garonne,Occitanie
2024-03-11 10:00:00,13015,Marseille,22.6,,5.8,2.6,FR,Inconnu,46.6566850000422,-0.743680999706857,France,Vendée,Pays de la Loire
2024-01-29 17:00:00,13100,Aix-en-Provence,75.8,,24.0,11.3,FR,Inconnu,45.7690000000847,3.1550000004242,France,Puy-de-Dôme,Auvergne-Rhône-Alpes
2024-01-29 18:00:00,13100,Aix-en-Provence,45.4,,20.4,11.3,FR,Inconnu,46.3407199997582,2.59394499958895,France,Allier,Auvergne-Rhône-Alpes
2024-03-10 23:00:00,13100,Aix-en-Provence,4.9,,3.6,2.2,FR,Inconnu,49.4983000002172,0.142706000420907,France,Seine-Maritime,Normandie
2024-09-17 23:00:00,13100,Aix-en-Provence,6.4,,39.4,2.2,FR,Terrain de foot du village,46.6526679998459,3.60066700039397,France,Allier,Auvergne-Rhône-Alpes
2024-01-29 17:00:00,13120,Gardanne,26.5,,33.4,12.9,FR,Inconnu,43.6757999997234,4.08838000027485,France,Hérault,Occitanie
2024-09-16 08:00:00,13120,Gardanne,26.5,,16.0,7.0,FR,Inconnu,48.6215020000024,6.19492199960431,France,Meurthe-et-Moselle,Grand Est
2020-02-18 10:00:00,13127,Vitrolles,14.2,57.8,,,FR,Inconnu,48.1727800002807,6.45281099995298,France,Vosges,Grand Est
2020-05-03 11:00:00,13130,Berre-l'Étang,,76.3,,,FR,Inconnu,43.310833,-0.391111,France,Pyrénées-Atlantiques,Nouvelle-Aquitaine
2024-09-17 23:00:00,13130,Berre-l'Étang,,57.2,,,FR,Inconnu,43.096943,-0.038889,France,Hautes-Pyrénées,Occitanie
2020-01-22 12:00:00,13140,Miramas,,,11.5,,FR,Inconnu,46.17,1.87,France,Creuse,Nouvelle-Aquitaine
2019-07-04 12:00:00,13150,Tarascon,5.0,115.9,,,FR,Inconnu,44.84139,-0.65,France,Gironde,Nouvelle-Aquitaine
2024-01-29 18:00:00,13200,Arles,31.7,53.2,27.7,21.4,FR,Inconnu,43.63028,0.179722,France,Gers,Occitanie
2024-09-18 23:00:00,13200,Arles,15.2,61.9,13.8,10.0,FR,Inconnu,48.575985,7.727478,France,Bas-Rhin,Grand Est
2022-01-07 02:00:00,13220,Châteauneuf-les-Martigues,,,26.2,,FR,Inconnu,48.7314125600919,1.36388514642015,France,Eure-et-Loir,Centre-Val de Loire
2024-09-16 08:00:00,13220,Châteauneuf-les-Martigues,,,12.7,,FR,Inconnu,47.648889066211,-2.76389155041474,France,Morbihan,Bretagne
2023-12-29 09:00:00,13230,Port-Saint-Louis-du-Rhône,,,13.3,,FR,Inconnu,46.7824722190452,4.84726435734473,France,Saône-et-Loire,Bourgogne-Franche-Comté
2017-12-29 11:00:00,13270,Fos-sur-Mer,16.4,35.75,20.5,10.2,FR,Inconnu,48.6963231696882,6.14612046034746,France,Meurthe-et-Moselle,Grand Est
2024-09-16 08:00:00,13270,Fos-sur-Mer,16.4,35.75,20.5,5.1,FR,Inconnu,45.7757153069085,3.09625023923328,France,Puy-de-Dôme,Auvergne-Rhône-Alpes
2024-01-29 18:00:00,13300,Salon-de-Provence,27.8,63.2,21.7,13.4,FR,Inconnu,46.9429682344805,2.00326104989222,France,Indre,Centre-Val de Loire
2024-09-18 23:00:00,13300,Salon-de-Provence,10.3,57.4,7.5,4.8,FR,Inconnu,49.6363812210033,-1.62666931648363,France,Manche,Normandie
2020-01-15 14:00:00,13340,Rognac,,70.2,18.6,9.1,FR,Inconnu,49.3247183840929,6.07610576710319,France,Moselle,Grand Est
2024-09-16 08:00:00,13340,Rognac,,70.2,18.6,9.4,FR,Inconnu,46.3295859994638,-0.458889,France,Deux-Sèvres,Nouvelle-Aquitaine
2024-01-29 18:00:00,13400,Aubagne,24.3,68.1,,,FR,Inconnu,47.8319337214448,-1.83632712064428,France,Ille-et-Vilaine,Bretagne
2024-03-11 10:00:00,13400,Aubagne,5.5,63.9,,,FR,Inconnu,44.1922219994633,0.623889,France,Lot-et-Garonne,Nouvelle-Aquitaine
2020-04-21 08:00:00,13460,Saintes-Maries-de-la-Mer,,29.8,,,FR,Inconnu,48.654741414049,-1.99613740968915,France,Ille-et-Vilaine,Bretagne
2020-03-06 10:00:00,13500,Martigues,21.1,,14.75,,FR,Inconnu,14.6661999997358,-61.1501,France,Martinique,Martinique
2024-01-29 18:00:00,13626,Aix-en-Provence,,49.0,,,FR,Inconnu,51.0112059994752,2.293056,France,Nord,Hauts-de-France
2024-09-17 23:00:00,13626,Aix-en-Provence,,37.2,,,FR,Inconnu,50.1752779994721,3.234167,France,Nord,Hauts-de-France
2017-07-18 22:00:00,13700,Marignane,21.5,,19.5,1.7,FR,Inconnu,47.344499999465,0.653322,France,Indre-et-Loire,Centre-Val de Loire
2024-09-17 23:00:00,13700,Marignane,11.2,,3.4,1.7,FR,Inconnu,16.2386999997104,-61.5381,France,Guadeloupe,Guadeloupe
2024-01-29 18:00:00,13800,Istres,,66.5,,,FR,Inconnu,50.4202708576586,3.55181286926881,France,Nord,Hauts-de-France
2024-09-18 23:00:00,13800,Istres,,65.6,,,FR,Inconnu,50.6872089262531,2.88004371665139,France,Nord,Hauts-de-France
2024-01-29 17:00:00,13821,La Penne-sur-Huveaune,,89.5,,,FR,Inconnu,48.9022199998218,2.39083299971474,France,Seine-Saint-Denis,Île-de-France
2024-09-17 23:00:00,13821,La Penne-sur-Huveaune,,46.4,,,FR,Inconnu,45.1587370002402,1.53725900002356,France,Corrèze,Nouvelle-Aquitaine
2024-01-29 18:00:00,13960,Sausset-les-Pins,,91.2,,,FR,Inconnu,44.0946899996974,6.9889779997719,France,Alpes-Maritimes,Provence-Alpes-Côte d'Azur
2024-09-18 23:00:00,13960,Sausset-les-Pins,,75.9,,,FR,Inconnu,44.8612099998848,-0.580370000254293,France,Gironde,Nouvelle-Aquitaine
2023-01-11 08:00:00,14000,Caen,22.5,60.0,22.2,27.4,FR,Inconnu,44.8413730001661,-0.65106799971438,France,Gironde,Nouvelle-Aquitaine
2024-09-18 23:00:00,14000,Caen,17.3,60.0,43.9,27.4,FR,Inconnu,46.1736200000662,1.87302399978817,France,Creuse,Nouvelle-Aquitaine
2024-06-12 11:00:00,14100,Lisieux,4.9,12.8,7.2,3.9,FR,Inconnu,48.1152100001935,-1.67308799988918,France,Ille-et-Vilaine,Bretagne
2024-09-16 08:00:00,14120,Mondeville,31.1,,12.4,,FR,Inconnu,48.7066999998811,2.45720000020453,France,Essonne,Île-de-France
2024-09-18 23:00:00,14123,Ifs,22.3,57.1,5.8,,FR,Inconnu,49.358214999835,1.00785300040897,France,Seine-Maritime,Normandie
2024-09-18 23:00:00,14150,Ouistreham,,63.5,,,FR,Inconnu,48.8573100002683,7.31417500024352,France,Bas-Rhin,Grand Est
2022-12-12 10:00:00,14370,Moult-Chicheboville,8.5,,15.7,1.2,FR,Inconnu,45.8733100001496,1.30791599981697,France,Haute-Vienne,Nouvelle-Aquitaine
2024-09-10 20:00:00,14600,Honfleur,,53.3,10.0,,FR,Inconnu,48.5880550000064,7.72972199987815,France,Bas-Rhin,Grand Est
2024-09-16 14:00:00,14800,Touques,,55.9,,,FR,Inconnu,16.2573069997402,-61.5917240003607,France,Guadeloupe,Guadeloupe
2024-09-16 14:00:00,15000,Aurillac,4.7,58.8,5.0,2.6,FR,Inconnu,43.5583879998064,7.00591899983004,France,Alpes-Maritimes,Provence-Alpes-Côte d'Azur
2024-09-16 14:00:00,15500,Rageade,,68.2,8.4,6.3,FR,Inconnu,46.2116659998982,5.22638900029136,France,Ain,Auvergne-Rhône-Alpes
2024-09-16 14:00:00,16000,Angoulême,12.899999999999999,82.1,13.6,7.4,FR,Inconnu,46.7982800002074,1.69313899980028,France,Indre,Centre-Val de Loire
2020-01-13 11:00:00,16400,La Couronne,13.0,45.1,13.6,,FR,Inconnu,46.7982800002074,1.69313899980028,France,Indre,Centre-Val de Loire
2024-03-04 07:00:00,17000,La Rochelle,21.5,36.3,11.6,3.4,FR,Inconnu,49.1922200000328,-0.391111000326555,France,Calvados,Normandie
2024-09-16 08:00:00,17000,La Rochelle,8.9,56.3,11.7,2.4,FR,Inconnu,45.9096999999883,6.11824999958726,France,Haute-Savoie,Auvergne-Rhône-Alpes
2024-09-16 08:00:00,17440,Aytré,5.5,57.7,15.1,,FR,Inconnu,46.1958299999168,6.24055600011761,France,Haute-Savoie,Auvergne-Rhône-Alpes
2018-04-25 02:00:00,18000,Bourges,7.23,71.08,25.7,7.4,FR,Inconnu,46.9968259997978,3.17109200001237,France,Nièvre,Bourgogne-Franche-Comté
2024-09-16 08:00:00,18000,Bourges,38.4,17.75991021324355,10.1,7.4,FR,Inconnu,45.9169430001156,6.13555600041669,France,Haute-Savoie,Auvergne-Rhône-Alpes
2024-09-18 23:00:00,18000,Bourges,15.6,17.7,12.7,7.4,FR,Inconnu,49.1075020002343,6.12277499962463,France,Moselle,Grand Est
2018-04-25 02:00:00,18210,Verneuil,2.4,38.93,,7.95,FR,Inconnu,49.1075020002343,6.12277499962463,France,Moselle,Grand Est
2024-01-29 18:00:00,18210,Verneuil,2.4,52.1,,3.6,FR,Inconnu,50.0922500001161,3.85002999965121,France,Nord,Hauts-de-France
2024-09-18 23:00:00,18210,Verneuil,2.2,37.5,,3.8,FR,Inconnu,50.0922500001161,3.85002999965121,France,Nord,Hauts-de-France
2019-06-11 13:00:00,19000,Tulle,24.0,5.0,3.0,2.0,FR,Inconnu,48.8863869997662,6.09361099988959,France,Meurthe-et-Moselle,Grand Est
2024-03-04 08:00:00,19000,Tulle,9.5,5.0,3.0,2.0,FR,Inconnu,48.8163870001885,2.51750000025093,France,Val-de-Marne,Île-de-France
2024-09-16 08:00:00,19000,Tulle,18.3,21.7,8.0,2.0,FR,Inconnu,49.2241669997297,4.02055599976787,France,Marne,Grand Est
2024-09-18 23:00:00,19100,Brive-la-Gaillarde,14.2,35.1,8.6,,FR,Inconnu,50.7482300002354,2.25977999995667,France,Pas-de-Calais,Hauts-de-France
2024-02-01 00:00:00,20000,Ajaccio,7.5,36.0,11.6,,FR,Inconnu,47.2224999999634,-1.53750000004799,France,Loire-Atlantique,Pays de la Loire
2024-09-18 23:00:00,20000,Ajaccio,4.2,38.3,11.6,,FR,Inconnu,43.0962500002002,-0.0404969998324175,France,Hautes-Pyrénées,Occitanie
2018-02-03 19:00:00,20167,Sarrola-Carcopino,8.0,58.7,14.2,,FR,Inconnu,43.0962500002002,-0.0404969998324175,France,Hautes-Pyrénées,Occitanie
2024-02-01 00:00:00,20167,Sarrola-Carcopino,3.9,18.4,21.2,,FR,Inconnu,43.0962500002002,-0.0404969998324175,France,Hautes-Pyrénées,Occitanie
2024-09-18 23:00:00,20200,Bastia,12.9,,15.0,,FR,Conseil départemental de la Mayenne,48.0694300001585,-0.767691999765811,France,Mayenne,Pays de la Loire
2024-09-16 08:00:00,20231,Venaco,0.8,70.1,5.1,1.3,FR,Inconnu,45.182800000109,5.75310000015467,France,Isère,Auvergne-Rhône-Alpes
2024-03-11 09:00:00,20290,Lucciana,4.2,19.0,3.5,,FR,Inconnu,45.182800000109,5.75310000015467,France,Isère,Auvergne-Rhône-Alpes
2023-08-10 10:00:00,20297,Bastia,3.9,77.1,6.0,2.0,FR,Inconnu,43.6286999997377,0.179069000028201,France,Gers,Occitanie
2024-09-18 23:00:00,20600,Bastia,3.0,66.5,,2.8,FR,Inconnu,43.230296999729,0.062338999671559,France,Hautes-Pyrénées,Occitanie
2018-07-11 15:00:00,21000,Dijon,1.9,50.68,27.5,5.6,FR,Inconnu,49.0460999999616,3.95591099960915,France,Marne,Grand Est
2023-01-01 01:00:00,21000,Dijon,35.6,24.021631638418082,27.5,5.6,FR,Inconnu,49.4933319998027,0.571853000282018,France,Seine-Maritime,Normandie
2024-01-29 17:00:00,21000,Dijon,54.8,17.600679609655884,27.5,19.398539527992376,FR,Inconnu,45.7641099997366,3.04611099982223,France,Puy-de-Dôme,Auvergne-Rhône-Alpes
2024-01-29 18:00:00,21000,Dijon,46.4,17.6,19.0,19.4,FR,Inconnu,46.5619739999054,3.34063890024972,France,Allier,Auvergne-Rhône-Alpes
2024-09-16 08:00:00,21000,Dijon,19.0,52.60153653743077,12.6,8.0,FR,Inconnu,43.2874999999812,3.50483999989313,France,Hérault,Occitanie
2024-09-18 23:00:00,21000,Dijon,24.3,53.0,17.9,5.8,FR,Mairie,43.9496729999063,4.80434099984507,France,Vaucluse,Provence-Alpes-Côte d'Azur
2024-09-16 08:00:00,21035,Dijon,24.5,,9.9,,FR,École Primaire Diderot,43.5915000003243,3.88680999990834,France,Hérault,Occitanie
2018-07-06 14:00:00,21121,Daix,3.88,40.6,19.08,,FR,Église Notre-Dame-la-Grande,46.5839999999289,0.34558200029356,France,Vienne,Nouvelle-Aquitaine
2024-09-18 23:00:00,21121,Daix,3.88,83.4,19.08,,FR,Église Notre-Dame-la-Grande,46.5839999999289,0.34558200029356,France,Vienne,Nouvelle-Aquitaine
2021-01-01 01:00:00,21700,Nuits-Saint-Georges,7.6,,11.2,,FR,Inconnu,48.1727800002807,6.45281099995298,France,Vosges,Grand Est
2018-04-25 16:00:00,22000,Saint-Brieuc,9.3,83.95,15.38,10.7,FR,8e Arrondissement,48.8688899999167,2.3119439997973,France,Paris,Île-de-France
2024-09-16 08:00:00,22000,Saint-Brieuc,6.2,79.8,8.9,10.7,FR,Inconnu,48.7266000002082,4.59478099976097,France,Marne,Grand Est
2024-09-18 23:00:00,22460,Merléac,3.4,85.5,39.2,25.7,FR,15e Arrondissement,48.8303869997457,2.26988899966535,France,Paris,Île-de-France
2024-03-04 08:00:00,23000,Guéret,49.1,2.8,6.6,,FR,15e Arrondissement,48.8303869997457,2.26988899966535,France,Paris,Île-de-France
2024-09-18 23:00:00,23000,Guéret,16.4,39.3,14.3,,FR,Inconnu,49.40052,1.098825,France,Seine-Maritime,Normandie
2024-03-04 08:00:00,23500,La Nouaille,,72.6,,,FR,Inconnu,43.096943,-0.038889,France,Hautes-Pyrénées,Occitanie
2024-09-18 23:00:00,23500,La Nouaille,,49.4,,,FR,Inconnu,46.58389,0.345556,France,Vienne,Nouvelle-Aquitaine
2024-03-04 08:00:00,24000,Périgueux,15.3,7.0,8.7,7.4,FR,Inconnu,43.695366,3.800817,France,Hérault,Occitanie
2024-09-18 23:00:00,24000,Périgueux,3.8,63.1,10.6,7.1,FR,Inconnu,43.58722,1.443889,France,Haute-Garonne,Occitanie
2016-12-05 02:00:00,25000,Besançon,27.85,20.03,39.2,2.6,FR,Inconnu,43.611668,3.864722,France,Hérault,Occitanie
2018-08-11 04:00:00,25000,Besançon,27.85,20.03,32.96176164740689,2.6,FR,Inconnu,43.47972,-1.488056,France,Pyrénées-Atlantiques,Nouvelle-Aquitaine
2024-09-18 23:00:00,25000,Besançon,27.85,45.7,10.3,2.6,FR,Inconnu,44.900276,-0.514722,France,Gironde,Nouvelle-Aquitaine
2024-09-18 23:00:00,25110,Baume-les-Dames,15.3,,8.9,4.0,FR,Inconnu,47.2750173101874,4.09832992182145,France,Nièvre,Bourgogne-Franche-Comté
2024-09-18 23:00:00,25190,Montandon,,33.8,14.9,,FR,Inconnu,43.2947895081236,5.57173766768144,France,Bouches-du-Rhône,Provence-Alpes-Côte d'Azur
2024-09-18 23:00:00,25200,Montbéliard,31.1,12.6,15.8,10.1,FR,Inconnu,48.1075139513805,-1.67916686168757,France,Ille-et-Vilaine,Bretagne
2024-09-18 23:00:00,25600,Dambenois,,65.9,,,FR,Inconnu,43.7933622306242,7.33139357882613,France,Alpes-Maritimes,Provence-Alpes-Côte d'Azur
2024-09-18 23:00:00,25660,Montfaucon,,80.2,,,FR,Inconnu,43.6755544389705,4.62861441719004,France,Bouches-du-Rhône,Provence-Alpes-Côte d'Azur
2024-09-18 23:00:00,26000,Valence,17.7,57.3,15.5,7.2,FR,Inconnu,46.6666401423631,4.36666568034079,France,Saône-et-Loire,Bourgogne-Franche-Comté
2024-09-18 23:00:00,26100,Romans-sur-Isère,28.7,56.2,13.9,8.1,FR,Inconnu,43.5302972250095,5.44138313680286,France,Bouches-du-Rhône,Provence-Alpes-Côte d'Azur
2024-09-18 23:00:00,26340,Saint-Nazaire-le-Désert,1.1,24.2,5.3,3.9,FR,Inconnu,43.9335199525261,5.71170417210011,France,Alpes-de-Haute-Provence,Provence-Alpes-Côte d'Azur
2017-12-08 15:00:00,26500,Bourg-lès-Valence,42.75,,13.1,7.4,FR,Inconnu,47.5945165359368,1.30173969506476,France,Loir-et-Cher,Centre-Val de Loire
2024-09-18 23:00:00,26500,Bourg-lès-Valence,27.4,,7.6,7.4,FR,Inconnu,48.3996394541087,-4.46723207639797,France,Finistère,Bretagne
2024-03-11 10:00:00,26800,Portes-lès-Valence,22.5,62.0,41.8,,FR,Inconnu,48.3996394541087,-4.46723207639797,France,Finistère,Bretagne
2016-12-04 19:00:00,27000,Évreux,83.75,81.0,54.7,38.5,FR,Inconnu,43.510559975903,5.21972384044637,France,Bouches-du-Rhône,Provence-Alpes-Côte d'Azur
2024-03-11 10:00:00,27000,Évreux,8.2,81.0,54.7,30.1,FR,Inconnu,47.8005658610427,3.57639077544232,France,Yonne,Bourgogne-Franche-Comté
2024-09-18 23:00:00,27100,Val-de-Reuil,,84.8,49.1,30.0,FR,Inconnu,50.6408018273658,3.07477152078998,France,Nord,Hauts-de-France
2018-04-25 02:00:00,28000,Chartres,14.7,75.63,51.1,12.15,FR,Inconnu,49.2763912615378,2.48217089416201,France,Oise,Hauts-de-France
2024-09-18 23:00:00,28000,Chartres,14.7,70.9,51.1,12.15,FR,Inconnu,47.2043914135194,-1.552827800129,France,Loire-Atlantique,Pays de la Loire
2024-01-29 18:00:00,28100,Dreux,9.3,37.5,11.6,8.1,FR,Inconnu,47.1372157133461,4.95057959817132,France,Côte-d'Or,Bourgogne-Franche-Comté
2024-09-18 23:00:00,28100,Dreux,7.8,84.6,56.2,29.6,FR,Inconnu,43.457222,4.426667,France,Bouches-du-Rhône,Provence-Alpes-Côte d'Azur
2018-04-25 02:00:00,28110,Lucé,6.75,,24.08,17.1,FR,Inconnu,14.7549926623185,-61.1788641096759,France,Martinique,Martinique
2018-12-07 11:00:00,28110,Lucé,6.9,,8.1,3.9,FR,Inconnu,43.8291454141088,4.64295152912459,France,Bouches-du-Rhône,Provence-Alpes-Côte d'Azur
2018-04-25 02:00:00,28380,Saint-Rémy-sur-Avre,13.58,,17.5,,FR,4e Arrondissement,48.8594439994682,2.351111,France,Paris,Île-de-France
2024-03-11 10:00:00,28380,Saint-Rémy-sur-Avre,13.2,,10.1,,FR,Inconnu,47.8374309994659,1.944611,France,Loiret,Centre-Val de Loire
2018-04-25 02:00:00,28700,Oysonville,8.1,64.35,,,FR,Inconnu,50.438677999473,3.433458,France,Nord,Hauts-de-France
2024-09-18 23:00:00,28700,Oysonville,8.1,72.6,,,FR,Inconnu,47.5946059994655,1.303647,France,Loir-et-Cher,Centre-Val de Loire
2018-04-25 16:00:00,29000,Quimper,5.5,87.2,23.73,21.7,FR,Inconnu,47.0826499994647,2.404492,France,Cher,Centre-Val de Loire
2023-01-01 00:00:00,29000,Quimper,5.5,87.2,24.6,21.7,FR,Inconnu,50.6938919994739,1.576389,France,Pas-de-Calais,Hauts-de-France
2024-09-18 23:00:00,29000,Quimper,5.5,87.2,37.0,21.7,FR,Inconnu,45.1904389994632,5.686964,France,Isère,Auvergne-Rhône-Alpes
2019-11-27 07:00:00,29200,Brest,17.0,64.3,90.8,12.2,FR,Inconnu,49.0202023170884,1.13871343730275,France,Eure,Normandie
2024-01-29 16:00:00,29200,Brest,17.8,74.49944242490503,90.8,12.2,FR,Inconnu,48.590429999772,7.74498300033633,France,Bas-Rhin,Grand Est
2024-01-29 18:00:00,29200,Brest,10.4,74.5,24.9,13.2,FR,Inconnu,47.6200200000515,6.15764199975499,France,Haute-Saône,Bourgogne-Franche-Comté
2024-03-11 09:00:00,29200,Brest,24.8,88.1,41.6,23.8,FR,Inconnu,45.1587370002402,1.53725900002356,France,Corrèze,Nouvelle-Aquitaine
2024-09-16 08:00:00,29200,Brest,12.2,88.1,10.8,6.5,FR,Inconnu,43.4112300000173,-0.617727999921422,France,Pyrénées-Atlantiques,Nouvelle-Aquitaine
2024-09-16 08:00:00,30000,Nîmes,27.3,,5.6,,FR,Biotropica les jardins animaliers,49.3048700002814,1.2143670002142,France,Eure,Normandie
2024-03-04 08:00:00,30011,Nîmes,13.2,50.8,4.6,2.9,FR,Inconnu,45.042500000017,5.04429999992356,France,Drôme,Auvergne-Rhône-Alpes
2024-09-16 14:00:00,30011,Nîmes,6.7,83.4,14.1,3.2,FR,Inconnu,45.6750000001249,6.38972200044397,France,Savoie,Auvergne-Rhône-Alpes
2020-12-30 14:00:00,30126,Saint-Laurent-des-Arbres,,,18.1,5.5,FR,Inconnu,49.1874199998884,6.91086700017932,France,Moselle,Grand Est
2020-01-20 08:00:00,30190,La Calmette,4.3,66.9,8.4,,FR,Inconnu,47.6406669998236,6.85927800027395,France,Territoire-de-Belfort,Bourgogne-Franche-Comté
2017-11-04 17:00:00,30340,Saint-Privat-des-Vieux,,74.88,,,FR,Inconnu,46.1736200000662,1.87302399978817,France,Creuse,Nouvelle-Aquitaine
2024-03-04 08:00:00,30650,Saze,,59.4,,,FR,Conseil Départemental de la Côte-d'Or,47.325745000116,5.04105600017628,France,Côte-d'Or,Bourgogne-Franche-Comté
2024-09-16 14:00:00,30650,Saze,,90.0,,,FR,Inconnu,48.4491579997343,1.49246899995736,France,Eure-et-Loir,Centre-Val de Loire
2024-01-29 17:00:00,31100,Toulouse,62.7,3.3,19.3,7.7,FR,Inconnu,43.6751139999298,4.62921000022341,France,Bouches-du-Rhône,Provence-Alpes-Côte d'Azur
2024-03-04 07:00:00,31100,Toulouse,62.7,3.3,15.4,7.7,FR,Inconnu,47.3441400000065,0.653778000432585,France,Indre-et-Loire,Centre-Val de Loire
2024-03-04 08:00:00,31100,Toulouse,62.7,3.3,10.7,7.7,FR,Inconnu,47.3512879997476,6.35972199975944,France,Doubs,Bourgogne-Franche-Comté
2024-09-16 08:00:00,31100,Toulouse,14.154799745708836,65.20260648442468,10.35,5.407310870947235,FR,Inconnu,45.2626650002923,1.76275199968717,France,Corrèze,Nouvelle-Aquitaine
2024-09-16 23:00:00,31100,Toulouse,14.0,65.4,11.0,5.4,FR,Inconnu,43.9334750001492,5.71180900010387,France,Alpes-de-Haute-Provence,Provence-Alpes-Côte d'Azur
2021-05-17 05:00:00,31200,Toulouse,4.2,60.4,9.9,4.9,FR,Inconnu,47.9589729999032,2.00927799980123,France,Loiret,Centre-Val de Loire
2024-03-04 08:00:00,31200,Toulouse,83.5,60.4,28.6,9.0,FR,Inconnu,46.5869600000919,0.358457999723541,France,Vienne,Nouvelle-Aquitaine
2024-03-11 08:00:00,31200,Toulouse,20.4,60.4,10.9,6.2,FR,Inconnu,48.0828820001711,-1.83458300019766,France,Ille-et-Vilaine,Bretagne
2024-09-16 23:00:00,31200,Toulouse,37.3,60.4,17.9,11.3,FR,Inconnu,47.07504299984,2.40718299994408,France,Cher,Centre-Val de Loire
2024-03-04 08:00:00,31400,Toulouse,23.9,37.0,4.5,2.4,FR,9e Arrondissement,48.8733330000044,2.33027800029853,France,Paris,Île-de-France
2024-09-16 23:00:00,31400,Toulouse,9.5,71.4,10.7,5.0,FR,Inconnu,45.6474269998404,0.16716199982047,France,Charente,Nouvelle-Aquitaine
2024-03-04 08:00:00,31450,Montgiscard,,45.5,,,FR,Inconnu,49.1516700001407,-0.352777999792764,France,Calvados,Normandie
2024-09-16 23:00:00,31450,Montgiscard,,69.5,,,FR,Inconnu,47.5949129999996,7.56817499969113,France,Haut-Rhin,Grand Est
2024-09-16 23:00:00,31540,Bélesta-en-Lauragais,,63.1,,,FR,CIRFA Perpignan - Armée de l'Air,42.6955000001482,2.90052999972499,France,Pyrénées-Orientales,Occitanie
2024-03-04 06:00:00,31660,Bessières,,,4.1,,FR,Ecole Maternelle Barbusse,50.4491399998364,2.89999999999557,France,Pas-de-Calais,Hauts-de-France
2024-09-16 08:00:00,31660,Bessières,,,7.6,,FR,Inconnu,47.2346099999514,6.07647200036306,France,Doubs,Bourgogne-Franche-Comté
2024-03-04 07:00:00,31700,Blagnac,12.2,,10.8,,FR,Inconnu,44.9002950000358,-0.515834999700427,France,Gironde,Nouvelle-Aquitaine
2024-03-11 08:00:00,31700,Blagnac,10.2,,8.9,,FR,3e Arrondissement,45.7577319999332,4.85421400016547,France,Rhône,Auvergne-Rhône-Alpes
2017-04-12 09:00:00,31770,Colomiers,,4.6,,,FR,Inconnu,49.1922200000328,-0.391111000326555,France,Calvados,Normandie
2024-03-01 10:00:00,32230,Peyrusse-Vieille,0.3,73.0,5.4,2.9,FR,Inconnu,47.0967200000337,5.49638900016394,France,Jura,Bourgogne-Franche-Comté
2024-03-11 10:00:00,32230,Peyrusse-Vieille,0.5,82.5,7.5,4.1,FR,Jardin Communaux,46.1936899998302,6.21485799988769,France,Haute-Savoie,Auvergne-Rhône-Alpes
2024-03-04 08:00:00,32380,Gaudonville,,61.2,,,FR,École Jules Ferry,46.1351360000773,-1.11708600006922,France,Charente-Maritime,Nouvelle-Aquitaine
2024-09-16 23:00:00,32380,Gaudonville,,69.4,,,FR,Inconnu,43.376278000024,-0.538206000342397,France,Pyrénées-Atlantiques,Nouvelle-Aquitaine
2024-09-16 08:00:00,33000,Bordeaux,65.4,,16.3,9.4,FR,Inconnu,48.5728069998645,7.76783299975578,France,Bas-Rhin,Grand Est
2024-01-08 12:00:00,33100,Bordeaux,13.9,,17.3,,FR,12e Arrondissement,48.8372230000981,2.39389999991001,France,Paris,Île-de-France
2024-09-16 08:00:00,33270,Floirac,74.0,,11.8,,FR,Inconnu,49.1250800001021,6.18121900034399,France,Moselle,Grand Est
2024-03-04 08:00:00,33300,Bordeaux,23.8,26.9,10.8,,FR,Inconnu,43.5873450000132,1.44400300032376,France,Haute-Garonne,Occitanie
2024-09-16 08:00:00,33300,Bordeaux,41.5,33.2,10.4,,FR,Inconnu,50.7754819998265,3.12568000015524,France,Nord,Hauts-de-France
2024-03-01 20:00:00,33400,Talence,6.3,79.1,7.9,5.2,FR,Inconnu,49.2595520002579,2.4743970003557,France,Oise,Hauts-de-France
2024-09-18 23:00:00,33400,Talence,54.2,9.0,14.6,8.7,FR,Inconnu,49.2595520002579,2.4743970003557,France,Oise,Hauts-de-France
2019-01-16 08:00:00,33450,Saint-Sulpice-et-Cameyrac,,2.6,,,FR,Inconnu,47.0544429999979,-0.886110999943241,France,Maine-et-Loire,Pays de la Loire
2024-03-04 08:00:00,33530,Bassens,37.5,25.1,7.5,5.1,FR,Inconnu,47.3157270003001,-2.19076399974636,France,Loire-Atlantique,Pays de la Loire
2024-09-18 23:00:00,33530,Bassens,28.9,41.1,22.7,14.7,FR,Inconnu,47.2224999999634,-1.53750000004799,France,Loire-Atlantique,Pays de la Loire
2024-03-04 08:00:00,33680,Le Temple,2.6,41.5,,,FR,Saint-Pol-sur-Mer,51.0327599998369,2.33235799993157,France,Nord,Hauts-de-France
2024-09-18 23:00:00,33680,Le Temple,1.6,16.2,,,FR,Inconnu,43.6286999997377,0.179069000028201,France,Gers,Occitanie
2024-03-04 08:00:00,33700,Mérignac,35.4,,6.9,,FR,Inconnu,50.9472900000261,1.84308000007845,France,Pas-de-Calais,Hauts-de-France
2024-09-16 08:00:00,33700,Mérignac,59.6,,13.4,,FR,Autoroute A43,45.209365999758,6.4803260000502,France,Savoie,Auvergne-Rhône-Alpes
2020-03-23 04:00:00,33810,Ambès,19.2,29.8,,,FR,Inconnu,45.7690000000847,3.1550000004242,France,Puy-de-Dôme,Auvergne-Rhône-Alpes
2024-03-04 08:00:00,33810,Ambès,19.2,51.9,,,FR,Université Indépendante de Vichy,46.1304319997242,3.42569400005774,France,Allier,Auvergne-Rhône-Alpes
2024-03-11 10:00:00,33810,Ambès,11.2,50.0,,,FR,Inconnu,49.4983000002172,0.142706000420907,France,Seine-Maritime,Normandie
2019-01-31 13:00:00,33850,Léognan,,47.7,,,FR,Inconnu,43.2874999999812,3.50483999989313,France,Hérault,Occitanie
2024-03-04 08:00:00,34000,Montpellier,224.4,86.1,11.8,3.4,FR,Mairie,43.9496729999063,4.80434099984507,France,Vaucluse,Provence-Alpes-Côte d'Azur
2024-09-16 14:00:00,34000,Montpellier,3.9,86.1,10.1,3.1,FR,Inconnu,-20.8898930003724,55.4688400000578,France,La Réunion,La Réunion
2024-09-16 14:00:00,34006,Montpellier,,,12.3,2.4,FR,École Primaire Diderot,43.5915000003243,3.88680999990834,France,Hérault,Occitanie
2024-03-04 08:00:00,34062,Montpellier,21.6,,,,FR,Inconnu,49.5036199999966,0.266871999577949,France,Seine-Maritime,Normandie
2024-04-11 00:00:00,34062,Montpellier,-1.0,,,,FR,Inconnu,43.6757999997234,4.08838000027485,France,Hérault,Occitanie
2017-12-08 07:00:00,34140,Mèze,40.23,,37.5,25.2,FR,Inconnu,43.3995479999429,5.11321400002661,France,Bouches-du-Rhône,Provence-Alpes-Côte d'Azur
2024-09-18 23:00:00,34185,Montpellier,63.3,,22.0,9.4,FR,Inconnu,50.6700299997373,3.07656000004533,France,Nord,Hauts-de-France
2024-03-04 08:00:00,34300,Agde,4.6,61.5,,,FR,Inconnu,45.3678200001453,4.80514699975902,France,Isère,Auvergne-Rhône-Alpes
2024-09-16 14:00:00,34300,Agde,2.3,79.3,,,FR,Inconnu,49.40052,1.098825,France,Seine-Maritime,Normandie
2018-10-06 15:00:00,34330,Fraisse-sur-Agout,,102.3,,,FR,Inconnu,49.9025,2.3046,France,Somme,Hauts-de-France
2024-03-11 08:00:00,34400,Lunel-Viel,30.3,,6.4,2.3,FR,Inconnu,49.44246,1.093694,France,Seine-Maritime,Normandie
2024-09-16 14:00:00,34490,Corneilhan,,84.7,,,FR,Inconnu,46.58389,0.345556,France,Vienne,Nouvelle-Aquitaine
2024-03-11 10:00:00,34967,Montpellier,16.7,,,,FR,Inconnu,43.609974,3.898611,France,Hérault,Occitanie
2024-03-04 08:00:00,34970,Lattes,,49.3,,,FR,Inconnu,43.942886,4.679686,France,Gard,Occitanie
2024-09-16 14:00:00,34970,Lattes,,86.4,,,FR,Inconnu,46.5909,0.3404,France,Vienne,Nouvelle-Aquitaine
2024-03-04 08:00:00,34980,Saint-Gély-du-Fesc,,57.1,13.7,,FR,Inconnu,46.143173,-0.396042,France,Deux-Sèvres,Nouvelle-Aquitaine
2024-09-16 14:00:00,34980,Saint-Gély-du-Fesc,,77.7,13.7,,FR,Inconnu,46.143173,-0.396042,France,Deux-Sèvres,Nouvelle-Aquitaine
2018-04-25 18:00:00,35000,Rennes,39.35,33.4,21.75,5.58,FR,École Primaire Charles Moureu,43.376945,-0.609444,France,Pyrénées-Atlantiques,Nouvelle-Aquitaine
2022-12-01 13:00:00,35000,Rennes,16.5,33.4,36.234574193203485,17.958380526400198,FR,Inconnu,43.610558,2.23,France,Tarn,Occitanie
2024-01-29 18:00:00,35000,Rennes,26.4,59.791361389276204,39.89027834702496,21.082510825596522,FR,Inconnu,43.834404,4.374219,France,Gard,Occitanie
2024-09-18 23:00:00,35000,Rennes,11.6,74.3,41.9,22.8,FR,Inconnu,43.230278,0.062222,France,Hautes-Pyrénées,Occitanie
2018-04-25 16:00:00,35200,Rennes,6.25,84.75,,,FR,Grand Cimetière de Dijon,47.3080413032157,5.06611192686193,France,Côte-d'Or,Bourgogne-Franche-Comté
2017-06-30 09:00:00,35300,Fougères,4.78,52.95,,,FR,Inconnu,43.4858630407889,5.17194245048405,France,Bouches-du-Rhône,Provence-Alpes-Côte d'Azur
2024-09-18 23:00:00,35310,Mordelles,,76.2,,,FR,Inconnu,47.648889066211,-2.76389155041474,France,Morbihan,Bretagne
2018-04-25 16:00:00,35400,Saint-Malo,3.8,89.45,13.4,5.1,FR,Stade Desclieux,14.6061349483266,-61.0652272262348,France,Martinique,Martinique
2018-06-21 08:00:00,35400,Saint-Malo,4.83,50.78,13.4,5.1,FR,Inconnu,48.1086536280958,-1.66576399764851,France,Ille-et-Vilaine,Bretagne
2024-09-16 08:00:00,35400,Saint-Malo,6.3,92.7,13.4,5.1,FR,Inconnu,43.5625273554356,7.00721854224592,France,Alpes-Maritimes,Provence-Alpes-Côte d'Azur
2018-04-25 16:00:00,35480,Guipry-Messac,3.65,92.33,78.38,6.4,FR,Inconnu,43.453461514164,5.4671019033872,France,Bouches-du-Rhône,Provence-Alpes-Côte d'Azur
2019-12-19 15:00:00,35480,Guipry-Messac,1.9,60.0,16.2,13.6,FR,Inconnu,-20.8847369878067,55.4538109724538,France,La Réunion,La Réunion
2024-01-29 18:00:00,35706,Rennes,27.7,,28.9,12.2,FR,Inconnu,46.3217459318821,-0.46597230754791,France,Deux-Sèvres,Nouvelle-Aquitaine
2024-09-18 23:00:00,35706,Rennes,7.5,,39.7,20.3,FR,Inconnu,48.5703749994675,7.766331,France,Bas-Rhin,Grand Est
2018-04-25 02:00:00,36000,Châteauroux,2.35,55.4,30.63,8.6,FR,4e Arrondissement,48.8589975104964,2.35099889637488,France,Paris,Île-de-France
2024-03-11 10:00:00,36000,Châteauroux,29.6,22.1,13.3,8.6,FR,Inconnu,48.5492988706458,5.46068793225859,France,Meuse,Grand Est
2021-12-29 22:00:00,36100,Issoudun,2.7,,,2.6,FR,Inconnu,47.9979809994662,2.720156,France,Loiret,Centre-Val de Loire
2018-04-25 02:00:00,36130,Montierchaume,,59.23,,,FR,4e Arrondissement,48.8594439994682,2.351111,France,Paris,Île-de-France
2024-09-18 23:00:00,36130,Montierchaume,,32.5,,,FR,4e Arrondissement,48.8594439994682,2.351111,France,Paris,Île-de-France
2018-04-25 02:00:00,36360,Villentrois-Faverolles-en-Berry,,68.23,,,FR,Inconnu,47.8374309994659,1.944611,France,Loiret,Centre-Val de Loire
2024-09-18 23:00:00,36360,Villentrois-Faverolles-en-Berry,,30.4,,,FR,Inconnu,47.4193389994652,0.684139,France,Indre-et-Loire,Centre-Val de Loire
2018-04-25 02:00:00,37100,Tours,5.18,,15.55,,FR,Inconnu,49.4414447487293,1.08265856357369,France,Seine-Maritime,Normandie
2024-09-18 23:00:00,37100,Tours,18.5,,15.55,,FR,Inconnu,46.5618635984186,3.3310878208078,France,Allier,Auvergne-Rhône-Alpes
2018-04-25 02:00:00,37300,Joué-lès-Tours,5.48,79.75,17.8,8.7,FR,Inconnu,45.87583500017,0.823951000371826,France,Haute-Vienne,Nouvelle-Aquitaine
2024-09-18 23:00:00,37300,Joué-lès-Tours,21.8,39.1,17.8,10.7,FR,Inconnu,48.2004359999738,3.27730000020845,France,Yonne,Bourgogne-Franche-Comté
2024-01-29 18:00:00,37390,Chanceaux-sur-Choisille,,39.5,,,FR,Inconnu,47.6200200000515,6.15764199975499,France,Haute-Saône,Bourgogne-Franche-Comté
2024-09-18 23:00:00,37390,Chanceaux-sur-Choisille,,49.9,,,FR,Inconnu,46.8210560001565,4.83508299997113,France,Saône-et-Loire,Bourgogne-Franche-Comté
2018-04-25 02:00:00,37700,Tours,5.63,,13.98,3.7,FR,Inconnu,49.0658299999143,5.78555600021588,France,Meuse,Grand Est
2024-03-11 10:00:00,37700,Tours,44.5,,11.0,3.7,FR,Inconnu,47.9866069997269,-4.09765799995523,France,Finistère,Bretagne
2024-03-11 10:00:00,38000,Grenoble,14.5,,14.5,,FR,Inconnu,44.8413730001661,-0.65106799971438,France,Gironde,Nouvelle-Aquitaine
2024-01-29 17:00:00,38100,Grenoble,94.0,81.1,50.6,2.5,FR,Inconnu,46.3161740002279,4.83999399979789,France,Saône-et-Loire,Bourgogne-Franche-Comté
2024-03-11 10:00:00,38100,Grenoble,3.4,81.1,5.8,2.5,FR,Inconnu,45.6018999997678,4.80220000011266,France,Rhône,Auvergne-Rhône-Alpes
2024-09-19 10:00:00,38120,Mont-Saint-Martin,,,1.015,1.97,FR,Station d'Épuration de Noeux-Les-Mines,50.4897199999063,2.66641999963169,France,Pas-de-Calais,Hauts-de-France
2020-12-23 07:00:00,38130,Échirolles,37.1,,23.4,14.5,FR,Inconnu,47.910300000205,1.87343100039226,France,Loiret,Centre-Val de Loire
2024-03-11 10:00:00,38150,Roussillon,8.9,65.2,0.1,,FR,Inconnu,47.910300000205,1.87343100039226,France,Loiret,Centre-Val de Loire
2019-12-09 01:00:00,38150,Salaise-sur-Sanne,29.9,,12.8,10.6,FR,Inconnu,47.7231060000767,7.34160300030211,France,Haut-Rhin,Grand Est
2024-03-11 10:00:00,38150,Salaise-sur-Sanne,46.0,,8.3,6.3,FR,Inconnu,43.4940400001703,-1.52875299992194,France,Pyrénées-Atlantiques,Nouvelle-Aquitaine
2016-12-05 02:00:00,38200,Vienne,27.5,0.0,53.75,,FR,Inconnu,44.8004599997874,-0.589397999689418,France,Gironde,Nouvelle-Aquitaine
2024-09-18 23:00:00,38300,Bourgoin-Jallieu,5.8,46.4,5.2,5.6,FR,Inconnu,48.6970800001459,6.15419399979321,France,Meurthe-et-Moselle,Grand Est
2024-09-15 04:00:00,38320,Eybens,32.1,,9.0,2.7,FR,Inconnu,47.5949129999996,7.56817499969113,France,Haut-Rhin,Grand Est
2024-09-18 23:00:00,38370,Les Roches-de-Condrieu,12.6,45.8,,,FR,Inconnu,43.5583879998064,7.00591899983004,France,Alpes-Maritimes,Provence-Alpes-Côte d'Azur
2024-09-16 23:00:00,38400,Saint-Martin-d'Hères,20.3,82.2,6.5,2.8,FR,Inconnu,43.5583879998064,7.00591899983004,France,Alpes-Maritimes,Provence-Alpes-Côte d'Azur
2024-03-11 10:00:00,38440,Lieudieu,4.1,46.4,,,FR,Inconnu,48.6569440000801,6.1360219996737,France,Meurthe-et-Moselle,Grand Est
2024-09-16 23:00:00,38450,Vif,1.7,79.9,3.1,,FR,Inconnu,47.5865439999998,1.32653300017541,France,Loir-et-Cher,Centre-Val de Loire
2024-09-16 08:00:00,38500,Voiron,6.0,82.2,3.7,,FR,Inconnu,45.9072229998124,6.84583299985817,France,Haute-Savoie,Auvergne-Rhône-Alpes
2024-01-29 18:00:00,38550,Sablons,4.9,76.4,,,FR,Inconnu,47.0967200000337,5.49638900016394,France,Jura,Bourgogne-Franche-Comté
2024-09-18 23:00:00,38550,Sablons,9.5,50.7,,,FR,Inconnu,50.378220000192,3.06585999960954,France,Nord,Hauts-de-France
2024-03-01 10:00:00,38560,Champ-sur-Drac,9.0,76.8,,,FR,12e Arrondissement,48.8386150001873,2.4127809998591,France,Paris,Île-de-France
2018-02-13 08:00:00,38600,Fontaine,59.95,0.75,13.08,,FR,1e Arrondissement,48.8621199998727,2.34461599976858,France,Paris,Île-de-France
2024-09-16 23:00:00,38920,Crolles,2.0,107.2,5.5,2.4,FR,1e Arrondissement,48.8621199998727,2.34461599976858,France,Paris,Île-de-France
2024-03-04 07:00:00,39000,Lons-le-Saunier,,53.2,,4.1,FR,Inconnu,48.6337299998935,1.83052900033848,France,Yvelines,Île-de-France
2024-09-16 08:00:00,39000,Lons-le-Saunier,,41.0,,5.1,FR,13e Arrondissement,48.828610000236,2.36027800008475,France,Paris,Île-de-France
2024-09-18 23:00:00,39100,Dole,9.4,61.7,12.7,7.6,FR,2e Arrondissement,48.8702740002815,2.33250000022179,France,Paris,Île-de-France
2024-03-11 10:00:00,39500,Damparis,16.4,,,,FR,Inconnu,48.9038999997566,2.38470000004744,France,Seine-Saint-Denis,Île-de-France
2024-03-11 10:00:00,39500,Tavaux,10.0,,,,FR,Inconnu,43.2833399997746,5.51138399958502,France,Bouches-du-Rhône,Provence-Alpes-Côte d'Azur
2024-09-16 08:00:00,39700,Châtenois,,,7.8,,FR,4e Arrondissement,43.3052859999273,5.39471600005097,France,Bouches-du-Rhône,Provence-Alpes-Côte d'Azur
2023-06-01 09:00:00,40000,Mont-de-Marsan,12.9,16.2,18.5,3.0,FR,Inconnu,48.9908300001307,2.44472200025949,France,Val-d'Oise,Île-de-France
2024-03-11 08:00:00,40000,Mont-de-Marsan,18.8,16.2,11.1,16.8,FR,Inconnu,49.1102830002213,6.22333600040022,France,Moselle,Grand Est
2023-10-12 10:00:00,40100,Dax,8.0,0.3,27.0,11.5,FR,Inconnu,43.4165300001598,5.2222810000055,France,Bouches-du-Rhône,Provence-Alpes-Côte d'Azur
2024-03-04 08:00:00,40400,Tartas,,,3.4,,FR,Inconnu,50.3642500001959,3.52272999998034,France,Nord,Hauts-de-France
2024-09-16 08:00:00,40400,Tartas,,,9.2,,FR,Inconnu,43.3987299999985,6.07561100019752,France,Var,Provence-Alpes-Côte d'Azur
2018-04-25 02:00:00,41000,Blois,4.6,80.68,15.35,6.0,FR,Inconnu,47.1460880000449,-1.69026900014682,France,Loire-Atlantique,Pays de la Loire
2024-01-29 18:00:00,41000,Blois,19.2,39.0,10.5,6.0,FR,Inconnu,46.6607000002319,-1.43683100021568,France,Vendée,Pays de la Loire
2024-09-16 08:00:00,41000,Blois,44.2,32.57316419510452,23.84804359478292,11.6,FR,Inconnu,49.4359320000813,2.08429199995963,France,Oise,Hauts-de-France
2024-09-18 23:00:00,41000,Blois,25.5,32.5,24.0,14.2,FR,Inconnu,49.1749299998364,3.26081899955954,France,Aisne,Hauts-de-France
2024-09-18 23:00:00,42000,Saint-Étienne,22.8,,14.1,,FR,Inconnu,50.7482300002354,2.25977999995667,France,Pas-de-Calais,Hauts-de-France
2018-02-01 09:00:00,42100,Saint-Étienne,65.63,46.8,9.4,6.05,FR,Inconnu,45.1619000003116,5.7356000000548,France,Isère,Auvergne-Rhône-Alpes
2024-03-11 10:00:00,42100,Saint-Étienne,16.1,46.8,14.2,9.4,FR,Inconnu,47.1941500002099,-1.58167780004469,France,Loire-Atlantique,Pays de la Loire
2024-09-18 23:00:00,42300,Roanne,20.1,27.6,2.9,,FR,Inconnu,47.2641200000181,-2.24985799984573,France,Loire-Atlantique,Pays de la Loire
2024-09-18 23:00:00,42350,La Talaudière,13.3,39.9,14.2,,FR,Inconnu,43.643943999839,1.46824399963817,France,Haute-Garonne,Occitanie
2023-01-25 13:00:00,42400,Saint-Chamond,14.9,30.4,-1.0,3.7,FR,Inconnu,43.643943999839,1.46824399963817,France,Haute-Garonne,Occitanie
2016-11-29 02:00:00,42520,Roisey,4.5,35.5,20.5,,FR,Inconnu,51.0244600002385,2.30214999973289,France,Nord,Hauts-de-France
2024-01-02 10:00:00,42800,Rive-de-Gier,48.5,,22.1,,FR,Inconnu,47.3191570002322,-2.06695300041656,France,Loire-Atlantique,Pays de la Loire
2024-09-16 08:00:00,43000,Le Puy-en-Velay,3.8,86.6,1.8,,FR,Inconnu,50.9959400001875,2.36627000018506,France,Nord,Hauts-de-France
2016-12-05 18:00:00,43160,Sembadel,,76.75,,,FR,Inconnu,44.9970000002859,6.4693999996586,France,Hautes-Alpes,Provence-Alpes-Côte d'Azur
2024-09-16 14:00:00,43430,Fay-sur-Lignon,,90.5,,,FR,Inconnu,47.905982999466,1.900361,France,Loiret,Centre-Val de Loire
2024-09-16 23:00:00,44000,Nantes,8.6,58.0,8.9,4.1,FR,Inconnu,47.9590139994661,2.010036,France,Loiret,Centre-Val de Loire
2021-05-31 08:00:00,44200,Nantes,7.6,,7.7,9.4,FR,Inconnu,47.344499999465,0.653322,France,Indre-et-Loire,Centre-Val de Loire
2024-03-11 09:00:00,44276,Nantes,42.9,,7.1,25.0,FR,Inconnu,16.2386999997104,-61.5381,France,Guadeloupe,Guadeloupe
2024-09-16 23:00:00,44300,Nantes,6.6,,7.7,3.7,FR,Inconnu,45.3895622059041,4.61581342439134,France,Loire,Auvergne-Rhône-Alpes
2024-09-16 08:00:00,44320,Frossay,6.9,,5.7,3.7,FR,Inconnu,46.3407199997582,2.59394499958895,France,Allier,Auvergne-Rhône-Alpes
2024-03-11 09:00:00,44340,Bouguenais,9.4,,9.5,5.0,FR,Inconnu,44.9200800000815,2.44108199977878,France,Cantal,Auvergne-Rhône-Alpes
2024-09-16 08:00:00,44360,Saint-Étienne-de-Montluc,3.9,,5.2,2.7,FR,Inconnu,47.3227039997187,-2.03924400015057,France,Loire-Atlantique,Pays de la Loire
2024-09-16 23:00:00,44400,Rezé,,,12.9,9.0,FR,Inconnu,-21.0221120002753,55.2667729995738,France,La Réunion,La Réunion
2021-03-23 03:00:00,44480,Donges,6.6,,16.2,9.6,FR,Inconnu,48.1727800002807,6.45281099995298,France,Vosges,Grand Est
2024-03-04 07:00:00,44480,Donges,1.7,,16.2,9.6,FR,Inconnu,43.310833,-0.391111,France,Pyrénées-Atlantiques,Nouvelle-Aquitaine
2024-03-11 09:00:00,44480,Donges,10.5,,6.6,3.7,FR,Inconnu,46.586918,0.358583,France,Vienne,Nouvelle-Aquitaine
2024-09-16 23:00:00,44480,Donges,2.9,,6.1,2.4,FR,Inconnu,43.096943,-0.038889,France,Hautes-Pyrénées,Occitanie
2021-07-14 18:00:00,44550,Montoir-de-Bretagne,1.3,,26.5,13.7,FR,Inconnu,43.58722,1.443889,France,Haute-Garonne,Occitanie
2024-09-18 23:00:00,44550,Montoir-de-Bretagne,8.0,,26.5,13.7,FR,Inconnu,46.5909,0.3404,France,Vienne,Nouvelle-Aquitaine
2024-03-11 07:00:00,44570,Trignac,6.6,,,,FR,Inconnu,45.89,0.9,France,Haute-Vienne,Nouvelle-Aquitaine
2024-09-16 23:00:00,44600,Saint-Nazaire,6.15,60.2,5.8,2.5,FR,Inconnu,43.643055,1.46765,France,Haute-Garonne,Occitanie
2024-09-16 23:00:00,44830,Bouaye,,55.1,,,FR,Inconnu,43.3987241550087,6.07610576710319,France,Var,Provence-Alpes-Côte d'Azur
2018-04-25 02:00:00,45000,Orléans,14.15,,13.58,,FR,Inconnu,48.2005841475738,3.277224836372,France,Yonne,Bourgogne-Franche-Comté
2024-09-18 23:00:00,45000,Orléans,21.0,,16.7,,FR,Le palais de l'Univers et des Sciences,50.9959079994751,2.365994,France,Nord,Hauts-de-France
2018-04-25 02:00:00,45100,Orléans,4.88,77.28,14.68,16.4,FR,15e Arrondissement,43.3480529322015,5.36065154221904,France,Bouches-du-Rhône,Provence-Alpes-Côte d'Azur
2024-09-18 23:00:00,45100,Orléans,3.9,81.0,35.0,16.4,FR,Inconnu,43.3995726680061,5.11471976688564,France,Bouches-du-Rhône,Provence-Alpes-Côte d'Azur
2024-09-18 23:00:00,45140,Saint-Jean-de-la-Ruelle,9.0,,41.7,18.0,FR,Inconnu,43.2831503020971,5.51208953281591,France,Bouches-du-Rhône,Provence-Alpes-Côte d'Azur
2024-03-04 08:00:00,45200,Montargis,35.6,64.5,28.6,17.4,FR,Inconnu,46.3217459318821,-0.46597230754791,France,Deux-Sèvres,Nouvelle-Aquitaine
2024-09-16 08:00:00,45200,Montargis,42.4,64.5,28.6,12.1,FR,Inconnu,47.7522102114299,-3.37565324205297,France,Morbihan,Bretagne
2024-09-18 23:00:00,45200,Montargis,17.7,64.5,28.6,13.2,FR,4e Arrondissement,48.8594439994682,2.351111,France,Paris,Île-de-France
2018-04-25 02:00:00,45700,Villemandeur,3.35,81.6,25.05,14.05,FR,Inconnu,50.0930799994718,3.850003,France,Nord,Hauts-de-France
2020-12-14 13:00:00,45700,Villemandeur,9.1,37.1,45.5,41.2,FR,Cimetière,46.8645299998696,1.77194400005214,France,Indre,Centre-Val de Loire
2018-04-25 02:00:00,45760,Marigny-les-Usages,,69.33,,,FR,Inconnu,44.0128559998603,1.37530519955676,France,Tarn-et-Garonne,Occitanie
2024-09-18 23:00:00,45760,Marigny-les-Usages,,74.1,,,FR,Inconnu,48.6530599999378,-2.00267999980351,France,Ille-et-Vilaine,Bretagne
2018-04-25 02:00:00,45800,Saint-Jean-de-Braye,9.93,,6.8,8.3,FR,Inconnu,43.6390039998181,5.1010969997566,France,Bouches-du-Rhône,Provence-Alpes-Côte d'Azur
2022-12-31 01:00:00,45800,Saint-Jean-de-Braye,3.2,,6.8,3.9,FR,Inconnu,47.3513680002532,5.07070600015813,France,Côte-d'Or,Bourgogne-Franche-Comté
2018-12-27 08:00:00,47000,Agen,23.2,1.1,16.0,,FR,Inconnu,47.3210799999773,-2.12732200005993,France,Loire-Atlantique,Pays de la Loire
2024-03-04 08:00:00,47200,Marmande,33.4,,9.8,5.7,FR,Inconnu,49.1798319998666,-0.329750000098078,France,Calvados,Normandie
2024-09-16 08:00:00,47200,Marmande,24.8,,15.5,2.0,FR,Inconnu,45.8232230002939,4.95395800025814,France,Ain,Auvergne-Rhône-Alpes
2024-03-11 09:00:00,49007,Angers,5.4,64.2,,,FR,Inconnu,47.2041199999351,-1.56481099993071,France,Loire-Atlantique,Pays de la Loire
2024-09-16 23:00:00,49051,Angers,8.8,,12.55,10.4,FR,Inconnu,47.2041199999351,-1.56481099993071,France,Loire-Atlantique,Pays de la Loire
2024-09-16 23:00:00,49080,Bouchemaine,,66.3,,,FR,Inconnu,44.8612099998848,-0.580370000254293,France,Gironde,Nouvelle-Aquitaine
2024-09-16 23:00:00,49300,Cholet,6.5,64.4,6.5,,FR,Inconnu,45.6750000001249,6.38972200044397,France,Savoie,Auvergne-Rhône-Alpes
2024-09-18 23:00:00,50000,Saint-Lô,10.4,72.9,43.6,,FR,Centre de secours,47.1701659999984,1.40969400041023,France,Indre,Centre-Val de Loire
2021-12-09 01:00:00,50100,Cherbourg-en-Cotentin,2.4,82.0,13.8,3.7,FR,Inconnu,45.7200240000445,4.8181560001567,France,Métropole de Lyon,Auvergne-Rhône-Alpes
2024-09-16 08:00:00,50100,Cherbourg-en-Cotentin,8.8,70.1307783890303,7.1,3.7,FR,Inconnu,14.6106530003893,-61.002586000064,France,Martinique,Martinique
2024-09-18 23:00:00,50100,Cherbourg-en-Cotentin,28.3,70.1,44.1,23.5,FR,Inconnu,43.6851900000749,7.21117399998479,France,Alpes-Maritimes,Provence-Alpes-Côte d'Azur
2024-09-16 23:00:00,51000,Châlons-en-Champagne,5.7,58.6,10.4,,FR,Inconnu,45.6018999997678,4.80220000011266,France,Rhône,Auvergne-Rhône-Alpes
2024-09-16 23:00:00,51100,Reims,18.049999999999997,56.9,17.25,7.949999999999999,FR,Station d'Épuration de Noeux-Les-Mines,50.4897199999063,2.66641999963169,France,Pas-de-Calais,Hauts-de-France
2018-01-05 13:00:00,51110,Bourgogne-Fresne,15.18,62.8,10.65,,FR,Inconnu,48.1152100001935,-1.67308799988918,France,Ille-et-Vilaine,Bretagne
2024-09-16 08:00:00,51200,Épernay,18.5,,15.7,8.6,FR,Inconnu,45.0147800000761,-0.533942000420932,France,Gironde,Nouvelle-Aquitaine
2024-07-23 13:00:00,51300,Vitry-le-François,2.2,30.8,,,FR,Inconnu,47.8377500002934,1.9446669999777,France,Loiret,Centre-Val de Loire
2024-09-16 23:00:00,51450,Bétheny,6.9,60.4,14.1,,FR,Inconnu,44.5694430002562,5.27897200043165,France,Drôme,Auvergne-Rhône-Alpes
2024-09-16 23:00:00,52100,Saint-Dizier,5.4,67.2,13.3,5.6,FR,Inconnu,48.6103630000932,7.78163100034898,France,Bas-Rhin,Grand Est
2024-03-11 07:00:00,53000,Laval,5.9,58.4,-1.0,4.0,FR,Inconnu,48.6103630000932,7.78163100034898,France,Bas-Rhin,Grand Est
2024-09-18 23:00:00,53000,Laval,10.3,58.4,-1.0,4.0,FR,Inconnu,47.9070800000607,1.90113899993502,France,Loiret,Centre-Val de Loire
2024-09-16 23:00:00,53290,Saint-Denis-d'Anjou,3.3,61.0,5.3,2.9,FR,Inconnu,49.6422500002307,-1.62436100013966,France,Manche,Normandie
2024-01-29 18:00:00,54000,Nancy,39.7,,,11.1,FR,Inconnu,49.1922200000328,-0.391111000326555,France,Calvados,Normandie
2024-03-11 09:00:00,54000,Nancy,6.1,,,11.1,FR,Inconnu,45.9096999999883,6.11824999958726,France,Haute-Savoie,Auvergne-Rhône-Alpes
2024-09-18 23:00:00,54100,Nancy,4.4,81.8,54.3,15.35,FR,Inconnu,46.1958299999168,6.24055600011761,France,Haute-Savoie,Auvergne-Rhône-Alpes
2024-09-16 08:00:00,54160,Frolois,,,10.8,,FR,La Défense,48.8913880002415,2.24055599987591,France,Hauts-de-Seine,Île-de-France
2020-03-26 13:00:00,54210,Saint-Nicolas-de-Port,6.5,,,,FR,Inconnu,50.378220000192,3.06585999960954,France,Nord,Hauts-de-France
2024-09-18 23:00:00,54230,Neuves-Maisons,,,48.7,,FR,Verger,48.3547000001938,2.6453000000409,France,Seine-et-Marne,Île-de-France
2024-09-18 23:00:00,54300,Lunéville,6.7,,,15.4,FR,Inconnu,48.8813900000285,2.27805599983326,France,Hauts-de-Seine,Île-de-France
2024-03-04 08:00:00,54520,Laxou,14.1,,,7.5,FR,Inconnu,50.456470000169,3.42794000027044,France,Nord,Hauts-de-France
2024-03-11 09:00:00,54600,Villers-lès-Nancy,4.1,85.0,,,FR,Inconnu,48.7991680000162,2.13055599976146,France,Yvelines,Île-de-France
2023-09-18 13:00:00,54700,Atton,23.3,,1.4,,FR,Inconnu,45.1806900002892,5.72062499982689,France,Isère,Auvergne-Rhône-Alpes
2022-04-19 05:00:00,54700,Blénod-lès-Pont-à-Mousson,,,12.2,,FR,Inconnu,48.6458359997777,4.96611099961485,France,Haute-Marne,Grand Est
2024-09-16 08:00:00,54700,Pont-à-Mousson,,,11.3,,FR,Inconnu,43.6236080001413,1.43853099990713,France,Haute-Garonne,Occitanie
2021-03-25 04:00:00,54710,Fléville-devant-Nancy,16.7,,15.2,,FR,Inconnu,47.2641200000181,-2.24985799984573,France,Loire-Atlantique,Pays de la Loire
2021-03-17 04:00:00,55000,Bar-le-Duc,7.7,50.5,10.8,,FR,Inconnu,50.6943499999625,1.57657000000044,France,Pas-de-Calais,Hauts-de-France
2019-05-02 13:00:00,55130,Houdelaincourt,6.0,92.4,93.2,104.2,FR,Inconnu,50.9472900000261,1.84308000007845,France,Pas-de-Calais,Hauts-de-France
2024-09-16 08:00:00,55160,Jonville-en-Woëvre,7.5,71.2,17.2,11.2,FR,Inconnu,49.2822199998627,4.05111100029618,France,Marne,Grand Est
2024-03-09 00:00:00,55430,Belleville-sur-Meuse,13.7,,,9.2,FR,Inconnu,49.8772200002389,2.28249999967978,France,Somme,Hauts-de-France
2017-05-31 09:00:00,56000,Vannes,24.85,8.03,23.0,13.1,FR,Mairie,43.9496729999063,4.80434099984507,France,Vaucluse,Provence-Alpes-Côte d'Azur
2024-01-29 18:00:00,56000,Vannes,9.3,38.5,23.0,13.1,FR,Zoodyssée,46.1432340000161,-0.395913000373364,France,Deux-Sèvres,Nouvelle-Aquitaine
2024-09-18 23:00:00,56000,Vannes,7.5,70.8,37.9,21.5,FR,Inconnu,44.9200800000815,2.44108199977878,France,Cantal,Auvergne-Rhône-Alpes
2020-12-03 01:00:00,56100,Lorient,6.8,76.0,30.2,16.9,FR,Hôpital Flaubert,49.5001870002225,0.110903000112771,France,Seine-Maritime,Normandie
2024-01-29 18:00:00,56100,Lorient,10.3,41.7,30.2,16.9,FR,Hôpital Flaubert,49.5001870002225,0.110903000112771,France,Seine-Maritime,Normandie
2024-03-11 10:00:00,56100,Lorient,5.8,48.900285867428984,37.2,22.0,FR,Inconnu,-21.2943300002787,55.6279300001449,France,La Réunion,La Réunion
2024-09-18 23:00:00,56100,Lorient,6.1,82.0,38.7,22.3,FR,Inconnu,46.162556,-1.153603,France,Charente-Maritime,Nouvelle-Aquitaine
2024-03-11 10:00:00,57000,Metz,9.0,59.2,15.2,13.4,FR,Inconnu,43.575558,1.418611,France,Haute-Garonne,Occitanie
2019-04-11 10:00:00,57014,Metz,8.9,,15.3,,FR,Inconnu,43.605,3.8746,France,Hérault,Occitanie
2024-09-17 23:00:00,57070,Metz,15.4,,10.1,0.9,FR,Inconnu,48.006935,2.74001,France,Loiret,Centre-Val de Loire
2020-03-24 15:00:00,57070,Saint-Julien-lès-Metz,69.5,,0.0,,FR,Inconnu,47.322826,-2.039853,France,Loire-Atlantique,Pays de la Loire
2023-01-17 11:00:00,57100,Thionville,4.4,63.85,9.3,9.8,FR,Inconnu,41.949223,8.757583,France,Corse-du-Sud,Corse
2024-09-17 23:00:00,57100,Thionville,7.25,63.85,24.0,9.8,FR,Gymnase des Carabins,43.4588738424815,4.93416737793045,France,Bouches-du-Rhône,Provence-Alpes-Côte d'Azur
2024-09-17 23:00:00,57160,Scy-Chazelles,4.6,73.3,,,FR,4e Arrondissement,43.3060996358468,5.39579363613379,France,Bouches-du-Rhône,Provence-Alpes-Côte d'Azur
2018-04-12 14:00:00,57175,Gandrange,,,2.0,,FR,Inconnu,48.7314125600919,1.36388514642015,France,Eure-et-Loir,Centre-Val de Loire
2024-09-18 23:00:00,57600,Forbach,21.3,58.9,18.9,7.6,FR,Le palais de l'Univers et des Sciences,50.9959079994751,2.365994,France,Nord,Hauts-de-France
2019-07-10 12:00:00,57640,Malroy,6.3,,1.5,,FR,Inconnu,47.5945165359368,1.30173969506476,France,Loir-et-Cher,Centre-Val de Loire
2021-01-01 01:00:00,57700,Hayange,12.0,,19.9,,FR,Inconnu,-21.009739859322,55.2727106111753,France,La Réunion,La Réunion
2024-09-16 08:00:00,57700,Hayange,12.0,,13.1,,FR,14e Arrondissement,48.8277822163547,2.32749896854232,France,Paris,Île-de-France
2024-09-18 23:00:00,57830,Héming,6.8,,42.0,,FR,Centre Ophtalmologique,49.1752491940393,-0.35361103181024,France,Calvados,Normandie
2024-01-29 17:00:00,58000,Nevers,22.9,26.3,10.4,13.3,FR,Service Santé Environnement,48.1108129462492,-1.68282300489394,France,Ille-et-Vilaine,Bretagne
2024-09-18 23:00:00,58000,Nevers,21.2,13.4,12.4,7.6,FR,Inconnu,46.7972219994643,4.853889,France,Saône-et-Loire,Bourgogne-Franche-Comté
2024-01-29 18:00:00,58230,Saint-Brisson,1.4,65.6,3.2,3.8,FR,Inconnu,48.0926809994664,-1.690319,France,Ille-et-Vilaine,Bretagne
2024-09-16 08:00:00,58230,Saint-Brisson,1.9,30.1,10.8,5.0,FR,Inconnu,50.3274999994726,3.4,France,Nord,Hauts-de-France
2018-04-25 02:00:00,59000,Lille,6.8,,9.1,6.98,FR,Inconnu,47.4193389994652,0.684139,France,Indre-et-Loire,Centre-Val de Loire
2024-09-16 23:00:00,59100,Roubaix,11.0,,9.7,2.8,FR,Inconnu,47.2946400002569,6.82586099958978,France,Doubs,Bourgogne-Franche-Comté
2024-09-16 23:00:00,59139,Wattignies,,58.9,,,FR,Inconnu,45.87583500017,0.823951000371826,France,Haute-Vienne,Nouvelle-Aquitaine
2024-01-29 18:00:00,59180,Cappelle-la-Grande,29.4,15.1,12.0,2.65,FR,Inconnu,49.4366999998995,1.09883799978172,France,Seine-Maritime,Normandie
2024-09-13 08:00:00,59180,Cappelle-la-Grande,3.5,69.6,13.7,2.65,FR,Inconnu,5.16424799969236,-52.6464900004207,France,Guyane,Guyane
2018-04-25 02:00:00,59200,Tourcoing,7.0,57.7,10.5,4.5,FR,Inconnu,43.3108000001887,-0.391543000146688,France,Pyrénées-Atlantiques,Nouvelle-Aquitaine
2018-12-13 10:00:00,59200,Tourcoing,7.0,57.7,16.8,4.5,FR,7e Arrondissement,45.7352900001264,4.8297939998526,France,Rhône,Auvergne-Rhône-Alpes
2024-09-16 23:00:00,59200,Tourcoing,7.0,57.7,9.5,4.5,FR,Inconnu,43.7865829996798,7.37328299968828,France,Alpes-Maritimes,Provence-Alpes-Côte d'Azur
2018-04-25 02:00:00,59220,Denain,8.78,51.9,10.4,7.6,FR,Église Saint François de Sales,45.9614100000765,4.46571099955156,France,Rhône,Auvergne-Rhône-Alpes
2024-09-17 23:00:00,59220,Denain,7.5,75.6,15.8,7.6,FR,Market Chalette-Sur-Loing,48.0069349997759,2.7401109996672,France,Loiret,Centre-Val de Loire
2018-04-23 13:00:00,59230,Saint-Amand-les-Eaux,5.35,61.5,,,FR,Rocade,14.6138439998999,-61.063490000358,France,Martinique,Martinique
2024-09-17 23:00:00,59230,Saint-Amand-les-Eaux,8.2,56.6,,,FR,Inconnu,45.8299749997519,1.25477199998511,France,Haute-Vienne,Nouvelle-Aquitaine
2018-04-25 02:00:00,59240,Dunkerque,,,10.65,2.53,FR,Inconnu,48.0014499999424,2.72617999990292,France,Loiret,Centre-Val de Loire
2024-09-16 23:00:00,59240,Dunkerque,,,10.8,4.7,FR,Inconnu,-21.3128950000391,55.4741939995754,France,La Réunion,La Réunion
2018-04-25 02:00:00,59244,Cartignies,5.0,42.38,18.03,12.5,FR,Square Pasteur,45.564719999865,5.92833299988358,France,Savoie,Auvergne-Rhône-Alpes
2024-09-17 23:00:00,59244,Cartignies,5.0,67.6,22.1,12.5,FR,Inconnu,49.0630870001199,1.86638099958461,France,Val-d'Oise,Île-de-France
2018-04-25 02:00:00,59250,Halluin,2.95,56.28,,,FR,Inconnu,46.0722240002064,5.82083300042506,France,Haute-Savoie,Auvergne-Rhône-Alpes
2024-03-11 01:00:00,59250,Halluin,7.5,52.6,,,FR,Inconnu,44.5694430002562,5.27897200043165,France,Drôme,Auvergne-Rhône-Alpes
2017-07-18 22:00:00,59278,Escautpont,7.78,,19.2,,FR,Inconnu,45.1898229998141,0.72718400006274,France,Dordogne,Nouvelle-Aquitaine
2024-03-11 07:00:00,59279,Dunkerque,1.0,,7.2,,FR,Inconnu,48.5135100002817,-2.74952999981289,France,Côtes-d'Armor,Bretagne
2016-12-05 02:00:00,59280,Armentières,44.35,0.95,,,FR,Inconnu,49.0213399997733,1.14831899956664,France,Eure,Normandie
2018-04-25 02:00:00,59300,Valenciennes,13.415000000000001,61.3,9.19,6.35,FR,Inconnu,48.5880550000064,7.72972199987815,France,Bas-Rhin,Grand Est
2024-09-16 08:00:00,59300,Valenciennes,16.0,61.3,16.2,12.95,FR,Inconnu,45.9224999998724,6.86999999955273,France,Haute-Savoie,Auvergne-Rhône-Alpes
2024-09-17 23:00:00,59300,Valenciennes,14.3,61.3,19.1,9.7,FR,Inconnu,47.7574349997438,7.34729400010354,France,Haut-Rhin,Grand Est
2018-04-25 02:00:00,59400,Cambrai,,,10.3,4.7,FR,Inconnu,48.7608869997683,1.23363899997554,France,Eure-et-Loir,Centre-Val de Loire
2018-12-10 10:00:00,59400,Cambrai,,,8.7,4.6,FR,Inconnu,48.6569440000801,6.1360219996737,France,Meurthe-et-Moselle,Grand Est
2017-03-07 12:00:00,59430,Dunkerque,21.63,49.65,29.9,4.4,FR,Inconnu,44.8338240000015,-0.598524999757059,France,Gironde,Nouvelle-Aquitaine
2024-09-16 23:00:00,59430,Dunkerque,1.5,70.1,12.6,4.4,FR,Jardin Communaux,46.1936899998302,6.21485799988769,France,Haute-Savoie,Auvergne-Rhône-Alpes
2017-06-29 14:00:00,59496,Salomé,4.4,60.4,13.5,,FR,Inconnu,47.5381930001173,6.86836099996066,France,Doubs,Bourgogne-Franche-Comté
2018-04-25 02:00:00,59500,Douai,2.8,63.85,7.35,1.3,FR,École Jules Ferry,46.1351360000773,-1.11708600006922,France,Charente-Maritime,Nouvelle-Aquitaine
2024-09-17 23:00:00,59500,Douai,10.0,59.8,12.5,5.9,FR,12e Arrondissement,48.8386150001873,2.4127809998591,France,Paris,Île-de-France
2018-04-25 02:00:00,59600,Maubeuge,10.2,55.48,13.3,,FR,18e Arrondissement,48.8916659998976,2.34666699998761,France,Paris,Île-de-France
2024-09-16 08:00:00,59600,Maubeuge,5.9,58.5,11.5,,FR,Inconnu,48.9555499999541,2.57527799990011,France,Seine-Saint-Denis,Île-de-France
2023-04-03 14:00:00,59700,Marcq-en-Barœul,23.25,141.1,17.7,,FR,Inconnu,43.5557800002651,5.46123199960536,France,Bouches-du-Rhône,Provence-Alpes-Côte d'Azur
2018-04-24 15:00:00,59760,Grande-Synthe,5.13,,8.78,,FR,8e Arrondissement,43.2764499999454,5.39735999974862,France,Bouches-du-Rhône,Provence-Alpes-Côte d'Azur
2024-03-11 04:00:00,59760,Grande-Synthe,1.7,,16.9,,FR,Inconnu,43.4165300001598,5.2222810000055,France,Bouches-du-Rhône,Provence-Alpes-Côte d'Azur
2024-01-12 11:00:00,59777,Lille,44.8,,,17.1,FR,Inconnu,43.1015659997901,5.87540400013688,France,Var,Provence-Alpes-Côte d'Azur
2018-04-25 02:00:00,59820,Gravelines,,,14.75,,FR,Inconnu,48.9252779998288,2.35666699991635,France,Seine-Saint-Denis,Île-de-France
2024-09-16 08:00:00,59820,Gravelines,,,1.9,,FR,Cimetière de la Chauvinière,47.252776999898,-1.57333299992586,France,Loire-Atlantique,Pays de la Loire
2024-09-16 23:00:00,60000,Beauvais,4.1,,8.9,7.4,FR,Inconnu,49.2595520002579,2.4743970003557,France,Oise,Hauts-de-France
2023-07-14 11:00:00,60100,Creil,14.4,62.8,8.9,4.6,FR,Inconnu,47.0544429999979,-0.886110999943241,France,Maine-et-Loire,Pays de la Loire
2022-01-21 09:00:00,60180,Nogent-sur-Oise,38.7,16.8,19.8,,FR,Piscine de la Ronde-Couture,49.7452769999387,4.71916699992436,France,Ardennes,Grand Est
2017-03-28 18:00:00,60870,Rieux,10.93,,15.15,,FR,Inconnu,50.7482300002354,2.25977999995667,France,Pas-de-Calais,Hauts-de-France
2024-09-18 23:00:00,61000,Cerisé,6.0,79.1,39.2,22.6,FR,Inconnu,50.7482300002354,2.25977999995667,France,Pas-de-Calais,Hauts-de-France
2024-09-18 23:00:00,61220,La Coulonche,,81.3,39.7,21.6,FR,Inconnu,43.6236080001413,1.43853099990713,France,Haute-Garonne,Occitanie
2017-06-20 17:00:00,62100,Calais,13.3,77.85,9.2,3.8,FR,Inconnu,45.1619000003116,5.7356000000548,France,Isère,Auvergne-Rhône-Alpes
2017-07-18 22:00:00,62100,Calais,17.63,77.85,9.029505853525727,3.8182948250236453,FR,La chapelle Notre Dame de Tudet,43.8839340002493,0.845616999585557,France,Gers,Occitanie
2018-04-22 19:00:00,62100,Calais,4.7,77.85,7.35,3.998513714362924,FR,Jardin National,43.9277700001112,2.14589699968727,France,Tarn,Occitanie
2018-04-25 02:00:00,62100,Calais,4.699705656742244,77.83945269993042,13.05,4.0,FR,Inconnu,43.0962500002002,-0.0404969998324175,France,Hautes-Pyrénées,Occitanie
2024-09-13 12:00:00,62100,Calais,4.4,67.1,5.1,4.0,FR,Saint-Pol-sur-Mer,51.0327599998369,2.33235799993157,France,Nord,Hauts-de-France
2024-09-18 23:00:00,62113,Verquigneul,13.0,45.7,19.6,,FR,Inconnu,45.0795400001299,5.72865300007762,France,Isère,Auvergne-Rhône-Alpes
2024-09-16 23:00:00,62200,Boulogne-sur-Mer,,,13.6,4.8,FR,Inconnu,49.2507319999004,4.02306399992139,France,Marne,Grand Est
2024-09-16 08:00:00,62223,Saint-Laurent-Blangy,10.2,67.7,21.2,8.1,FR,Inconnu,49.2822199998627,4.05111100029618,France,Marne,Grand Est
2018-04-25 02:00:00,62230,Outreau,5.3,69.15,9.53,,FR,Inconnu,50.7333340002115,3.17361100003655,France,Nord,Hauts-de-France
2024-09-16 23:00:00,62230,Outreau,6.6,51.0,7.0,,FR,Inconnu,47.4685129999158,-0.556052999873588,France,Maine-et-Loire,Pays de la Loire
2024-09-16 23:00:00,62231,Sangatte,1.5,62.8,17.2,,FR,Inconnu,50.1294479997896,1.61083299988321,France,Somme,Hauts-de-France
2017-07-18 22:00:00,62300,Lens,33.48,,50.1,,FR,Inconnu,43.9314000002095,4.82687499979534,France,Vaucluse,Provence-Alpes-Côte d'Azur
2024-09-18 23:00:00,62300,Lens,33.48,,50.1,,FR,Inconnu,43.6926000001537,3.80020999993257,France,Hérault,Occitanie
2024-03-11 10:00:00,62400,Béthune,17.1,54.2,10.3,4.4,FR,Inconnu,46.5619739999054,3.34063890024972,France,Allier,Auvergne-Rhône-Alpes
2018-04-25 02:00:00,62440,Harnes,7.7,60.55,7.9,5.8,FR,Inconnu,43.9426000001532,4.67957999976296,France,Gard,Occitanie
2024-09-18 23:00:00,62440,Harnes,15.2,57.6,28.5,5.8,FR,Inconnu,43.8344000002437,4.37439999976558,France,Gard,Occitanie
2016-12-05 02:00:00,62500,Saint-Omer,5.9,54.0,8.6,,FR,Inconnu,45.651463000225,0.162390999735801,France,Charente,Nouvelle-Aquitaine
2018-04-25 02:00:00,62500,Saint-Omer,2.0,60.28,5.6,,FR,Inconnu,45.651463000225,0.162390999735801,France,Charente,Nouvelle-Aquitaine
2024-09-16 23:00:00,62650,Campagne-lès-Boulonnais,,60.9,9.3,5.5,FR,Inconnu,-21.2943300002787,55.6279300001449,France,La Réunion,La Réunion
2023-12-20 13:00:00,63000,Clermont-Ferrand,46.8,4.8,6.1,0.9,FR,Inconnu,49.9025,2.3046,France,Somme,Hauts-de-France
2024-02-15 11:00:00,63000,Clermont-Ferrand,67.7,4.8,0.1,1.9499615680245963,FR,Inconnu,46.58389,0.345556,France,Vienne,Nouvelle-Aquitaine
2024-09-16 14:00:00,63000,Clermont-Ferrand,4.2,3.7,6.5,5.9,FR,Inconnu,43.47972,-1.488056,France,Pyrénées-Atlantiques,Nouvelle-Aquitaine
2024-03-11 10:00:00,63100,Clermont-Ferrand,6.5,77.7,9.1,5.7,FR,Inconnu,46.671307,5.556806,France,Jura,Bourgogne-Franche-Comté
2024-09-16 14:00:00,63100,Clermont-Ferrand,9.3,77.7,9.1,5.7,FR,Inconnu,45.89,0.9,France,Haute-Vienne,Nouvelle-Aquitaine
2017-12-31 19:00:00,63130,Royat,2.4,68.18,,,FR,Inconnu,43.63028,0.179722,France,Gers,Occitanie
2024-09-16 14:00:00,63130,Royat,2.8,89.6,,,FR,Inconnu,47.3455490718848,5.00222374385535,France,Côte-d'Or,Bourgogne-Franche-Comté
2018-08-23 14:00:00,63200,Riom,6.68,114.8,15.2,,FR,Inconnu,47.3455490718848,5.00222374385535,France,Côte-d'Or,Bourgogne-Franche-Comté
2024-09-16 14:00:00,63200,Riom,2.6,79.0,15.2,,FR,Inconnu,43.52404453793,5.44957577219403,France,Bouches-du-Rhône,Provence-Alpes-Côte d'Azur
2023-01-09 13:00:00,63400,Chamalières,14.7,,4.1,,FR,Le palais de l'Univers et des Sciences,50.9959079994751,2.365994,France,Nord,Hauts-de-France
2017-12-20 10:00:00,63500,Issoire,28.45,22.2,22.5,,FR,Inconnu,47.742485358103,-3.3948053239104,France,Morbihan,Bretagne
2022-12-25 11:00:00,63770,Les Ancizes-Comps,,,6.9,,FR,Inconnu,43.453461514164,5.4671019033872,France,Bouches-du-Rhône,Provence-Alpes-Côte d'Azur
2024-03-11 10:00:00,64000,Pau,23.6,,11.3,,FR,Inconnu,44.849695025703,-0.543888582031301,France,Gironde,Nouvelle-Aquitaine
2024-03-04 08:00:00,64100,Bayonne,14.6,50.5,2.4,,FR,Inconnu,45.7757153069085,3.09625023923328,France,Puy-de-Dôme,Auvergne-Rhône-Alpes
2024-09-16 08:00:00,64100,Bayonne,18.2,41.8,4.9,,FR,Stade Municipal de Saint Fons,45.7078189856086,4.86440421296573,France,Rhône,Auvergne-Rhône-Alpes
2024-03-04 08:00:00,64140,Billère,24.6,26.4,4.8,3.4,FR,Service Santé Environnement,48.1108129462492,-1.68282300489394,France,Ille-et-Vilaine,Bretagne
2024-09-18 23:00:00,64140,Billère,20.3,43.7,14.2,8.0,FR,Inconnu,43.4572219994639,5.244303,France,Bouches-du-Rhône,Provence-Alpes-Côte d'Azur
2024-03-04 08:00:00,64150,Mourenx,4.2,,,,FR,Inconnu,47.8319337214448,-1.83632712064428,France,Ille-et-Vilaine,Bretagne
2024-03-11 10:00:00,64150,Mourenx,4.7,,,,FR,Inconnu,47.5946059994655,1.303647,France,Loir-et-Cher,Centre-Val de Loire
2024-03-04 07:00:00,64170,Labastide-Cézéracq,20.6,16.3,6.9,,FR,Inconnu,48.3904559994671,1.955953,France,Eure-et-Loir,Centre-Val de Loire
2024-03-11 10:00:00,64170,Labastide-Cézéracq,7.0,32.9,2.9,,FR,Inconnu,51.0513889994753,2.423056,France,Nord,Hauts-de-France
2024-03-04 08:00:00,64170,Lacq,12.8,,,,FR,Inconnu,50.3666639994728,3.082778,France,Nord,Hauts-de-France
2024-09-18 23:00:00,64170,Lacq,10.2,,,,FR,Saint-Pol-sur-Mer,51.0338297678657,2.33519753052722,France,Nord,Hauts-de-France
2024-09-16 08:00:00,64200,Biarritz,16.3,49.2,7.1,2.2,FR,Inconnu,45.5259808277432,4.8754085751962,France,Isère,Auvergne-Rhône-Alpes
2019-01-21 11:00:00,64320,Bizanos,11.5,27.4,8.8,,FR,Inconnu,45.5259808277432,4.8754085751962,France,Isère,Auvergne-Rhône-Alpes
2024-03-04 07:00:00,64600,Anglet,33.0,,3.3,,FR,Inconnu,46.5618635984186,3.3310878208078,France,Allier,Auvergne-Rhône-Alpes
2024-09-18 23:00:00,64600,Anglet,21.2,,12.9,,FR,Inconnu,45.271894982689,5.6790270589692,France,Isère,Auvergne-Rhône-Alpes
2024-03-04 07:00:00,65000,Tarbes,23.7,20.5,9.4,10.2,FR,Inconnu,44.0128559998603,1.37530519955676,France,Tarn-et-Garonne,Occitanie
2024-09-16 23:00:00,65000,Tarbes,12.5,55.1,8.9,4.8,FR,Inconnu,48.9022199998218,2.39083299971474,France,Seine-Saint-Denis,Île-de-France
2020-06-10 07:00:00,65100,Lourdes,5.9,86.4,1.0,1.9,FR,Inconnu,47.4190829997127,0.68294399981745,France,Indre-et-Loire,Centre-Val de Loire
2024-03-04 08:00:00,65100,Lourdes,3.7,86.4,1.0,10.6,FR,Inconnu,45.1587370002402,1.53725900002356,France,Corrèze,Nouvelle-Aquitaine
2024-09-16 23:00:00,65100,Lourdes,10.6,53.4,10.1,4.6,FR,Inconnu,43.4112300000173,-0.617727999921422,France,Pyrénées-Atlantiques,Nouvelle-Aquitaine
2024-03-04 08:00:00,66000,Perpignan,12.4,77.1,5.4,2.4,FR,Inconnu,48.6947249998427,6.96527499968453,France,Moselle,Grand Est
2024-09-16 08:00:00,66000,Perpignan,57.9,79.86299559471367,18.9,5.952422907488987,FR,Inconnu,48.1726529999482,6.45281650033746,France,Vosges,Grand Est
2024-09-18 23:00:00,66000,Perpignan,15.7,79.9,15.9,6.0,FR,Inconnu,49.1163900000927,-1.08472200006952,France,Manche,Normandie
2024-09-16 08:00:00,66240,Saint-Estève,,75.5,,,FR,Inconnu,49.9204900002416,1.04789199958368,France,Seine-Maritime,Normandie
2024-03-11 09:00:00,67000,Strasbourg,51.2,,45.9,,FR,Inconnu,48.0014499999424,2.72617999990292,France,Loiret,Centre-Val de Loire
2024-09-18 23:00:00,67081,Strasbourg,18.5,39.4,37.6,,FR,Inconnu,47.2359730002171,6.02361100038842,France,Doubs,Bourgogne-Franche-Comté
2024-03-11 09:00:00,67083,Strasbourg,54.8,,18.9,,FR,Inconnu,45.8050899997107,2.06233299994463,France,Creuse,Nouvelle-Aquitaine
2024-03-11 09:00:00,67085,Strasbourg,12.3,,36.5,21.2,FR,Inconnu,43.7020760000666,7.28625599991525,France,Alpes-Maritimes,Provence-Alpes-Côte d'Azur
2020-06-04 04:00:00,67100,Strasbourg,3.6,,20.13,17.5,FR,Inconnu,45.8848500001393,0.89843099970453,France,Haute-Vienne,Nouvelle-Aquitaine
2024-09-18 23:00:00,67118,Geispolsheim,,76.6,,,FR,Inconnu,49.7812199997992,1.34508299968839,France,Seine-Maritime,Normandie
2024-09-18 23:00:00,67130,Grandfontaine,3.0,68.9,38.9,13.7,FR,Inconnu,47.5942569998293,1.30266699988141,France,Loir-et-Cher,Centre-Val de Loire
2024-02-05 23:00:00,67200,Strasbourg,29.6,,25.6,,FR,Station d'Épuration de Noeux-Les-Mines,50.4897199999063,2.66641999963169,France,Pas-de-Calais,Hauts-de-France
2024-09-18 23:00:00,67290,La Petite-Pierre,2.3,90.9,,,FR,Inconnu,43.4798199999506,-1.48915700043803,France,Pyrénées-Atlantiques,Nouvelle-Aquitaine
2020-02-10 17:00:00,67300,Schiltigheim,8.9,,,,FR,Inconnu,46.5869600000919,0.358457999723541,France,Vienne,Nouvelle-Aquitaine
2024-09-18 23:00:00,67470,Munchhausen,10.5,75.5,11.8,,FR,Voie du Homet,49.6338900002764,-1.62472220013899,France,Manche,Normandie
2024-09-17 23:00:00,67500,Haguenau,9.2,69.7,,10.8,FR,Inconnu,45.0147800000761,-0.533942000420932,France,Gironde,Nouvelle-Aquitaine
2024-03-11 09:00:00,68000,Colmar,18.4,56.2,9.5,,FR,Inconnu,45.5694299999296,5.93298599996747,France,Savoie,Auvergne-Rhône-Alpes
2024-09-16 08:00:00,68000,Colmar,21.8,56.2,13.2,,FR,Place de Verdun,46.1626469998923,-1.15368399985315,France,Charente-Maritime,Nouvelle-Aquitaine
2024-09-18 23:00:00,68000,Colmar,21.8,56.2,13.2,,FR,Inconnu,47.07504299984,2.40718299994408,France,Cher,Centre-Val de Loire
2024-09-18 23:00:00,68100,Mulhouse,21.9,,21.1,,FR,École primaire Jean Macé,48.3861799998886,-4.48660000006197,France,Finistère,Bretagne
2020-02-25 09:00:00,68128,Village-Neuf,42.9,44.6,3.9,,FR,Inconnu,44.8004599997874,-0.589397999689418,France,Gironde,Nouvelle-Aquitaine
2024-03-11 09:00:00,68200,Mulhouse,24.8,43.2,25.6,10.1,FR,Inconnu,48.7608869997683,1.23363899997554,France,Eure-et-Loir,Centre-Val de Loire
2024-09-16 08:00:00,68200,Mulhouse,34.5,43.2,10.8,10.1,FR,Route,48.6409299998147,2.26872000042656,France,Essonne,Île-de-France
2024-09-18 23:00:00,68350,Brunstatt-Didenheim,,70.8,,,FR,École primaire Haut-Poirier,47.7374150002747,7.30907500027088,France,Haut-Rhin,Grand Est
2024-09-12 09:00:00,68490,Chalampé,12.9,,,,FR,Pont Jean Moreau,47.8005750002943,3.57618900035478,France,Yonne,Bourgogne-Franche-Comté
2024-09-18 23:00:00,69003,Lyon,17.9,57.0,10.8,5.9,FR,Université Tous Ages de Vannes et sa région,47.6489200000658,-2.76399000037999,France,Morbihan,Bretagne
2016-12-05 02:00:00,69005,Lyon,43.5,3.5,,,FR,Association franco-italienne Dante Alighieri,47.3946379998604,0.704860999999662,France,Indre-et-Loire,Centre-Val de Loire
2024-09-18 23:00:00,69007,Lyon,27.85,13.4,6.85,5.7,FR,Inconnu,47.0827800000004,2.4053329995665,France,Cher,Centre-Val de Loire
2022-03-28 02:00:00,69100,Villeurbanne,47.7,,23.1,,FR,Inconnu,49.4061900002854,1.15515000009118,France,Seine-Maritime,Normandie
2024-03-11 10:00:00,69100,Villeurbanne,66.7,,13.4,,FR,Inconnu,49.1677799998708,5.38746100010222,France,Meuse,Grand Est
2024-01-04 09:00:00,69120,Vaulx-en-Velin,54.2,-0.8,13.7,1.7,FR,Inconnu,48.6794430002305,2.16555599996121,France,Essonne,Île-de-France
2024-09-18 23:00:00,69170,Dième,10.75,57.3,,,FR,Inconnu,48.9908300001307,2.44472200025949,France,Val-d'Oise,Île-de-France
2023-01-10 10:00:00,69190,Saint-Fons,34.7,,1.6,,FR,Inconnu,48.8183500000267,7.78640900010634,France,Bas-Rhin,Grand Est
2024-09-16 08:00:00,69320,Feyzin,62.1,,11.4,,FR,Inconnu,50.2793599998152,3.97690999972442,France,Nord,Hauts-de-France
2024-09-18 23:00:00,69330,Pusignan,9.2,30.9,8.3,4.7,FR,Inconnu,50.3585300000656,3.50804000015779,France,Nord,Hauts-de-France
2024-09-16 08:00:00,69350,La Mulatière,25.7,,15.2,8.0,FR,Inconnu,50.456470000169,3.42794000027044,France,Nord,Hauts-de-France
2024-03-11 10:00:00,69360,Ternay,20.3,37.8,19.0,13.7,FR,Inconnu,50.7065350000372,3.18066000012097,France,Nord,Hauts-de-France
2017-12-18 22:00:00,69400,Villefranche-sur-Saône,24.33,14.05,20.33,11.8,FR,Inconnu,47.4473900001666,-0.550066999621058,France,Maine-et-Loire,Pays de la Loire
2024-09-18 23:00:00,69400,Villefranche-sur-Saône,22.6,28.4,9.9,6.1,FR,Inconnu,49.0460999999616,3.95591099960915,France,Marne,Grand Est
2024-09-16 08:00:00,70000,Vesoul,15.1,38.7,10.5,3.8,FR,Inconnu,49.50273000006,0.232485999671531,France,Seine-Maritime,Normandie
2022-12-23 01:00:00,71000,Mâcon,18.9,52.7,12.0,4.0,FR,Inconnu,46.591232000116,0.340390000259412,France,Vienne,Nouvelle-Aquitaine
2018-07-18 14:00:00,71100,Chalon-sur-Saône,5.38,117.18,-0.2,6.9,FR,Inconnu,43.8801200000807,5.36203800023192,France,Vaucluse,Provence-Alpes-Côte d'Azur
2024-01-29 17:00:00,71100,Chalon-sur-Saône,69.8,117.18,-0.2,6.9,FR,Église Notre-Dame-la-Grande,46.5839999999289,0.34558200029356,France,Vienne,Nouvelle-Aquitaine
2024-09-18 23:00:00,71100,Chalon-sur-Saône,50.2,117.18,-0.2,6.4,FR,Inconnu,49.3374000000503,6.08207000027807,France,Moselle,Grand Est
2022-01-01 01:00:00,71200,Le Creusot,10.53,25.2,,6.6,FR,Inconnu,-21.2048149996145,55.5826200003951,France,La Réunion,La Réunion
2024-01-29 18:00:00,71300,Montceau-les-Mines,47.3,14.5,12.1,8.1,FR,Inconnu,-20.9985769999371,55.2806199996725,France,La Réunion,La Réunion
2024-09-16 08:00:00,71300,Montceau-les-Mines,8.0,39.9,14.8,5.6,FR,Inconnu,48.074642000044,7.35066699972224,France,Haut-Rhin,Grand Est
2024-09-16 08:00:00,71530,Champforgeuil,17.2,37.3,15.9,8.6,FR,Inconnu,49.1472239999556,0.227221999667361,France,Calvados,Normandie
2024-03-11 07:00:00,72100,Le Mans,6.5,54.6,4.6,2.2,FR,Inconnu,42.6958,2.8997,France,Pyrénées-Orientales,Occitanie
2024-09-16 23:00:00,72100,Le Mans,4.5,54.6,4.6,2.2,FR,Inconnu,43.928055,2.146111,France,Tarn,Occitanie
2024-09-16 23:00:00,72700,Spay,,55.1,,,FR,Inconnu,43.575558,1.418611,France,Haute-Garonne,Occitanie
2024-03-11 10:00:00,73000,Chambéry,15.2,35.1,8.7,4.4,FR,Inconnu,43.609974,3.898611,France,Hérault,Occitanie
2024-09-16 08:00:00,73000,Chambéry,21.9,53.44509462693061,6.3,4.4,FR,Inconnu,44.900276,-0.514722,France,Gironde,Nouvelle-Aquitaine
2024-09-18 23:00:00,73000,Chambéry,11.1,53.7,6.5,4.4,FR,Inconnu,43.556946,1.406389,France,Haute-Garonne,Occitanie
2024-03-11 10:00:00,73140,Saint-Michel-de-Maurienne,5.3,,5.4,,FR,Inconnu,43.6389642135529,5.09999637937892,France,Bouches-du-Rhône,Provence-Alpes-Côte d'Azur
2024-03-11 10:00:00,73200,Albertville,16.5,18.7,10.5,6.5,FR,Inconnu,47.2750173101874,4.09832992182145,France,Nièvre,Bourgogne-Franche-Comté
2024-09-16 08:00:00,73260,La Léchère,,,6.1,,FR,Inconnu,47.2750173101874,4.09832992182145,France,Nièvre,Bourgogne-Franche-Comté
2024-09-18 23:00:00,73300,Saint-Jean-de-Maurienne,3.3,57.7,6.6,,FR,Inconnu,43.5557572024514,5.4618018432109,France,Bouches-du-Rhône,Provence-Alpes-Côte d'Azur
2024-03-18 08:00:00,73440,Saint-Martin-de-Belleville,,81.9,,,FR,Inconnu,48.8055412818308,3.08444637639995,France,Seine-et-Marne,Île-de-France
2018-02-13 08:00:00,73870,Saint-Julien-Mont-Denis,44.93,,14.6,,FR,Inconnu,43.5997495987433,7.094723434072,France,Alpes-Maritimes,Provence-Alpes-Côte d'Azur
2022-12-20 14:00:00,74000,Annecy,10.8,42.5,9.8,3.6,FR,Inconnu,47.340253323593,5.05833251650146,France,Côte-d'Or,Bourgogne-Franche-Comté
2024-09-15 04:00:00,74000,Annecy,38.8,28.425874950845458,11.1,3.6,FR,15e Arrondissement,43.3480529322015,5.36065154221904,France,Bouches-du-Rhône,Provence-Alpes-Côte d'Azur
2024-09-16 08:00:00,74000,Annecy,19.1,28.4,11.5,3.6,FR,Inconnu,50.6408018273658,3.07477152078998,France,Nord,Hauts-de-France
2024-09-18 23:00:00,74100,Annemasse,35.3,21.9,14.5,10.5,FR,Inconnu,45.7789106049275,4.92469913483583,France,Métropole de Lyon,Auvergne-Rhône-Alpes
2024-03-11 10:00:00,74190,Passy,9.4,13.6,13.4,7.7,FR,Inconnu,-20.8847369878067,55.4538109724538,France,La Réunion,La Réunion
2024-09-18 23:00:00,74240,Gaillard,5.5,21.2,9.7,7.5,FR,Inconnu,45.7583572550156,4.88621530806415,France,Métropole de Lyon,Auvergne-Rhône-Alpes
2024-09-18 23:00:00,74400,Chamonix-Mont-Blanc,12.950000000000001,9.6,16.700000000000003,,FR,Inconnu,43.0949969994643,-0.051944,France,Hautes-Pyrénées,Occitanie
2017-06-14 01:00:00,74460,Marnaz,,,14.5,,FR,Inconnu,44.1922219994633,0.623889,France,Lot-et-Garonne,Nouvelle-Aquitaine
2024-09-18 23:00:00,74910,Saint-Germain-sur-Rhône,7.3,42.9,4.8,3.1,FR,Inconnu,47.9979809994662,2.720156,France,Loiret,Centre-Val de Loire
2024-09-17 23:00:00,75001,Paris,16.9,56.6,10.3,18.5,FR,Inconnu,50.2783359994725,3.973611,France,Nord,Hauts-de-France
2024-09-17 23:00:00,75002,Paris,23.7,,30.7,,FR,Inconnu,45.9863829994635,4.719281,France,Rhône,Auvergne-Rhône-Alpes
2018-04-25 02:00:00,75004,Paris,14.75,78.0,23.65,15.3,FR,Inconnu,43.4197376712764,5.21277986330012,France,Bouches-du-Rhône,Provence-Alpes-Côte d'Azur
2019-09-23 10:00:00,75004,Paris,33.2,23.0,14.3,7.4,FR,Inconnu,47.6566951743188,-2.75819623151342,France,Morbihan,Bretagne
2024-03-11 10:00:00,75004,Paris,22.6,23.0,14.3,7.4,FR,Inconnu,45.271894982689,5.6790270589692,France,Isère,Auvergne-Rhône-Alpes
2024-09-17 23:00:00,75006,Paris,29.1,,,,FR,Inconnu,44.5087799997058,0.142694999651937,France,Lot-et-Garonne,Nouvelle-Aquitaine
2024-09-17 23:00:00,75007,Paris,17.3,,,,FR,Inconnu,48.6530599999378,-2.00267999980351,France,Ille-et-Vilaine,Bretagne
2024-03-11 10:00:00,75008,Paris,45.0,,,16.0,FR,Inconnu,47.2474000000455,6.01541900010615,France,Doubs,Bourgogne-Franche-Comté
2024-09-17 23:00:00,75008,Paris,15.1,,,7.7,FR,Inconnu,46.8210560001565,4.83508299997113,France,Saône-et-Loire,Bourgogne-Franche-Comté
2024-09-16 08:00:00,75009,Paris,24.5,,18.4,6.0,FR,Biotropica les jardins animaliers,49.3048700002814,1.2143670002142,France,Eure,Normandie
2023-04-13 21:00:00,75012,Paris,25.4,,13.9,9.0,FR,Inconnu,49.1163900000927,-1.08472200006952,France,Manche,Normandie
2024-03-11 10:00:00,75012,Paris,14.6,,13.9,9.0,FR,Inconnu,48.4455530000175,0.110832999792571,France,Orne,Normandie
2024-09-16 08:00:00,75012,Paris,45.3,,13.9,9.0,FR,Inconnu,48.4455530000175,0.110832999792571,France,Orne,Normandie
2024-09-17 23:00:00,75013,Paris,13.5,63.9,,,FR,Inconnu,45.6750000001249,6.38972200044397,France,Savoie,Auvergne-Rhône-Alpes
2024-01-09 10:00:00,75014,Paris,35.7,,29.3,4.21,FR,Inconnu,46.7823099997673,4.84732200043988,France,Saône-et-Loire,Bourgogne-Franche-Comté
2024-09-08 23:00:00,75014,Paris,35.7,,4.34,4.21,FR,Inconnu,48.0014499999424,2.72617999990292,France,Loiret,Centre-Val de Loire
2024-03-11 08:00:00,75015,Paris,-1.0,,-1.0,,FR,Inconnu,45.7200240000445,4.8181560001567,France,Métropole de Lyon,Auvergne-Rhône-Alpes
2024-03-11 08:00:00,75018,Paris,19.6,59.1,19.4,9.6,FR,Inconnu,46.3161740002279,4.83999399979789,France,Saône-et-Loire,Bourgogne-Franche-Comté
2016-12-05 18:00:00,76000,Rouen,58.5,0.7,52.0,35.75,FR,Inconnu,46.3161740002279,4.83999399979789,France,Saône-et-Loire,Bourgogne-Franche-Comté
2024-03-04 08:00:00,76000,Rouen,39.1,0.7,13.7,10.8,FR,Inconnu,47.5942569998293,1.30266699988141,France,Loir-et-Cher,Centre-Val de Loire
2024-03-11 10:00:00,76000,Rouen,24.2,3.3924690581078245,12.5,8.6,FR,Inconnu,43.9334750001492,5.71180900010387,France,Alpes-de-Haute-Provence,Provence-Alpes-Côte d'Azur
2024-09-18 23:00:00,76000,Rouen,14.3,76.2,52.7,29.0,FR,Inconnu,48.3974600000795,-4.48870999983224,France,Finistère,Bretagne
2018-02-02 11:00:00,76071,Le Havre,13.63,,12.15,,FR,Inconnu,48.3974600000795,-4.48870999983224,France,Finistère,Bretagne
2020-12-30 11:00:00,76140,Le Petit-Quevilly,43.9,,20.8,,FR,Inconnu,47.747684000262,7.32136400007003,France,Haut-Rhin,Grand Est
2024-03-11 10:00:00,76140,Le Petit-Quevilly,35.4,,61.1,,FR,Inconnu,47.747684000262,7.32136400007003,France,Haut-Rhin,Grand Est
2024-09-15 17:00:00,76200,Dieppe,28.1,68.2,18.2,1.2,FR,École primaire Jean Macé,48.3861799998886,-4.48660000006197,France,Finistère,Bretagne
2024-09-18 23:00:00,76200,Dieppe,28.1,68.2,65.6,35.4,FR,Inconnu,45.1898229998141,0.72718400006274,France,Dordogne,Nouvelle-Aquitaine
2024-09-18 23:00:00,76240,Le Mesnil-Esnard,,82.6,,,FR,Inconnu,49.0213399997733,1.14831899956664,France,Eure,Normandie
2024-03-04 08:00:00,76300,Sotteville-lès-Rouen,30.2,1.1,15.2,9.8,FR,Inconnu,48.5880550000064,7.72972199987815,France,Bas-Rhin,Grand Est
2024-03-11 10:00:00,76300,Sotteville-lès-Rouen,7.3,85.7,51.2,28.3,FR,Inconnu,45.3440779998565,4.80748099983527,France,Isère,Auvergne-Rhône-Alpes
2024-09-16 14:00:00,76330,Port-Jérôme-sur-Seine,3.2,47.4,8.8,,FR,Inconnu,45.3440779998565,4.80748099983527,France,Isère,Auvergne-Rhône-Alpes
2024-09-16 14:00:00,76400,Fécamp,,63.2,,,FR,Inconnu,47.3073699998269,5.06588099964679,France,Côte-d'Or,Bourgogne-Franche-Comté
2024-01-01 01:00:00,76430,Saint-Romain-de-Colbosc,,81.0,,,FR,Inconnu,49.4341620000421,1.06705269987794,France,Seine-Maritime,Normandie
2024-09-18 23:00:00,76530,Grand-Couronne,,,46.4,,FR,Inconnu,49.6422500002307,-1.62436100013966,France,Manche,Normandie
2024-09-16 14:00:00,76600,Le Havre,14.35,,26.3,9.5,FR,Inconnu,48.7296940002108,1.35847200002767,France,Eure-et-Loir,Centre-Val de Loire
2024-09-16 14:00:00,76620,Le Havre,3.5,74.5,4.2,2.3,FR,Inconnu,49.1922200000328,-0.391111000326555,France,Calvados,Normandie
2024-09-18 23:00:00,76660,Bures-en-Bray,,66.6,,,FR,Inconnu,50.378220000192,3.06585999960954,France,Nord,Hauts-de-France
2024-09-16 14:00:00,76700,Gonfreville-l'Orcher,3.3,,6.6,,FR,Inconnu,48.9303199998812,2.2943499999861,France,Hauts-de-Seine,Île-de-France
2024-09-16 14:00:00,76700,Rogerville,,70.3,,,FR,Inconnu,43.2931370001245,5.57418400028735,France,Bouches-du-Rhône,Provence-Alpes-Côte d'Azur
2024-09-16 14:00:00,76940,Notre-Dame-de-Bliquetuit,4.5,62.3,,7.8,FR,15e Arrondissement,43.3480499997511,5.36011900025736,France,Bouches-du-Rhône,Provence-Alpes-Côte d'Azur
2024-03-11 08:00:00,77000,Melun,8.7,63.0,21.6,11.6,FR,Inconnu,50.3642500001959,3.52272999998034,France,Nord,Hauts-de-France
2024-09-18 23:00:00,77000,Melun,56.5,63.0,21.6,11.6,FR,Inconnu,48.9513899998373,2.22361099961982,France,Val-d'Oise,Île-de-France
2024-09-17 23:00:00,77120,Beautheil-Saints,,57.2,,,FR,Inconnu,50.2793599998152,3.97690999972442,France,Nord,Hauts-de-France
2024-01-29 18:00:00,77120,Coulommiers,,,28.3,11.8,FR,Inconnu,48.9963999999874,1.70330000028582,France,Yvelines,Île-de-France
2024-09-18 23:00:00,77120,Coulommiers,,,57.4,23.6,FR,Inconnu,48.3016660002666,4.07694400024531,France,Aube,Grand Est
2024-09-17 23:00:00,77185,Lognes,9.8,64.3,9.2,,FR,Inconnu,49.2595520002579,2.4743970003557,France,Oise,Hauts-de-France
2024-09-18 23:00:00,77230,Montgé-en-Goële,,78.4,,,FR,Inconnu,47.4669900000394,-0.554686000268078,France,Maine-et-Loire,Pays de la Loire
2024-09-17 23:00:00,77300,Fontainebleau,5.6,69.7,,7.0,FR,Inconnu,48.6458359997777,4.96611099961485,France,Haute-Marne,Grand Est
2024-09-17 23:00:00,78000,Versailles,10.9,55.8,,,FR,Palais des Sports Pierre de Coubertin,48.9622229999545,4.36000000037125,France,Marne,Grand Est
2024-09-17 23:00:00,78120,Rambouillet,,77.3,26.9,14.6,FR,Inconnu,49.8513340002108,3.28400000031342,France,Aisne,Hauts-de-France
2024-09-17 23:00:00,78120,Sonchamp,6.7,69.8,,,FR,Inconnu,43.9314000002095,4.82687499979534,France,Vaucluse,Provence-Alpes-Côte d'Azur
2024-03-11 10:00:00,78200,Mantes-la-Jolie,10.7,76.9,,,FR,Inconnu,49.50273000006,0.232485999671531,France,Seine-Maritime,Normandie
2020-01-22 07:00:00,79000,Niort,11.7,26.2,17.4,17.1,FR,Inconnu,49.4933319998027,0.571853000282018,France,Seine-Maritime,Normandie
2021-03-19 05:00:00,79000,Niort,6.0,43.635015590077536,26.5,13.66329019618664,FR,Université Indépendante de Vichy,46.1304319997242,3.42569400005774,France,Allier,Auvergne-Rhône-Alpes
2024-03-11 08:00:00,79000,Niort,16.3,88.6,15.65,4.8,FR,Inconnu,46.3338800001563,-0.47187800021067,France,Deux-Sèvres,Nouvelle-Aquitaine
2024-01-29 18:00:00,79360,Villiers-en-Bois,0.8,31.4,7.3,5.3,FR,Inconnu,45.896739999897,3.12225399993477,France,Puy-de-Dôme,Auvergne-Rhône-Alpes
2024-09-16 14:00:00,79360,Villiers-en-Bois,3.2,88.8,9.0,4.7,FR,Zoodyssée,46.1432340000161,-0.395913000373364,France,Deux-Sèvres,Nouvelle-Aquitaine
2021-10-07 11:00:00,79600,Airvault,14.8,33.4,29.2,,FR,Inconnu,43.8344000002437,4.37439999976558,France,Gard,Occitanie
2024-09-16 14:00:00,79600,Airvault,3.2,85.9,8.7,,FR,Inconnu,43.6112999997581,3.86626000022995,France,Hérault,Occitanie
2024-03-04 08:00:00,80000,Amiens,32.2,3.8,16.1,12.2,FR,Inconnu,46.3200260002481,-0.482860999605362,France,Deux-Sèvres,Nouvelle-Aquitaine
2024-03-11 10:00:00,80000,Amiens,6.5,53.1,7.6,3.7,FR,Inconnu,49.4982950002272,0.758833000385088,France,Seine-Maritime,Normandie
2024-09-16 23:00:00,80000,Amiens,26.33,53.1,24.73,3.8,FR,Inconnu,-20.8898930003724,55.4688400000578,France,La Réunion,La Réunion
2024-03-11 10:00:00,80480,Salouël,7.0,54.5,5.2,,FR,Église Notre-Dame-la-Grande,46.5839999999289,0.34558200029356,France,Vienne,Nouvelle-Aquitaine
2024-09-16 23:00:00,80700,Roye,,53.6,,4.7,FR,Inconnu,46.8237950001734,-0.135633999871946,France,Deux-Sèvres,Nouvelle-Aquitaine
2024-09-16 23:00:00,80820,Arrest,,55.4,8.0,3.9,FR,Inconnu,-21.2048149996145,55.5826200003951,France,La Réunion,La Réunion
2024-03-04 08:00:00,81000,Albi,17.7,23.1,6.9,,FR,Inconnu,43.609974,3.898611,France,Hérault,Occitanie
2024-09-16 23:00:00,81000,Albi,3.6,23.1,7.9,,FR,Inconnu,46.17,1.87,France,Creuse,Nouvelle-Aquitaine
2024-03-04 08:00:00,81100,Castres,8.3,56.6,6.3,5.4,FR,Inconnu,43.287758,3.504831,France,Hérault,Occitanie
2024-09-16 23:00:00,81100,Castres,4.3,66.4,7.0,3.7,FR,Inconnu,43.58722,1.443889,France,Haute-Garonne,Occitanie
2024-09-18 23:00:00,82000,Montauban,33.3,26.3,12.2,4.9,FR,Inconnu,43.37611,-0.536944,France,Pyrénées-Atlantiques,Nouvelle-Aquitaine
2024-01-29 17:00:00,83160,La Valette-du-Var,,65.7,,6.4,FR,Grand Cimetière de Dijon,47.3080413032157,5.06611192686193,France,Côte-d'Or,Bourgogne-Franche-Comté
2024-09-16 08:00:00,83160,La Valette-du-Var,,30.4,,7.1,FR,Inconnu,43.9497553662994,4.80507947160248,France,Vaucluse,Provence-Alpes-Côte d'Azur
2024-01-29 17:00:00,83170,Brignoles,,62.5,14.0,,FR,Inconnu,46.9966666387206,3.17083735727372,France,Nièvre,Bourgogne-Franche-Comté
2024-09-17 23:00:00,83170,Brignoles,,31.1,7.8,,FR,Inconnu,43.6755544389705,4.62861441719004,France,Bouches-du-Rhône,Provence-Alpes-Côte d'Azur
2023-01-11 07:00:00,83400,Hyères,,45.4,7.0,,FR,Inconnu,46.6666401423631,4.36666568034079,France,Saône-et-Loire,Bourgogne-Franche-Comté
2024-03-11 10:00:00,83500,La Seyne-sur-Mer,10.6,,,,FR,Inconnu,46.7824722190452,4.84726435734473,France,Saône-et-Loire,Bourgogne-Franche-Comté
2024-09-16 08:00:00,83640,Plan-d'Aups-Sainte-Baume,,62.0,5.7,3.8,FR,Inconnu,43.9335199525261,5.71170417210011,France,Alpes-de-Haute-Provence,Provence-Alpes-Côte d'Azur
2024-09-17 23:00:00,83700,Fréjus,7.3,33.0,1.9,0.2,FR,Inconnu,48.1086536280958,-1.66576399764851,France,Ille-et-Vilaine,Bretagne
2023-02-02 01:00:00,84000,Avignon,5.7,67.2,18.0,11.2,FR,Inconnu,48.3996394541087,-4.46723207639797,France,Finistère,Bretagne
2024-01-29 18:00:00,84000,Avignon,22.0,67.2,21.7,11.2,FR,Inconnu,43.510559975903,5.21972384044637,France,Bouches-du-Rhône,Provence-Alpes-Côte d'Azur
2024-03-11 08:00:00,84000,Avignon,3.2,90.7,24.5,5.2,FR,Inconnu,43.7047196490079,-1.03861416519331,France,Landes,Nouvelle-Aquitaine
2024-09-16 08:00:00,84000,Avignon,4.8,90.7,14.9,3.1,FR,Parking,43.8960516305414,-0.490616689052445,France,Landes,Nouvelle-Aquitaine
2024-01-29 18:00:00,84130,Le Pontet,21.9,,,4.5,FR,Parking,43.8960516305414,-0.490616689052445,France,Landes,Nouvelle-Aquitaine
2024-09-16 14:00:00,84130,Le Pontet,5.2,,,4.5,FR,Inconnu,49.117192768241,-0.169665706026938,France,Calvados,Normandie
2024-09-16 14:00:00,84200,Carpentras,,78.6,,,FR,Inconnu,49.1311139994689,6.207225,France,Moselle,Grand Est
2024-01-29 18:00:00,84400,Apt,,43.8,,,FR,Inconnu,45.3531859994632,4.804822,France,Isère,Auvergne-Rhône-Alpes
2024-09-16 14:00:00,84400,Apt,,68.3,,,FR,Inconnu,44.1061895923754,3.07217538961888,France,Aveyron,Occitanie
2024-09-16 23:00:00,85000,La Roche-sur-Yon,7.1,69.4,12.9,5.7,FR,Inconnu,50.1724794592506,3.23606403005364,France,Nord,Hauts-de-France
2024-09-16 23:00:00,85120,Terval,3.3,75.6,8.5,5.0,FR,Inconnu,14.6661999997358,-61.1501,France,Martinique,Martinique
2018-12-10 08:00:00,86000,Poitiers,66.1,15.8,33.7,10.3,FR,Inconnu,46.7983329994643,1.693819,France,Indre,Centre-Val de Loire
2024-03-04 07:00:00,86000,Poitiers,21.6,15.8,11.4,10.3,FR,Inconnu,50.3647189994728,3.523611,France,Nord,Hauts-de-France
2024-03-04 08:00:00,86000,Poitiers,42.150000000000006,7.5,22.2,10.3,FR,Inconnu,50.6294439994737,3.090833,France,Nord,Hauts-de-France
2024-09-16 08:00:00,86000,Poitiers,15.6,74.51452229299362,19.7,7.303821656050955,FR,Inconnu,50.436809254151,2.82668378877469,France,Pas-de-Calais,Hauts-de-France
2024-09-16 14:00:00,86000,Poitiers,8.7,74.6,10.9,7.3,FR,Inconnu,49.2978953606785,2.51744773536939,France,Oise,Hauts-de-France
2024-09-18 23:00:00,86000,Poitiers,10.0,56.4,15.9,7.3,FR,Inconnu,16.2540859998526,-61.5371300001843,France,Guadeloupe,Guadeloupe
2024-09-18 23:00:00,87000,Limoges,13.8,,21.6,,FR,Inconnu,46.8146930000512,2.61006899986248,France,Cher,Centre-Val de Loire
2019-01-07 11:00:00,87085,Limoges,42.3,22.7,11.1,8.1,FR,Inconnu,49.4366999998995,1.09883799978172,France,Seine-Maritime,Normandie
2024-09-18 23:00:00,87085,Limoges,3.8,62.3,10.2,7.2,FR,Inconnu,42.6958700001418,2.88848299977518,France,Pyrénées-Orientales,Occitanie
2024-03-04 08:00:00,87170,Limoges,23.3,,7.5,,FR,Inconnu,47.2474000000455,6.01541900010615,France,Doubs,Bourgogne-Franche-Comté
2024-03-04 07:00:00,87200,Saint-Junien,11.9,7.2,8.8,,FR,Inconnu,45.8232230002939,4.95395800025814,France,Ain,Auvergne-Rhône-Alpes
2024-09-18 23:00:00,87200,Saint-Junien,2.9,56.4,2.6,,FR,Inconnu,43.3108000001887,-0.391543000146688,France,Pyrénées-Atlantiques,Nouvelle-Aquitaine
2024-03-04 07:00:00,87410,Le Palais-sur-Vienne,,14.2,11.6,,FR,Inconnu,14.6780249995922,-60.9390559996157,France,Martinique,Martinique
2024-09-16 08:00:00,87410,Le Palais-sur-Vienne,,60.8,10.6,,FR,Inconnu,14.6106530003893,-61.002586000064,France,Martinique,Martinique
2024-09-18 23:00:00,87720,Saillat-sur-Vienne,2.3,,4.2,,FR,Inconnu,43.7020760000666,7.28625599991525,France,Alpes-Maritimes,Provence-Alpes-Côte d'Azur
2019-08-09 13:00:00,88000,Épinal,11.4,79.3,17.3,8.3,FR,Inconnu,46.3161740002279,4.83999399979789,France,Saône-et-Loire,Bourgogne-Franche-Comté
2024-09-18 23:00:00,88000,Épinal,20.2,37.4,54.9,21.0,FR,Inconnu,47.5942569998293,1.30266699988141,France,Loir-et-Cher,Centre-Val de Loire
2021-04-09 06:00:00,88200,Remiremont,9.1,51.6,,,FR,Inconnu,43.9334750001492,5.71180900010387,France,Alpes-de-Haute-Provence,Provence-Alpes-Côte d'Azur
2024-09-18 23:00:00,88400,Xonrupt-Longemer,0.5,73.8,,,FR,Voie du Homet,49.6338900002764,-1.62472220013899,France,Manche,Normandie
2024-01-29 08:00:00,89000,Auxerre,15.75,5.3,11.8,10.8,FR,Inconnu,47.8377500002934,1.9446669999777,France,Loiret,Centre-Val de Loire
2024-09-18 23:00:00,89000,Auxerre,15.75,35.4,25.5,13.5,FR,Inconnu,45.9901120000703,4.71556599980171,France,Rhône,Auvergne-Rhône-Alpes
2024-01-29 18:00:00,89100,Sens,55.3,3.3,34.9,,FR,Inconnu,44.5551950001672,6.07301500018045,France,Hautes-Alpes,Provence-Alpes-Côte d'Azur
2024-03-11 10:00:00,89100,Sens,18.1,47.2,13.4,,FR,Inconnu,44.5551950001672,6.07301500018045,France,Hautes-Alpes,Provence-Alpes-Côte d'Azur
2024-03-11 10:00:00,90000,Belfort,23.2,33.8,16.0,,FR,Inconnu,45.2747230002974,6.3497219998307,France,Savoie,Auvergne-Rhône-Alpes
2024-09-18 23:00:00,90000,Belfort,25.7,33.8,16.0,,FR,Inconnu,47.0426099999585,5.40089700029717,France,Jura,Bourgogne-Franche-Comté
2024-03-11 10:00:00,91000,Évry,10.1,,,,FR,Inconnu,45.3440779998565,4.80748099983527,France,Isère,Auvergne-Rhône-Alpes
2024-09-17 23:00:00,91150,Bois-Herpin,,68.4,24.5,15.5,FR,Inconnu,43.4702379999568,-1.55387600021659,France,Pyrénées-Atlantiques,Nouvelle-Aquitaine
2024-03-11 10:00:00,91230,Montgeron,14.8,67.4,,,FR,Inconnu,46.2116659998982,5.22638900029136,France,Ain,Auvergne-Rhône-Alpes
2024-09-18 23:00:00,91310,Montlhéry,38.8,,,14.7,FR,Inconnu,47.7424999999031,-3.395009999658,France,Morbihan,Bretagne
2024-09-17 23:00:00,91940,Les Ulis,,70.0,,,FR,Inconnu,43.835784999887,5.78613100015114,France,Alpes-de-Haute-Provence,Provence-Alpes-Côte d'Azur
2024-03-11 10:00:00,92200,Neuilly-sur-Seine,14.9,64.0,,,FR,Inconnu,43.835784999887,5.78613100015114,France,Alpes-de-Haute-Provence,Provence-Alpes-Côte d'Azur
2024-07-30 13:00:00,92230,Gennevilliers,34.9,,34.7,11.9,FR,Inconnu,44.8434099998198,-0.506979999619349,France,Gironde,Nouvelle-Aquitaine
2024-09-17 23:00:00,92230,Gennevilliers,12.9,,10.4,12.9,FR,Stade Louis Durand,45.7532999996927,5.07219999998525,France,Rhône,Auvergne-Rhône-Alpes
2016-12-05 01:00:00,92380,Garches,,1.0,,,FR,Stade Louis Durand,45.7532999996927,5.07219999998525,France,Rhône,Auvergne-Rhône-Alpes
2020-12-31 14:00:00,92800,Puteaux,20.7,,8.4,22.4,FR,Inconnu,50.3227600000871,3.39593000027307,France,Nord,Hauts-de-France
2024-03-11 10:00:00,93000,Bobigny,27.4,,47.2,27.3,FR,Inconnu,50.3227600000871,3.39593000027307,France,Nord,Hauts-de-France
2024-03-11 08:00:00,93200,Saint-Denis,12.3,,16.4,16.9,FR,1e Arrondissement,48.8621199998727,2.34461599976858,France,Paris,Île-de-France
2024-09-16 08:00:00,93200,Saint-Denis,31.0,,16.4,16.9,FR,Verger,48.3547000001938,2.6453000000409,France,Seine-et-Marne,Île-de-France
2024-09-17 23:00:00,93250,Villemomble,9.1,67.2,,,FR,Inconnu,48.6337299998935,1.83052900033848,France,Yvelines,Île-de-France
2024-09-17 23:00:00,93290,Tremblay-en-France,9.2,61.5,9.6,,FR,Palais des sports Jean-François-Krakowski,43.4378739998896,6.76839000008727,France,Var,Provence-Alpes-Côte d'Azur
2024-09-17 23:00:00,93300,Aubervilliers,20.1,,,,FR,Inconnu,43.5302849996847,5.44091200008074,France,Bouches-du-Rhône,Provence-Alpes-Côte d'Azur
2024-03-11 10:00:00,93500,Pantin,48.3,,28.1,,FR,Inconnu,48.8863869997662,6.09361099988959,France,Meurthe-et-Moselle,Grand Est
2024-09-17 23:00:00,94130,Nogent-sur-Marne,,,24.8,,FR,Inconnu,48.5728069998645,7.76783299975578,France,Bas-Rhin,Grand Est
2018-04-20 08:00:00,94200,Ivry-sur-Seine,72.0,,,,FR,Inconnu,48.3641660000587,2.2369439998826,France,Essonne,Île-de-France
2016-12-05 01:00:00,94230,Cachan,,1.5,,,FR,Inconnu,16.2367399997,-61.534099999799,France,Guadeloupe,Guadeloupe
2024-03-11 10:00:00,94400,Vitry-sur-Seine,10.1,68.1,27.7,15.6,FR,Inconnu,48.9252779998288,2.35666699991635,France,Seine-Saint-Denis,Île-de-France
2024-09-17 23:00:00,94500,Champigny-sur-Marne,11.1,64.6,,,FR,Inconnu,48.3016660002666,4.07694400024531,France,Aube,Grand Est
2024-09-17 23:00:00,95100,Argenteuil,8.2,,,,FR,Inconnu,50.7754819998265,3.12568000015524,France,Nord,Hauts-de-France
2024-09-17 23:00:00,95270,Saint-Martin-du-Tertre,,79.3,20.1,9.3,FR,Cimetière de la Chauvinière,47.252776999898,-1.57333299992586,France,Loire-Atlantique,Pays de la Loire
2024-09-18 23:00:00,95450,Frémainville,,90.4,3.4,,FR,Inconnu,49.2595520002579,2.4743970003557,France,Oise,Hauts-de-France
2024-09-16 08:00:00,95500,Gonesse,4.6,,,4.6,FR,Inconnu,49.2241669997297,4.02055599976787,France,Marne,Grand Est
2024-09-17 23:00:00,95800,Cergy,,74.8,4.9,,FR,Inconnu,43.6236080001413,1.43853099990713,France,Haute-Garonne,Occitanie
2024-03-11 10:00:00,97110,Les Abymes,17.8,,26.3,,FR,Inconnu,47.3157270003001,-2.19076399974636,France,Loire-Atlantique,Pays de la Loire
2018-01-26 16:00:00,97110,Pointe-à-Pitre,11.07,40.3,28.0,9.7,FR,Inconnu,43.5756949998691,1.41806400006942,France,Haute-Garonne,Occitanie
2024-09-17 23:00:00,97110,Pointe-à-Pitre,16.1,11.0,28.0,9.7,FR,Inconnu,45.0795400001299,5.72865300007762,France,Isère,Auvergne-Rhône-Alpes
2024-01-29 18:00:00,97122,Baie-Mahault,7.4,29.2,23.1,,FR,Inconnu,45.182800000109,5.75310000015467,France,Isère,Auvergne-Rhône-Alpes
2024-03-11 10:00:00,97122,Baie-Mahault,6.5,7.8,0.0,,FR,Inconnu,47.3191570002322,-2.06695300041656,France,Loire-Atlantique,Pays de la Loire
2021-06-15 07:00:00,97183,Les Abymes,0.9,,64.0,,FR,Inconnu,49.6966969998357,2.80113899980974,France,Somme,Hauts-de-France
2023-11-29 19:00:00,97200,Fort-de-France,25.7,,13.2,6.9,FR,Inconnu,46.6566850000422,-0.743680999706857,France,Vendée,Pays de la Loire
2024-03-11 10:00:00,97200,Fort-de-France,25.7,,45.30105201636469,6.306926345609066,FR,Inconnu,43.9314000002095,4.82687499979534,France,Vaucluse,Provence-Alpes-Côte d'Azur
2024-09-09 23:00:00,97200,Fort-de-France,14.5,,102.4,5.252011331444759,FR,Inconnu,45.7641099997366,3.04611099982223,France,Puy-de-Dôme,Auvergne-Rhône-Alpes
2024-09-18 23:00:00,97200,Fort-de-France,14.5,,9.9,5.2,FR,Inconnu,46.3407199997582,2.59394499958895,France,Allier,Auvergne-Rhône-Alpes
2017-12-31 15:00:00,97222,Bellefontaine,0.25,44.38,9.85,12.6,FR,Zoodyssée,46.1432340000161,-0.395913000373364,France,Deux-Sèvres,Nouvelle-Aquitaine
2018-04-25 06:00:00,97222,Bellefontaine,0.25,44.38,9.85,7.55,FR,Inconnu,49.4982950002272,0.758833000385088,France,Seine-Maritime,Normandie
2024-09-18 23:00:00,97231,Le Robert,2.9,21.5,19.2,7.5,FR,Hôpital Flaubert,49.5001870002225,0.110903000112771,France,Seine-Maritime,Normandie
2024-09-18 23:00:00,97232,Le Lamentin,12.7,10.5,20.1,8.4,FR,Inconnu,43.510803000236,5.22004599966345,France,Bouches-du-Rhône,Provence-Alpes-Côte d'Azur
2019-08-08 09:00:00,97250,Saint-Pierre,,,12.0,,FR,Stade De La Pinède,42.7197999999356,2.83987999987422,France,Pyrénées-Orientales,Occitanie
2024-05-12 05:00:00,97300,Cayenne,-1.0,-1.0,-1.0,8.7,FR,Inconnu,47.3227039997187,-2.03924400015057,France,Loire-Atlantique,Pays de la Loire
2024-09-18 23:00:00,97300,Cayenne,-1.0,-1.0,22.4,8.7,FR,Mairie,43.4535830001658,5.46667200023494,France,Bouches-du-Rhône,Provence-Alpes-Côte d'Azur
2024-09-18 23:00:00,97310,Kourou,,47.5,19.8,9.2,FR,Inconnu,50.6700299997373,3.07656000004533,France,Nord,Hauts-de-France
2024-03-11 08:00:00,97351,Matoury,1.7,49.2,-1.0,,FR,Inconnu,45.59667,5.918611,France,Savoie,Auvergne-Rhône-Alpes
2024-09-18 23:00:00,97355,Macouria,0.0,47.0,,,FR,Inconnu,49.9025,2.3046,France,Somme,Hauts-de-France
2023-12-27 09:00:00,97409,Saint-Denis,1.6,53.6,6.7,3.5,FR,Inconnu,46.143173,-0.396042,France,Deux-Sèvres,Nouvelle-Aquitaine
2024-09-16 08:00:00,97410,Saint-Pierre,12.9,28.5,13.8,,FR,Inconnu,44.508656,0.142503,France,Lot-et-Garonne,Nouvelle-Aquitaine
2024-09-16 08:00:00,97418,Le Tampon,4.3,70.7,2.3,,FR,Inconnu,45.89,0.9,France,Haute-Vienne,Nouvelle-Aquitaine
2024-03-11 10:00:00,97419,La Possession,34.7,,,,FR,Inconnu,44.800556,-0.588056,France,Gironde,Nouvelle-Aquitaine
2024-09-10 20:00:00,97420,Le Port,4.9,,,,FR,Inconnu,43.63028,0.179722,France,Gers,Occitanie
2024-01-29 16:00:00,97434,Saint-Gilles-les-Bains,6.4,20.1,9.8,5.0,FR,Inconnu,45.772167,3.0875,France,Puy-de-Dôme,Auvergne-Rhône-Alpes
2024-03-11 10:00:00,97434,Saint-Gilles-les-Bains,8.0,37.9,9.4,6.4,FR,8e Arrondissement,43.2763488363056,5.3976711150776,France,Bouches-du-Rhône,Provence-Alpes-Côte d'Azur
2024-09-09 08:00:00,97434,Saint-Gilles-les-Bains,13.8,46.7,8.3,6.0148213498015,FR,Grand Cimetière de Dijon,47.3080413032157,5.06611192686193,France,Côte-d'Or,Bourgogne-Franche-Comté
2024-09-16 08:00:00,97434,Saint-Gilles-les-Bains,18.88,46.7,27.6,6.0,FR,Inconnu,43.2947895081236,5.57173766768144,France,Bouches-du-Rhône,Provence-Alpes-Côte d'Azur
2018-08-22 20:00:00,97441,Sainte-Suzanne,13.1,32.8,,,FR,École primaire Jean Macé,48.3863972226844,-4.48681534959177,France,Finistère,Bretagne
2024-09-16 14:00:00,97450,Saint-Louis,12.9,,,,FR,Inconnu,44.0883193867536,6.98917138818795,France,Alpes-Maritimes,Provence-Alpes-Côte d'Azur
2024-09-16 08:00:00,97480,Saint-Joseph,,,6.1,3.3,FR,Inconnu,47.648889066211,-2.76389155041474,France,Morbihan,Bretagne
2024-09-16 14:00:00,97488,Saint-Denis,5.6,37.7,7.3,2.6,FR,Inconnu,46.6666401423631,4.36666568034079,France,Saône-et-Loire,Bourgogne-Franche-Comté
2024-09-18 23:00:00,97488,Saint-Denis,5.6,37.7,7.3,2.6,FR,Inconnu,43.5625273554356,7.00721854224592,France,Alpes-Maritimes,Provence-Alpes-Côte d'Azur
2023-04-18 16:00:00,AD200,Encamp,,45.8,,,FR,Inconnu,47.8005658610427,3.57639077544232,France,Yonne,Bourgogne-Franche-Comté
