LastUpdated,Postal_Code,City,NO2,O3,PM10,PM2.5,Latitude,Longitude,Country.Label,Department,Region,Altitude Moyenne,Superficie,p16_pop,p17_pop,p18_pop,p19_pop,p20_pop,p21_pop,p24_pop
2024-09-18 23:00:00,1000,Bourg-en-Bresse,37.4,12.0,7.9,5.7,46.2116659998982,5.22638900029136,France,Ain,Auvergne-Rhône-Alpes,239.0,2400.0,41365.0,41527,41248.0,41111.0,41681.0,41525.0,41111.0
2024-09-16 08:00:00,1700,Miribel,4.4,67.7,9.4,,45.8232230002939,4.95395800025814,France,Ain,Auvergne-Rhône-Alpes,260.0,2439.0,9742.0,9963,10043.0,10122.0,10202.0,10225.0,4754.0
2017-12-12 16:00:00,2100,Saint-Quentin,38.07,56.8,8.7,6.1,49.8428200002493,3.28143899955813,France,Aisne,Hauts-de-France,92.0,2280.0,54443.0,53816,53856.0,53570.0,53100.0,52958.0,347.0
2024-09-16 23:00:00,2100,Saint-Quentin,3.7,56.8,8.7,4.1,49.8513340002108,3.28400000031342,France,Aisne,Hauts-de-France,92.0,2280.0,54443.0,53816,53856.0,53570.0,53100.0,52958.0,347.0
2024-09-16 23:00:00,2470,Neuilly-Saint-Front,2.4,54.3,7.3,4.2,49.1749299998364,3.26081899955954,France,Aisne,Hauts-de-France,139.0,1799.0,2104.0,2078,2075.0,2066.0,2055.0,2018.0,370.0
2017-10-11 12:00:00,2500,Hirson,,39.13,,,49.9205559994713,4.090556,France,Aisne,Hauts-de-France,215.0,3398.0,8985.0,8813,8800.0,8710.0,8685.0,8662.0,455.0
2016-12-01 21:00:00,3000,Moulins,29.0,3.75,19.25,4.8,46.5618635984186,3.3310878208078,France,Allier,Auvergne-Rhône-Alpes,213.0,870.0,19613.0,19664,19563.0,19246.0,19444.0,19343.0,3953.0
2024-09-16 14:00:00,3000,Moulins,3.6,87.1,7.0,4.8,46.5619739999054,3.34063890024972,France,Allier,Auvergne-Rhône-Alpes,213.0,870.0,19613.0,19664,19563.0,19246.0,19444.0,19343.0,3953.0
2024-09-16 14:00:00,3100,Montluçon,7.7,78.0,10.9,7.4,46.3407199997582,2.59394499958895,France,Allier,Auvergne-Rhône-Alpes,235.0,2071.0,36147.0,35653,34938.0,34361.0,33822.0,33342.0,1154.0
2024-09-10 20:00:00,3200,Vichy,4.6,85.2,6.8,7.4,46.1304319997242,3.42569400005774,France,Allier,Auvergne-Rhône-Alpes,261.0,586.0,24383.0,24166,24854.0,24980.0,25372.0,25789.0,2904.0
2024-09-16 14:00:00,3230,Paray-le-Frésil,1.3,82.2,7.2,4.5,46.6526679998459,3.60066700039397,France,Allier,Auvergne-Rhône-Alpes,229.0,3695.0,387.0,389,387.0,387.0,385.0,382.0,1640.0
2018-08-23 14:00:00,3270,Busset,,110.58,,,46.0602779994636,3.515139,France,Allier,Auvergne-Rhône-Alpes,455.0,3684.0,940.0,910,879.0,849.0,833.0,817.0,849.0
2021-01-08 08:00:00,3460,Villeneuve-sur-Allier,23.7,,,,46.6590571322097,3.2493141804944,France,Allier,Auvergne-Rhône-Alpes,217.0,2622.0,1067.0,1071,1073.0,1073.0,1074.0,1051.0,135.0
2024-01-29 18:00:00,4100,Manosque,31.9,41.0,27.6,12.1,43.8353015894571,5.78583314934565,France,Alpes-de-Haute-Provence,Provence-Alpes-Côte d'Azur,407.0,5668.0,21868.0,22333,22485.0,22528.0,23018.0,22926.0,22528.0
2024-09-18 23:00:00,4100,Manosque,9.6,67.5,9.1,5.7,43.835784999887,5.78613100015114,France,Alpes-de-Haute-Provence,Provence-Alpes-Côte d'Azur,407.0,5668.0,21868.0,22333,22485.0,22528.0,23018.0,22926.0,22528.0
2024-01-26 09:00:00,4870,Saint-Michel-l'Observatoire,0.3,85.8,5.1,3.3,43.9335199525261,5.71170417210011,France,Alpes-de-Haute-Provence,Provence-Alpes-Côte d'Azur,537.0,2821.0,1239.0,1238,1238.0,1235.0,1230.0,1226.0,1235.0
2024-01-31 09:00:00,4870,Saint-Michel-l'Observatoire,1.8,75.7,8.2,5.5,43.9334750001492,5.71180900010387,France,Alpes-de-Haute-Provence,Provence-Alpes-Côte d'Azur,537.0,2821.0,1239.0,1238,1238.0,1235.0,1230.0,1226.0,1235.0
2024-09-16 08:00:00,5000,Gap,24.0,56.9,20.5,6.1,44.5486499998268,6.06723700034038,France,Hautes-Alpes,Provence-Alpes-Côte d'Azur,1113.0,10878.0,40805.0,40895,40559.0,40631.0,40111.0,40500.0,325.0
2024-09-18 23:00:00,5000,Gap,11.1,56.9,14.2,10.3,44.5551950001672,6.07301500018045,France,Hautes-Alpes,Provence-Alpes-Côte d'Azur,1113.0,10878.0,40805.0,40895,40559.0,40631.0,40111.0,40500.0,325.0
2024-09-16 23:00:00,5220,Le Monêtier-les-Bains,,97.8,,,44.9970000002859,6.4693999996586,France,Hautes-Alpes,Provence-Alpes-Côte d'Azur,2264.0,13461.0,1040.0,1056,1056.0,1060.0,1062.0,1013.0,1060.0
2021-03-29 03:00:00,6130,Grasse,,90.4,,,43.6578145387488,6.92095332551192,France,Alpes-Maritimes,Provence-Alpes-Côte d'Azur,356.0,4428.0,50677.0,50396,48865.0,48870.0,48708.0,48323.0,50396.0
2024-09-18 23:00:00,6140,Coursegoules,,64.7,,,43.7919119997042,7.04827600008578,France,Alpes-Maritimes,Provence-Alpes-Côte d'Azur,1118.0,4128.0,528.0,531,535.0,531.0,529.0,526.0,531.0
2024-01-29 18:00:00,6200,Nice,15.5,81.3,11.1,4.8,43.6860789340896,7.21194459549675,France,Alpes-Maritimes,Provence-Alpes-Côte d'Azur,115.0,7391.0,342637.0,340017,341032.0,342669.0,343477.0,348085.0,342669.0
2024-09-16 08:00:00,6200,Nice,15.5,44.91422190459174,11.1,4.8,43.6892899998647,7.2420740002946,France,Alpes-Maritimes,Provence-Alpes-Côte d'Azur,115.0,7391.0,342637.0,340017,341032.0,342669.0,343477.0,348085.0,342669.0
2024-09-18 23:00:00,6200,Nice,15.5,44.5,11.1,4.8,43.6851900000749,7.21117399998479,France,Alpes-Maritimes,Provence-Alpes-Côte d'Azur,115.0,7391.0,342637.0,340017,341032.0,342669.0,343477.0,348085.0,342669.0
2024-01-29 18:00:00,6390,Contes,38.3,,47.0,,43.7933622306242,7.33139357882613,France,Alpes-Maritimes,Provence-Alpes-Côte d'Azur,311.0,1950.0,7420.0,7424,7429.0,7437.0,7534.0,7544.0,947.0
2024-09-18 23:00:00,6390,Contes,6.3,,2.6,,43.7887499998263,7.33238199962482,France,Alpes-Maritimes,Provence-Alpes-Côte d'Azur,311.0,1950.0,7420.0,7424,7429.0,7437.0,7534.0,7544.0,947.0
2024-09-18 23:00:00,6400,Cannes,23.8,31.9,10.3,6.1,43.5583879998064,7.00591899983004,France,Alpes-Maritimes,Provence-Alpes-Côte d'Azur,41.0,2099.0,74152.0,73868,73965.0,74545.0,72435.0,73255.0,74545.0
2024-09-18 23:00:00,6440,Peillon,,,6.9,2.8,43.7865829996798,7.37328299968828,France,Alpes-Maritimes,Provence-Alpes-Côte d'Azur,344.0,868.0,1470.0,1457,1462.0,1465.0,1465.0,1445.0,1657.0
2024-09-18 23:00:00,6440,Peillon,,,6.9,2.8,43.7865829996798,7.37328299968828,France,Alpes-Maritimes,Provence-Alpes-Côte d'Azur,752.0,4275.0,2365.0,2376,2373.0,2370.0,2369.0,2287.0,1657.0
2024-01-29 18:00:00,6470,Beuil,,72.5,,,44.0883193867536,6.98917138818795,France,Alpes-Maritimes,Provence-Alpes-Côte d'Azur,1793.0,7451.0,510.0,525,538.0,551.0,552.0,553.0,551.0
2024-09-18 23:00:00,6470,Beuil,,82.6,,,44.0946899996974,6.9889779997719,France,Alpes-Maritimes,Provence-Alpes-Côte d'Azur,1793.0,7451.0,510.0,525,538.0,551.0,552.0,553.0,551.0
2024-01-29 18:00:00,6600,Antibes,33.7,57.8,,,43.5997495987433,7.094723434072,France,Alpes-Maritimes,Provence-Alpes-Côte d'Azur,44.0,2699.0,73798.0,72999,72915.0,73438.0,74709.0,75130.0,73438.0
2024-03-11 08:00:00,6600,Antibes,35.9,18.8,,,43.5988040001327,7.09315300019062,France,Alpes-Maritimes,Provence-Alpes-Côte d'Azur,44.0,2699.0,73798.0,72999,72915.0,73438.0,74709.0,75130.0,73438.0
2024-09-16 23:00:00,8000,Charleville-Mézières,7.8,64.5,8.6,,49.7452769999387,4.71916699992436,France,Ardennes,Grand Est,185.0,3177.0,46682.0,46428,46391.0,46436.0,46388.0,46398.0,886.0
2024-03-11 09:00:00,8500,Les Mazures,4.0,57.0,5.5,3.8,49.9077799999888,4.63000000024383,France,Ardennes,Grand Est,332.0,3643.0,915.0,903,890.0,885.0,878.0,867.0,210.0
2019-04-01 11:00:00,9100,Pamiers,,62.2,,,43.1143938634176,1.62259096509373,France,Ariège,Occitanie,312.0,4636.0,15688.0,15675,15603.0,15659.0,15938.0,16394.0,215.0
2023-01-09 14:00:00,10000,Troyes,5.7,,6.1,,48.3016660002666,4.07694400024531,France,Aube,Grand Est,109.0,1339.0,60640.0,61652,61996.0,61957.0,62597.0,62782.0,61957.0
2024-09-16 08:00:00,10300,Sainte-Savine,3.1,49.8,9.5,5.0,48.2950020002667,4.05027799971974,France,Aube,Grand Est,118.0,761.0,10301.0,10573,10409.0,10508.0,10496.0,10515.0,971.0
2024-09-16 23:00:00,10410,Saint-Parres-aux-Tertres,,63.6,,,48.2991679999448,4.11722199979461,France,Aube,Grand Est,113.0,1188.0,3116.0,3126,3136.0,3167.0,3179.0,3201.0,497.0
2024-09-16 23:00:00,12000,Rodez,3.1,71.7,7.7,4.5,44.3569899999812,2.57070419978324,France,Aveyron,Occitanie,565.0,1130.0,23739.0,24057,24319.0,24475.0,24397.0,24207.0,2284.0
2019-02-12 01:00:00,12100,Millau,,51.3,,,44.1061895923754,3.07217538961888,France,Aveyron,Occitanie,688.0,17008.0,22200.0,22109,22002.0,21979.0,21482.0,21712.0,232.0
2024-01-29 18:00:00,13004,Marseille,22.7,68.2,17.2,11.5,43.3060996358468,5.39579363613379,France,Bouches-du-Rhône,Provence-Alpes-Côte d'Azur,58.0,288.0,48074.0,48459,49281.0,49296.0,49636.0,50068.0,49296.0
2024-03-10 02:00:00,13004,Marseille,12.9,56.7,5.6,3.7,43.3052859999273,5.39471600005097,France,Bouches-du-Rhône,Provence-Alpes-Côte d'Azur,58.0,288.0,48074.0,48459,49281.0,49296.0,49636.0,50068.0,49296.0
2024-01-29 18:00:00,13008,Marseille,32.3,,36.9,15.3,43.2763488363056,5.3976711150776,France,Bouches-du-Rhône,Provence-Alpes-Côte d'Azur,62.0,2077.0,80724.0,81028,81276.0,81436.0,82155.0,82609.0,81436.0
2024-09-16 08:00:00,13008,Marseille,30.8,,21.8,14.3,43.2764499999454,5.39735999974862,France,Bouches-du-Rhône,Provence-Alpes-Côte d'Azur,62.0,2077.0,80724.0,81028,81276.0,81436.0,82155.0,82609.0,81436.0
2017-12-07 17:00:00,13014,Marseille,106.5,,,,43.315271999464,5.387528,France,Bouches-du-Rhône,Provence-Alpes-Côte d'Azur,137.0,1637.0,62199.0,62951,61965.0,61702.0,60968.0,59948.0,61702.0
2024-01-29 18:00:00,13015,Marseille,41.8,,25.5,15.3,43.3480529322015,5.36065154221904,France,Bouches-du-Rhône,Provence-Alpes-Côte d'Azur,124.0,1663.0,76420.0,75901,76610.0,77243.0,79092.0,79656.0,77243.0
2024-03-11 10:00:00,13015,Marseille,22.6,,5.8,2.6,43.3480499997511,5.36011900025736,France,Bouches-du-Rhône,Provence-Alpes-Côte d'Azur,124.0,1663.0,76420.0,75901,76610.0,77243.0,79092.0,79656.0,77243.0
2024-01-29 17:00:00,13100,Aix-en-Provence,75.8,,24.0,11.3,43.52404453793,5.44957577219403,France,Bouches-du-Rhône,Provence-Alpes-Côte d'Azur,236.0,18759.0,143006.0,142482,143097.0,145133.0,147122.0,147478.0,593.0
2024-01-29 18:00:00,13100,Aix-en-Provence,45.4,,20.4,11.3,43.5302972250095,5.44138313680286,France,Bouches-du-Rhône,Provence-Alpes-Côte d'Azur,236.0,18759.0,143006.0,142482,143097.0,145133.0,147122.0,147478.0,593.0
2024-03-10 23:00:00,13100,Aix-en-Provence,4.9,,3.6,2.2,43.5302849996847,5.44091200008074,France,Bouches-du-Rhône,Provence-Alpes-Côte d'Azur,236.0,18759.0,143006.0,142482,143097.0,145133.0,147122.0,147478.0,593.0
2024-09-17 23:00:00,13100,Aix-en-Provence,6.4,,39.4,2.2,43.5240749998569,5.44816399965644,France,Bouches-du-Rhône,Provence-Alpes-Côte d'Azur,236.0,18759.0,143006.0,142482,143097.0,145133.0,147122.0,147478.0,593.0
2024-01-29 17:00:00,13120,Gardanne,26.5,,33.4,12.9,43.453461514164,5.4671019033872,France,Bouches-du-Rhône,Provence-Alpes-Côte d'Azur,260.0,2717.0,20407.0,20794,21376.0,21521.0,21501.0,21174.0,21521.0
2024-09-16 08:00:00,13120,Gardanne,26.5,,16.0,7.0,43.4535830001658,5.46667200023494,France,Bouches-du-Rhône,Provence-Alpes-Côte d'Azur,260.0,2717.0,20407.0,20794,21376.0,21521.0,21501.0,21174.0,21521.0
2020-02-18 10:00:00,13127,Vitrolles,14.2,57.8,,,43.4572219994639,5.244303,France,Bouches-du-Rhône,Provence-Alpes-Côte d'Azur,111.0,3675.0,33880.0,33310,33101.0,33333.0,34418.0,35532.0,33333.0
2020-05-03 11:00:00,13130,Berre-l'Étang,,76.3,,,43.4858630407889,5.17194245048405,France,Bouches-du-Rhône,Provence-Alpes-Côte d'Azur,14.0,4396.0,13483.0,13472,13520.0,13660.0,13834.0,13912.0,13660.0
2024-09-17 23:00:00,13130,Berre-l'Étang,,57.2,,,43.4862329997988,5.17193900005504,France,Bouches-du-Rhône,Provence-Alpes-Côte d'Azur,14.0,4396.0,13483.0,13472,13520.0,13660.0,13834.0,13912.0,13660.0
2020-01-22 12:00:00,13140,Miramas,,,11.5,,43.5850029994637,5.006389,France,Bouches-du-Rhône,Provence-Alpes-Côte d'Azur,56.0,2575.0,25756.0,26470,26668.0,26428.0,26433.0,26405.0,26428.0
2019-07-04 12:00:00,13150,Tarascon,5.0,115.9,,,43.8291454141088,4.64295152912459,France,Bouches-du-Rhône,Provence-Alpes-Côte d'Azur,20.0,7432.0,15020.0,14813,15195.0,15811.0,15508.0,15423.0,1509.0
2024-01-29 18:00:00,13200,Arles,31.7,53.2,27.7,21.4,43.6755544389705,4.62861441719004,France,Bouches-du-Rhône,Provence-Alpes-Côte d'Azur,4.0,75821.0,52857.0,52548,51031.0,50454.0,50968.0,50415.0,52729.0
2024-09-18 23:00:00,13200,Arles,15.2,61.9,13.8,10.0,43.6751139999298,4.62921000022341,France,Bouches-du-Rhône,Provence-Alpes-Côte d'Azur,4.0,75821.0,52857.0,52548,51031.0,50454.0,50968.0,50415.0,52729.0
2023-12-29 09:00:00,13230,Port-Saint-Louis-du-Rhône,,,13.3,,43.4002906312612,4.79639276280504,France,Bouches-du-Rhône,Provence-Alpes-Côte d'Azur,1.0,8341.0,8519.0,8449,8423.0,8424.0,8370.0,8446.0,8424.0
2017-12-29 11:00:00,13270,Fos-sur-Mer,16.4,35.75,20.5,10.2,43.4588738424815,4.93416737793045,France,Bouches-du-Rhône,Provence-Alpes-Côte d'Azur,5.0,8868.0,15608.0,15494,15602.0,15687.0,15512.0,15469.0,15687.0
2024-09-16 08:00:00,13270,Fos-sur-Mer,16.4,35.75,20.5,5.1,43.4589270002286,4.93457199979567,France,Bouches-du-Rhône,Provence-Alpes-Côte d'Azur,5.0,8868.0,15608.0,15494,15602.0,15687.0,15512.0,15469.0,15687.0
2024-01-29 18:00:00,13300,Salon-de-Provence,27.8,63.2,21.7,13.4,43.6389642135529,5.09999637937892,France,Bouches-du-Rhône,Provence-Alpes-Côte d'Azur,98.0,7057.0,45574.0,45528,45400.0,45386.0,45009.0,44731.0,45386.0
2024-09-18 23:00:00,13300,Salon-de-Provence,10.3,57.4,7.5,4.8,43.6390039998181,5.1010969997566,France,Bouches-du-Rhône,Provence-Alpes-Côte d'Azur,98.0,7057.0,45574.0,45528,45400.0,45386.0,45009.0,44731.0,45386.0
2020-01-15 14:00:00,13340,Rognac,,70.2,18.6,9.1,43.510559975903,5.21972384044637,France,Bouches-du-Rhône,Provence-Alpes-Côte d'Azur,74.0,1763.0,12016.0,12223,12080.0,12086.0,12136.0,12175.0,12086.0
2024-09-16 08:00:00,13340,Rognac,,70.2,18.6,9.4,43.510803000236,5.22004599966345,France,Bouches-du-Rhône,Provence-Alpes-Côte d'Azur,74.0,1763.0,12016.0,12223,12080.0,12086.0,12136.0,12175.0,12086.0
2024-01-29 18:00:00,13400,Aubagne,24.3,68.1,,,43.2947895081236,5.57173766768144,France,Bouches-du-Rhône,Provence-Alpes-Côte d'Azur,194.0,5484.0,45290.0,46209,47208.0,47535.0,47190.0,47342.0,47535.0
2024-03-11 10:00:00,13400,Aubagne,5.5,63.9,,,43.2931370001245,5.57418400028735,France,Bouches-du-Rhône,Provence-Alpes-Côte d'Azur,194.0,5484.0,45290.0,46209,47208.0,47535.0,47190.0,47342.0,47535.0
2020-04-21 08:00:00,13460,Saintes-Maries-de-la-Mer,,29.8,,,43.457222,4.426667,France,Bouches-du-Rhône,Provence-Alpes-Côte d'Azur,1.0,37242.0,2504.0,2330,2157.0,2144.0,2123.0,2120.0,2144.0
2020-03-06 10:00:00,13500,Martigues,21.1,,14.75,,43.4051999994639,5.0515,France,Bouches-du-Rhône,Provence-Alpes-Côte d'Azur,48.0,7448.0,48783.0,48188,48420.0,48574.0,48506.0,48568.0,48574.0
2017-07-18 22:00:00,13700,Marignane,21.5,,19.5,1.7,43.4197376712764,5.21277986330012,France,Bouches-du-Rhône,Provence-Alpes-Côte d'Azur,14.0,2355.0,33658.0,32920,32793.0,32384.0,32515.0,33003.0,32384.0
2024-09-17 23:00:00,13700,Marignane,11.2,,3.4,1.7,43.4165300001598,5.2222810000055,France,Bouches-du-Rhône,Provence-Alpes-Côte d'Azur,14.0,2355.0,33658.0,32920,32793.0,32384.0,32515.0,33003.0,32384.0
2024-01-29 18:00:00,13800,Istres,,66.5,,,43.5094524142014,4.98277521795416,France,Bouches-du-Rhône,Provence-Alpes-Côte d'Azur,34.0,11442.0,42925.0,43133,43411.0,43626.0,44438.0,44577.0,43626.0
2024-09-18 23:00:00,13800,Istres,,65.6,,,43.5061499999714,4.98289799968719,France,Bouches-du-Rhône,Provence-Alpes-Côte d'Azur,34.0,11442.0,42925.0,43133,43411.0,43626.0,44438.0,44577.0,43626.0
2024-01-29 17:00:00,13821,La Penne-sur-Huveaune,,89.5,,,43.2831503020971,5.51208953281591,France,Bouches-du-Rhône,Provence-Alpes-Côte d'Azur,144.0,364.0,6433.0,6436,6446.0,6519.0,6521.0,6569.0,6519.0
2024-09-17 23:00:00,13821,La Penne-sur-Huveaune,,46.4,,,43.2833399997746,5.51138399958502,France,Bouches-du-Rhône,Provence-Alpes-Côte d'Azur,144.0,364.0,6433.0,6436,6446.0,6519.0,6521.0,6569.0,6519.0
2024-01-29 18:00:00,13960,Sausset-les-Pins,,91.2,,,43.3313927085815,5.11777403885164,France,Bouches-du-Rhône,Provence-Alpes-Côte d'Azur,70.0,1229.0,7608.0,7568,7640.0,7581.0,7570.0,7563.0,7581.0
2024-09-18 23:00:00,13960,Sausset-les-Pins,,75.9,,,43.3312450001573,5.11769600040628,France,Bouches-du-Rhône,Provence-Alpes-Côte d'Azur,70.0,1229.0,7608.0,7568,7640.0,7581.0,7570.0,7563.0,7581.0
2023-01-11 08:00:00,14000,Caen,22.5,60.0,22.2,27.4,49.1752491940393,-0.35361103181024,France,Calvados,Normandie,34.0,2573.0,105403.0,105354,105512.0,106230.0,107250.0,108200.0,106230.0
2024-09-18 23:00:00,14000,Caen,17.3,60.0,43.9,27.4,49.1922200000328,-0.391111000326555,France,Calvados,Normandie,34.0,2573.0,105403.0,105354,105512.0,106230.0,107250.0,108200.0,106230.0
2024-06-12 11:00:00,14100,Lisieux,4.9,12.8,7.2,3.9,49.1472239999556,0.227221999667361,France,Calvados,Normandie,91.0,1298.0,20301.0,20318,20171.0,20038.0,19755.0,19807.0,1338.0
2024-09-16 08:00:00,14120,Mondeville,31.1,,12.4,,49.1798319998666,-0.329750000098078,France,Calvados,Normandie,17.0,908.0,9811.0,9868,9893.0,9973.0,10054.0,10075.0,9973.0
2024-09-18 23:00:00,14123,Ifs,22.3,57.1,5.8,,49.1516700001407,-0.352777999792764,France,Calvados,Normandie,40.0,908.0,11768.0,11766,11567.0,11696.0,11902.0,11981.0,4957.0
2024-09-18 23:00:00,14150,Ouistreham,,63.5,,,49.2894440002822,-0.257778000020585,France,Calvados,Normandie,7.0,1127.0,9117.0,9081,9250.0,9344.0,9438.0,9331.0,9344.0
2022-12-12 10:00:00,14370,Moult-Chicheboville,8.5,,15.7,1.2,49.117192768241,-0.169665706026938,France,Calvados,Normandie,36.0,1018.0,2966.0,3095,3202.0,3273.0,3344.0,3378.0,1723.0
2024-09-10 20:00:00,14600,Honfleur,,53.3,10.0,,49.4151080002733,0.24369999994322,France,Calvados,Normandie,47.0,1369.0,7728.0,7425,7138.0,6733.0,6742.0,6761.0,1212.0
2024-09-16 14:00:00,14800,Touques,,55.9,,,49.3479999999776,0.109252999751728,France,Calvados,Normandie,61.0,815.0,3719.0,3679,3676.0,3731.0,3744.0,3802.0,325.0
2024-09-16 14:00:00,15000,Aurillac,4.7,58.8,5.0,2.6,44.9200800000815,2.44108199977878,France,Cantal,Auvergne-Rhône-Alpes,668.0,2916.0,25954.0,25499,25531.0,25593.0,25703.0,25815.0,25593.0
2024-09-16 14:00:00,15500,Rageade,,68.2,8.4,6.3,45.1047200002589,3.27736100030782,France,Cantal,Auvergne-Rhône-Alpes,1050.0,1257.0,97.0,100,102.0,103.0,103.0,102.0,147.0
2024-09-16 14:00:00,16000,Angoulême,12.9,82.1,13.6,7.4,45.6474269998404,0.16716199982047,France,Charente,Nouvelle-Aquitaine,61.0,2169.0,41935.0,41740,41711.0,41603.0,41407.0,41086.0,41603.0
2020-01-13 11:00:00,16400,La Couronne,13.0,45.1,13.6,,45.6088219994633,0.099722,France,Charente,Nouvelle-Aquitaine,73.0,2877.0,7694.0,7732,7759.0,7764.0,7742.0,7753.0,7764.0
2024-03-04 07:00:00,17000,La Rochelle,21.5,36.3,11.6,3.4,46.162556,-1.153603,France,Charente-Maritime,Nouvelle-Aquitaine,9.0,3168.0,75736.0,75735,76114.0,77205.0,77210.0,78535.0,77205.0
2024-09-16 08:00:00,17000,La Rochelle,8.9,56.3,11.7,2.4,46.1626469998923,-1.15368399985315,France,Charente-Maritime,Nouvelle-Aquitaine,9.0,3168.0,75736.0,75735,76114.0,77205.0,77210.0,78535.0,77205.0
2018-04-25 02:00:00,18000,Bourges,7.23,71.08,25.7,7.4,47.0826499994647,2.404492,France,Cher,Centre-Val de Loire,145.0,6853.0,65555.0,64551,64668.0,64541.0,64362.0,63702.0,64541.0
2024-09-16 08:00:00,18000,Bourges,38.4,17.75991021324355,10.1,7.4,47.07504299984,2.40718299994408,France,Cher,Centre-Val de Loire,145.0,6853.0,65555.0,64551,64668.0,64541.0,64362.0,63702.0,64541.0
2024-09-18 23:00:00,18000,Bourges,15.6,17.7,12.7,7.4,47.0827800000004,2.4053329995665,France,Cher,Centre-Val de Loire,145.0,6853.0,65555.0,64551,64668.0,64541.0,64362.0,63702.0,64541.0
2018-04-25 02:00:00,18210,Verneuil,2.4,38.93,,7.95,46.8147189994643,2.610806,France,Cher,Centre-Val de Loire,172.0,1140.0,34.0,34,35.0,35.0,35.0,35.0,273.0
2024-01-29 18:00:00,18210,Verneuil,2.4,52.1,,3.6,46.8148188300394,2.61008200746779,France,Cher,Centre-Val de Loire,172.0,1140.0,34.0,34,35.0,35.0,35.0,35.0,273.0
2024-09-18 23:00:00,18210,Verneuil,2.2,37.5,,3.8,46.8146930000512,2.61006899986248,France,Cher,Centre-Val de Loire,172.0,1140.0,34.0,34,35.0,35.0,35.0,35.0,273.0
2019-06-11 13:00:00,19000,Tulle,24.0,5.0,3.0,2.0,45.2636139994632,1.763889,France,Corrèze,Nouvelle-Aquitaine,315.0,2469.0,14453.0,14836,14705.0,14812.0,14314.0,13992.0,122.0
2024-03-04 08:00:00,19000,Tulle,9.5,5.0,3.0,2.0,45.26,1.76,France,Corrèze,Nouvelle-Aquitaine,315.0,2469.0,14453.0,14836,14705.0,14812.0,14314.0,13992.0,122.0
2024-09-16 08:00:00,19000,Tulle,18.3,21.7,8.0,2.0,45.2626650002923,1.76275199968717,France,Corrèze,Nouvelle-Aquitaine,315.0,2469.0,14453.0,14836,14705.0,14812.0,14314.0,13992.0,122.0
2024-09-18 23:00:00,19100,Brive-la-Gaillarde,14.2,35.1,8.6,,45.1587370002402,1.53725900002356,France,Corrèze,Nouvelle-Aquitaine,167.0,4842.0,47004.0,46916,46630.0,46330.0,45910.0,46599.0,46330.0
2024-02-01 00:00:00,20000,Ajaccio,7.5,36.0,11.6,,41.949223,8.757583,France,Corse-du-Sud,Corse,136.0,8314.0,69075.0,70659,70817.0,71361.0,72647.0,73822.0,71361.0
2024-09-18 23:00:00,20000,Ajaccio,4.2,38.3,11.6,,41.9476849997293,8.79615899985025,France,Corse-du-Sud,Corse,136.0,8314.0,69075.0,70659,70817.0,71361.0,72647.0,73822.0,71361.0
2018-02-03 19:00:00,20167,Sarrola-Carcopino,8.0,58.7,14.2,,41.964411839407,8.8202792970315,France,Corse-du-Sud,Corse,241.0,2700.0,2846.0,3267,3268.0,3289.0,3309.0,3278.0,3229.0
2024-02-01 00:00:00,20167,Sarrola-Carcopino,3.9,18.4,21.2,,41.958027,8.820278,France,Corse-du-Sud,Corse,241.0,2700.0,2846.0,3267,3268.0,3289.0,3309.0,3278.0,3229.0
2024-09-18 23:00:00,20200,Bastia,12.9,,15.0,,42.7028300002127,9.44638899986363,France,Haute-Corse,Corse,260.0,1977.0,44829.0,45715,48044.0,48503.0,48296.0,48768.0,2913.0
2024-09-16 08:00:00,20231,Venaco,0.8,70.1,5.1,1.3,42.2360269996814,9.19002799967727,France,Haute-Corse,Corse,1222.0,5362.0,712.0,711,712.0,713.0,690.0,666.0,713.0
2024-03-11 09:00:00,20290,Lucciana,4.2,19.0,3.5,,42.5358300001085,9.47597199989833,France,Haute-Corse,Corse,66.0,2932.0,5671.0,5780,5893.0,6007.0,6036.0,6091.0,8832.0
2018-07-11 15:00:00,21000,Dijon,1.9,50.68,27.5,5.6,47.304163999465,5.02,France,Côte-d'Or,Bourgogne-Franche-Comté,265.0,4159.0,155090.0,156920,156854.0,158002.0,159106.0,159346.0,158002.0
2023-01-01 01:00:00,21000,Dijon,35.6,24.02163163841808,27.5,5.6,47.315472,5.037429,France,Côte-d'Or,Bourgogne-Franche-Comté,265.0,4159.0,155090.0,156920,156854.0,158002.0,159106.0,159346.0,158002.0
2024-01-29 17:00:00,21000,Dijon,54.8,17.600679609655884,27.5,19.398539527992376,47.340253323593,5.05833251650146,France,Côte-d'Or,Bourgogne-Franche-Comté,265.0,4159.0,155090.0,156920,156854.0,158002.0,159106.0,159346.0,158002.0
2024-01-29 18:00:00,21000,Dijon,46.4,17.6,19.0,19.4,47.3080413032157,5.06611192686193,France,Côte-d'Or,Bourgogne-Franche-Comté,265.0,4159.0,155090.0,156920,156854.0,158002.0,159106.0,159346.0,158002.0
2024-09-16 08:00:00,21000,Dijon,19.0,52.60153653743077,12.6,8.0,47.3513680002532,5.07070600015813,France,Côte-d'Or,Bourgogne-Franche-Comté,265.0,4159.0,155090.0,156920,156854.0,158002.0,159106.0,159346.0,158002.0
2024-09-18 23:00:00,21000,Dijon,24.3,53.0,17.9,5.8,47.3073699998269,5.06588099964679,France,Côte-d'Or,Bourgogne-Franche-Comté,265.0,4159.0,155090.0,156920,156854.0,158002.0,159106.0,159346.0,158002.0
2018-07-06 14:00:00,21121,Daix,3.88,40.6,19.08,,47.3455490718848,5.00222374385535,France,Côte-d'Or,Bourgogne-Franche-Comté,394.0,1180.0,1439.0,1471,1504.0,1537.0,1541.0,1529.0,1464.0
2024-09-18 23:00:00,21121,Daix,3.88,83.4,19.08,,47.3455999997954,5.00237700003608,France,Côte-d'Or,Bourgogne-Franche-Comté,394.0,1180.0,1439.0,1471,1504.0,1537.0,1541.0,1529.0,1464.0
2021-01-01 01:00:00,21700,Nuits-Saint-Georges,7.6,,11.2,,47.1372157133461,4.95057959817132,France,Côte-d'Or,Bourgogne-Franche-Comté,320.0,2035.0,5543.0,5481,5421.0,5362.0,5332.0,5309.0,462.0
2018-04-25 16:00:00,22000,Saint-Brieuc,9.3,83.95,15.38,10.7,48.5166689994673,-2.75,France,Côtes-d'Armor,Bretagne,82.0,1941.0,44999.0,44372,44170.0,43605.0,44166.0,44224.0,43605.0
2024-09-16 08:00:00,22000,Saint-Brieuc,6.2,79.8,8.9,10.7,48.5135100002817,-2.74952999981289,France,Côtes-d'Armor,Bretagne,82.0,1941.0,44999.0,44372,44170.0,43605.0,44166.0,44224.0,43605.0
2024-03-04 08:00:00,23500,La Nouaille,,72.6,,,45.809998,2.06,France,Creuse,Nouvelle-Aquitaine,709.0,4798.0,247.0,249,244.0,240.0,235.0,231.0,155.0
2024-09-18 23:00:00,23500,La Nouaille,,49.4,,,45.8050899997107,2.06233299994463,France,Creuse,Nouvelle-Aquitaine,709.0,4798.0,247.0,249,244.0,240.0,235.0,231.0,155.0
2016-12-05 02:00:00,25000,Besançon,27.85,20.03,39.2,2.6,47.2348977365481,6.02947422070455,France,Doubs,Bourgogne-Franche-Comté,320.0,6510.0,116466.0,115934,116775.0,117912.0,118258.0,119198.0,117912.0
2018-08-11 04:00:00,25000,Besançon,27.85,20.03,32.96176164740689,2.6,47.2973199058325,6.05191413650185,France,Doubs,Bourgogne-Franche-Comté,320.0,6510.0,116466.0,115934,116775.0,117912.0,118258.0,119198.0,117912.0
2024-09-18 23:00:00,25000,Besançon,27.85,45.7,10.3,2.6,47.2359730002171,6.02361100038842,France,Doubs,Bourgogne-Franche-Comté,320.0,6510.0,116466.0,115934,116775.0,117912.0,118258.0,119198.0,117912.0
2024-09-18 23:00:00,25110,Baume-les-Dames,15.3,,8.9,4.0,47.3512879997476,6.35972199975944,France,Doubs,Bourgogne-Franche-Comté,373.0,2497.0,5149.0,5063,4977.0,4989.0,4984.0,4991.0,425.0
2024-09-18 23:00:00,25190,Montandon,,33.8,14.9,,47.2946400002569,6.82586099958978,France,Doubs,Bourgogne-Franche-Comté,734.0,1274.0,408.0,405,395.0,385.0,375.0,372.0,116.0
2024-09-18 23:00:00,25190,Montandon,,33.8,14.9,,47.2946400002569,6.82586099958978,France,Doubs,Bourgogne-Franche-Comté,675.0,870.0,148.0,141,133.0,126.0,122.0,120.0,116.0
2024-09-18 23:00:00,25200,Montbéliard,31.1,12.6,15.8,10.1,47.5103069998648,6.79399999955533,France,Doubs,Bourgogne-Franche-Comté,353.0,1492.0,25304.0,25395,25809.0,25806.0,25726.0,25573.0,5441.0
2024-09-18 23:00:00,25600,Dambenois,,65.9,,,47.5381930001173,6.86836099996066,France,Doubs,Bourgogne-Franche-Comté,359.0,326.0,740.0,754,752.0,750.0,748.0,738.0,478.0
2024-09-18 23:00:00,25660,Montfaucon,,80.2,,,47.2346099999514,6.07647200036306,France,Doubs,Bourgogne-Franche-Comté,468.0,723.0,1527.0,1550,1574.0,1570.0,1576.0,1582.0,1251.0
2024-09-18 23:00:00,26000,Valence,17.7,57.3,15.5,7.2,44.9335139996862,4.89348099976142,France,Drôme,Auvergne-Rhône-Alpes,147.0,3679.0,62477.0,63714,64726.0,64749.0,64431.0,64483.0,64749.0
2024-09-18 23:00:00,26100,Romans-sur-Isère,28.7,56.2,13.9,8.1,45.042500000017,5.04429999992356,France,Drôme,Auvergne-Rhône-Alpes,180.0,3341.0,33310.0,33160,33160.0,33098.0,32818.0,32911.0,33098.0
2024-09-18 23:00:00,26340,Saint-Nazaire-le-Désert,1.1,24.2,5.3,3.9,44.5694430002562,5.27897200043165,France,Drôme,Auvergne-Rhône-Alpes,806.0,4661.0,190.0,193,199.0,209.0,208.0,206.0,77.0
2024-09-18 23:00:00,26340,Saint-Nazaire-le-Désert,1.1,24.2,5.3,3.9,44.5694430002562,5.27897200043165,France,Drôme,Auvergne-Rhône-Alpes,693.0,1121.0,26.0,27,29.0,31.0,32.0,33.0,77.0
2024-09-18 23:00:00,26340,Saint-Nazaire-le-Désert,1.1,24.2,5.3,3.9,44.5694430002562,5.27897200043165,France,Drôme,Auvergne-Rhône-Alpes,528.0,699.0,55.0,55,55.0,54.0,53.0,52.0,77.0
2017-12-08 15:00:00,26500,Bourg-lès-Valence,42.75,,13.1,7.4,44.9489219994632,4.889881,France,Drôme,Auvergne-Rhône-Alpes,139.0,2020.0,20078.0,19975,19889.0,19792.0,19814.0,19581.0,19792.0
2024-09-18 23:00:00,26500,Bourg-lès-Valence,27.4,,7.6,7.4,44.9491999999497,4.89013300025707,France,Drôme,Auvergne-Rhône-Alpes,139.0,2020.0,20078.0,19975,19889.0,19792.0,19814.0,19581.0,19792.0
2024-03-11 10:00:00,26800,Portes-lès-Valence,22.5,62.0,41.8,,44.8702430002505,4.87628899963312,France,Drôme,Auvergne-Rhône-Alpes,132.0,1425.0,10445.0,10610,10666.0,10680.0,10526.0,10422.0,104.0
2024-09-18 23:00:00,27100,Val-de-Reuil,,84.8,49.1,30.0,49.3048700002814,1.2143670002142,France,Eure,Normandie,23.0,2593.0,13282.0,13063,13114.0,12910.0,12702.0,12647.0,3681.0
2018-04-25 02:00:00,28000,Chartres,14.7,75.63,51.1,12.15,48.4448359994672,1.509281,France,Eure-et-Loir,Centre-Val de Loire,146.0,1690.0,38752.0,38578,38426.0,38534.0,38443.0,38447.0,38534.0
2024-09-18 23:00:00,28000,Chartres,14.7,70.9,51.1,12.15,48.4491579997343,1.49246899995736,France,Eure-et-Loir,Centre-Val de Loire,146.0,1690.0,38752.0,38578,38426.0,38534.0,38443.0,38447.0,38534.0
2024-01-29 18:00:00,28100,Dreux,9.3,37.5,11.6,8.1,48.7314125600919,1.36388514642015,France,Eure-et-Loir,Centre-Val de Loire,119.0,2427.0,30977.0,31044,30664.0,30646.0,30744.0,30879.0,30646.0
2024-09-18 23:00:00,28100,Dreux,7.8,84.6,56.2,29.6,48.7296940002108,1.35847200002767,France,Eure-et-Loir,Centre-Val de Loire,119.0,2427.0,30977.0,31044,30664.0,30646.0,30744.0,30879.0,30646.0
2018-04-25 02:00:00,28380,Saint-Rémy-sur-Avre,13.58,,17.5,,48.7608889994679,1.233781,France,Eure-et-Loir,Centre-Val de Loire,131.0,1304.0,4007.0,4010,4032.0,4041.0,4048.0,4057.0,4041.0
2024-03-11 10:00:00,28380,Saint-Rémy-sur-Avre,13.2,,10.1,,48.7608869997683,1.23363899997554,France,Eure-et-Loir,Centre-Val de Loire,131.0,1304.0,4007.0,4010,4032.0,4041.0,4048.0,4057.0,4041.0
2018-04-25 02:00:00,28700,Oysonville,8.1,64.35,,,48.3904559994671,1.955953,France,Eure-et-Loir,Centre-Val de Loire,151.0,962.0,520.0,525,524.0,524.0,523.0,520.0,72.0
2024-09-18 23:00:00,28700,Oysonville,8.1,72.6,,,48.3911400000797,1.95561099991264,France,Eure-et-Loir,Centre-Val de Loire,151.0,962.0,520.0,525,524.0,524.0,523.0,520.0,72.0
2018-04-25 16:00:00,29000,Quimper,5.5,87.2,23.73,21.7,47.9958299994662,-4.09944,France,Finistère,Bretagne,51.0,8431.0,63405.0,62985,63166.0,63283.0,63473.0,63642.0,63283.0
2023-01-01 00:00:00,29000,Quimper,5.5,87.2,24.6,21.7,47.9961238147632,-4.09972231051183,France,Finistère,Bretagne,51.0,8431.0,63405.0,62985,63166.0,63283.0,63473.0,63642.0,63283.0
2024-09-18 23:00:00,29000,Quimper,5.5,87.2,37.0,21.7,47.9866069997269,-4.09765799995523,France,Finistère,Bretagne,51.0,8431.0,63405.0,62985,63166.0,63283.0,63473.0,63642.0,63283.0
2019-11-27 07:00:00,29200,Brest,17.0,64.3,90.8,12.2,48.4090559994671,-4.475106,France,Finistère,Bretagne,57.0,4912.0,139342.0,140064,139602.0,139926.0,139456.0,139619.0,139926.0
2024-01-29 16:00:00,29200,Brest,17.8,74.49944242490503,90.8,12.2,48.3996394541087,-4.46723207639797,France,Finistère,Bretagne,57.0,4912.0,139342.0,140064,139602.0,139926.0,139456.0,139619.0,139926.0
2024-01-29 18:00:00,29200,Brest,10.4,74.5,24.9,13.2,48.3863972226844,-4.48681534959177,France,Finistère,Bretagne,57.0,4912.0,139342.0,140064,139602.0,139926.0,139456.0,139619.0,139926.0
2024-03-11 09:00:00,29200,Brest,24.8,88.1,41.6,23.8,48.3861799998886,-4.48660000006197,France,Finistère,Bretagne,57.0,4912.0,139342.0,140064,139602.0,139926.0,139456.0,139619.0,139926.0
2024-09-16 08:00:00,29200,Brest,12.2,88.1,10.8,6.5,48.3974600000795,-4.48870999983224,France,Finistère,Bretagne,57.0,4912.0,139342.0,140064,139602.0,139926.0,139456.0,139619.0,139926.0
2020-12-30 14:00:00,30126,Saint-Laurent-des-Arbres,,,18.1,5.5,44.0535311975936,4.69736248588371,France,Gard,Occitanie,112.0,1637.0,2997.0,3072,3032.0,3000.0,2968.0,2981.0,927.0
2020-01-20 08:00:00,30190,La Calmette,4.3,66.9,8.4,,43.925400000101,4.26580999981266,France,Gard,Occitanie,88.0,1121.0,2120.0,2200,2282.0,2363.0,2432.0,2516.0,321.0
2017-11-04 17:00:00,30340,Saint-Privat-des-Vieux,,74.88,,,44.1427579994634,4.1388,France,Gard,Occitanie,274.0,1415.0,3330.0,3348,3367.0,3401.0,3417.0,3436.0,1195.0
2017-11-04 17:00:00,30340,Saint-Privat-des-Vieux,,74.88,,,44.1427579994634,4.1388,France,Gard,Occitanie,176.0,1577.0,5149.0,5182,5218.0,5275.0,5373.0,5482.0,1195.0
2024-03-04 08:00:00,30650,Saze,,59.4,,,43.942886,4.679686,France,Gard,Occitanie,93.0,1260.0,2022.0,2037,2051.0,2119.0,2112.0,2104.0,7629.0
2024-09-16 14:00:00,30650,Saze,,90.0,,,43.9426000001532,4.67957999976296,France,Gard,Occitanie,93.0,1260.0,2022.0,2037,2051.0,2119.0,2112.0,2104.0,7629.0
2024-01-29 17:00:00,31100,Toulouse,62.7,3.3,19.3,7.7,43.5608348885067,1.39500278786205,France,Haute-Garonne,Occitanie,148.0,11809.0,475438.0,479553,486828.0,493465.0,498003.0,504078.0,498003.0
2024-03-04 07:00:00,31100,Toulouse,62.7,3.3,15.4,7.7,43.556946,1.406389,France,Haute-Garonne,Occitanie,148.0,11809.0,475438.0,479553,486828.0,493465.0,498003.0,504078.0,498003.0
2024-03-04 08:00:00,31100,Toulouse,62.7,3.3,10.7,7.7,43.575558,1.418611,France,Haute-Garonne,Occitanie,148.0,11809.0,475438.0,479553,486828.0,493465.0,498003.0,504078.0,498003.0
2024-09-16 08:00:00,31100,Toulouse,14.154799745708836,65.20260648442468,10.35,5.407310870947235,43.5563740000902,1.40396400025074,France,Haute-Garonne,Occitanie,148.0,11809.0,475438.0,479553,486828.0,493465.0,498003.0,504078.0,498003.0
2024-09-16 23:00:00,31100,Toulouse,14.0,65.4,11.0,5.4,43.5756949998691,1.41806400006942,France,Haute-Garonne,Occitanie,148.0,11809.0,475438.0,479553,486828.0,493465.0,498003.0,504078.0,498003.0
2024-03-04 08:00:00,31450,Montgiscard,,45.5,,,43.457497,1.571111,France,Haute-Garonne,Occitanie,192.0,1317.0,2323.0,2430,2536.0,2530.0,2561.0,2586.0,2679.0
2024-09-16 23:00:00,31450,Montgiscard,,69.5,,,43.4573060001483,1.57146900020289,France,Haute-Garonne,Occitanie,192.0,1317.0,2323.0,2430,2536.0,2530.0,2561.0,2586.0,2679.0
2024-03-04 06:00:00,31660,Bessières,,,4.1,,43.80389,1.595833,France,Haute-Garonne,Occitanie,111.0,1675.0,4050.0,4073,4100.0,4127.0,4194.0,4197.0,4127.0
2024-09-16 08:00:00,31660,Bessières,,,7.6,,43.8031400000336,1.59547500023897,France,Haute-Garonne,Occitanie,111.0,1675.0,4050.0,4073,4100.0,4127.0,4194.0,4197.0,4127.0
2024-03-04 07:00:00,31700,Blagnac,12.2,,10.8,,43.634003,1.376,France,Haute-Garonne,Occitanie,142.0,1720.0,24288.0,24517,25152.0,25525.0,26101.0,26466.0,6973.0
2024-03-11 08:00:00,31700,Blagnac,10.2,,8.9,,43.6334759997531,1.37571699985941,France,Haute-Garonne,Occitanie,142.0,1720.0,24288.0,24517,25152.0,25525.0,26101.0,26466.0,6973.0
2017-04-12 09:00:00,31770,Colomiers,,4.6,,,43.6197177810104,1.34749987563781,France,Haute-Garonne,Occitanie,172.0,2104.0,38716.0,38951,39097.0,39968.0,39866.0,40159.0,39968.0
2024-03-01 10:00:00,32230,Peyrusse-Vieille,0.3,73.0,5.4,2.9,43.63028,0.179722,France,Gers,Occitanie,195.0,1114.0,73.0,70,68.0,67.0,65.0,65.0,74.0
2024-03-11 10:00:00,32230,Peyrusse-Vieille,0.5,82.5,7.5,4.1,43.6286999997377,0.179069000028201,France,Gers,Occitanie,195.0,1114.0,73.0,70,68.0,67.0,65.0,65.0,74.0
2024-03-04 08:00:00,32380,Gaudonville,,61.2,,,43.88361,0.845,France,Gers,Occitanie,189.0,738.0,111.0,111,112.0,112.0,110.0,108.0,112.0
2024-09-16 23:00:00,32380,Gaudonville,,69.4,,,43.8839340002493,0.845616999585557,France,Gers,Occitanie,189.0,738.0,111.0,111,112.0,112.0,110.0,108.0,112.0
2024-09-16 08:00:00,33000,Bordeaux,65.4,,16.3,9.4,44.8338240000015,-0.598524999757059,France,Gironde,Nouvelle-Aquitaine,9.0,4970.0,252040.0,254436,257068.0,260958.0,259809.0,261804.0,268138.0
2024-09-16 08:00:00,33270,Floirac,74.0,,11.8,,44.8434099998198,-0.506979999619349,France,Gironde,Nouvelle-Aquitaine,38.0,847.0,17182.0,17463,17882.0,18181.0,18013.0,17749.0,3706.0
2024-03-01 20:00:00,33400,Talence,6.3,79.1,7.9,5.2,44.800556,-0.588056,France,Gironde,Nouvelle-Aquitaine,21.0,829.0,42712.0,42606,42701.0,43820.0,44359.0,45225.0,43820.0
2024-09-18 23:00:00,33400,Talence,54.2,9.0,14.6,8.7,44.8004599997874,-0.589397999689418,France,Gironde,Nouvelle-Aquitaine,21.0,829.0,42712.0,42606,42701.0,43820.0,44359.0,45225.0,43820.0
2019-01-16 08:00:00,33450,Saint-Sulpice-et-Cameyrac,,2.6,,,44.9130559994632,-0.384444,France,Gironde,Nouvelle-Aquitaine,16.0,2570.0,9375.0,9509,9770.0,9909.0,9953.0,10005.0,6167.0
2019-01-16 08:00:00,33450,Saint-Sulpice-et-Cameyrac,,2.6,,,44.9130559994632,-0.384444,France,Gironde,Nouvelle-Aquitaine,25.0,1524.0,4584.0,4614,4643.0,4762.0,4848.0,4879.0,6167.0
2024-03-04 08:00:00,33530,Bassens,37.5,25.1,7.5,5.1,44.900276,-0.514722,France,Gironde,Nouvelle-Aquitaine,13.0,1030.0,7151.0,7278,7404.0,7472.0,7425.0,7842.0,7472.0
2024-09-18 23:00:00,33530,Bassens,28.9,41.1,22.7,14.7,44.9002950000358,-0.515834999700427,France,Gironde,Nouvelle-Aquitaine,13.0,1030.0,7151.0,7278,7404.0,7472.0,7425.0,7842.0,7472.0
2024-03-04 08:00:00,33680,Le Temple,2.6,41.5,,,44.865555,-0.939444,France,Gironde,Nouvelle-Aquitaine,39.0,7231.0,605.0,615,624.0,633.0,642.0,644.0,5070.0
2024-09-18 23:00:00,33680,Le Temple,1.6,16.2,,,44.8658100000747,-0.939999999589675,France,Gironde,Nouvelle-Aquitaine,39.0,7231.0,605.0,615,624.0,633.0,642.0,644.0,5070.0
2024-03-04 08:00:00,34000,Montpellier,224.4,86.1,11.8,3.4,43.611668,3.864722,France,Hérault,Occitanie,45.0,5711.0,281613.0,285121,290053.0,295542.0,299096.0,302454.0,315336.0
2024-09-16 14:00:00,34000,Montpellier,3.9,86.1,10.1,3.1,43.5915000003243,3.88680999990834,France,Hérault,Occitanie,45.0,5711.0,281613.0,285121,290053.0,295542.0,299096.0,302454.0,315336.0
2024-03-04 08:00:00,34300,Agde,4.6,61.5,,,43.287758,3.504831,France,Hérault,Occitanie,8.0,5084.0,27681.0,28609,29090.0,29600.0,29201.0,29103.0,29600.0
2024-09-16 14:00:00,34300,Agde,2.3,79.3,,,43.2874999999812,3.50483999989313,France,Hérault,Occitanie,8.0,5084.0,27681.0,28609,29090.0,29600.0,29201.0,29103.0,29600.0
2018-10-06 15:00:00,34330,Fraisse-sur-Agout,,102.3,,,43.5947809994637,2.802367,France,Hérault,Occitanie,912.0,5857.0,338.0,340,341.0,343.0,338.0,339.0,49.0
2024-03-11 08:00:00,34400,Lunel-Viel,30.3,,6.4,2.3,43.6757999997234,4.08838000027485,France,Hérault,Occitanie,12.0,2426.0,26002.0,26239,26273.0,26385.0,26356.0,26185.0,26385.0
2024-03-11 08:00:00,34400,Lunel-Viel,30.3,,6.4,2.3,43.6757999997234,4.08838000027485,France,Hérault,Occitanie,21.0,1212.0,3876.0,3932,4184.0,4367.0,4484.0,4488.0,26385.0
2024-09-16 14:00:00,34490,Corneilhan,,84.7,,,43.4068000001496,3.18878000043321,France,Hérault,Occitanie,84.0,1433.0,1715.0,1717,1721.0,1724.0,1694.0,1663.0,619.0
2024-03-04 08:00:00,34970,Lattes,,49.3,,,43.570606,3.911556,France,Hérault,Occitanie,7.0,3230.0,16687.0,16564,16710.0,17453.0,17674.0,17544.0,17453.0
2024-09-16 14:00:00,34970,Lattes,,86.4,,,43.5704999997927,3.9118000001336,France,Hérault,Occitanie,7.0,3230.0,16687.0,16564,16710.0,17453.0,17674.0,17544.0,17453.0
2024-03-04 08:00:00,34980,Saint-Gély-du-Fesc,,57.1,13.7,,43.695366,3.800817,France,Hérault,Occitanie,131.0,1651.0,9814.0,9795,9996.0,10197.0,10397.0,10537.0,1742.0
2024-03-04 08:00:00,34980,Saint-Gély-du-Fesc,,57.1,13.7,,43.695366,3.800817,France,Hérault,Occitanie,90.0,1281.0,4830.0,4877,4923.0,5016.0,5048.0,5058.0,1742.0
2024-09-16 14:00:00,34980,Saint-Gély-du-Fesc,,77.7,13.7,,43.6926000001537,3.80020999993257,France,Hérault,Occitanie,131.0,1651.0,9814.0,9795,9996.0,10197.0,10397.0,10537.0,1742.0
2024-09-16 14:00:00,34980,Saint-Gély-du-Fesc,,77.7,13.7,,43.6926000001537,3.80020999993257,France,Hérault,Occitanie,90.0,1281.0,4830.0,4877,4923.0,5016.0,5048.0,5058.0,1742.0
2018-04-25 18:00:00,35000,Rennes,39.35,33.4,21.75,5.58,48.1087559994665,-1.665861,France,Ille-et-Vilaine,Bretagne,38.0,5035.0,216268.0,216815,217728.0,220488.0,222485.0,225081.0,221272.0
2022-12-01 13:00:00,35000,Rennes,16.5,33.4,36.234574193203485,17.958380526400198,48.1108129462492,-1.68282300489394,France,Ille-et-Vilaine,Bretagne,38.0,5035.0,216268.0,216815,217728.0,220488.0,222485.0,225081.0,221272.0
2024-01-29 18:00:00,35000,Rennes,26.4,59.79136138927621,39.89027834702496,21.08251082559652,48.1075139513805,-1.67916686168757,France,Ille-et-Vilaine,Bretagne,38.0,5035.0,216268.0,216815,217728.0,220488.0,222485.0,225081.0,221272.0
2024-09-18 23:00:00,35000,Rennes,11.6,74.3,41.9,22.8,48.1152100001935,-1.67308799988918,France,Ille-et-Vilaine,Bretagne,38.0,5035.0,216268.0,216815,217728.0,220488.0,222485.0,225081.0,221272.0
2024-09-18 23:00:00,35310,Mordelles,,76.2,,,48.0828820001711,-1.83458300019766,France,Ille-et-Vilaine,Bretagne,34.0,3032.0,7321.0,7363,7356.0,7338.0,7485.0,7658.0,6404.0
2018-04-25 16:00:00,35400,Saint-Malo,3.8,89.45,13.4,5.1,48.6549969994677,-1.994167,France,Ille-et-Vilaine,Bretagne,24.0,3651.0,46005.0,46097,46478.0,46803.0,46995.0,47323.0,46803.0
2018-06-21 08:00:00,35400,Saint-Malo,4.83,50.78,13.4,5.1,48.654741414049,-1.99613740968915,France,Ille-et-Vilaine,Bretagne,24.0,3651.0,46005.0,46097,46478.0,46803.0,46995.0,47323.0,46803.0
2024-09-16 08:00:00,35400,Saint-Malo,6.3,92.7,13.4,5.1,48.6530599999378,-2.00267999980351,France,Ille-et-Vilaine,Bretagne,24.0,3651.0,46005.0,46097,46478.0,46803.0,46995.0,47323.0,46803.0
2021-12-29 22:00:00,36100,Issoudun,2.7,,,2.6,46.9429682344805,2.00326104989222,France,Indre,Centre-Val de Loire,144.0,3711.0,11888.0,11905,11690.0,11477.0,11314.0,10992.0,891.0
2018-04-25 02:00:00,36130,Montierchaume,,59.23,,,46.8646579994644,1.772119,France,Indre,Centre-Val de Loire,158.0,3775.0,1628.0,1643,1667.0,1673.0,1665.0,1651.0,881.0
2024-09-18 23:00:00,36130,Montierchaume,,32.5,,,46.8645299998696,1.77194400005214,France,Indre,Centre-Val de Loire,158.0,3775.0,1628.0,1643,1667.0,1673.0,1665.0,1651.0,881.0
2018-04-25 02:00:00,37100,Tours,5.18,,15.55,,47.4193389994652,0.684139,France,Indre-et-Loire,Centre-Val de Loire,71.0,3335.0,136565.0,135787,136463.0,137087.0,137850.0,137658.0,137607.0
2024-09-18 23:00:00,37100,Tours,18.5,,15.55,,47.4190829997127,0.68294399981745,France,Indre-et-Loire,Centre-Val de Loire,71.0,3335.0,136565.0,135787,136463.0,137087.0,137850.0,137658.0,137607.0
2024-01-29 18:00:00,37390,Chanceaux-sur-Choisille,,39.5,,,47.4694515368151,0.716943631625222,France,Indre-et-Loire,Centre-Val de Loire,95.0,1849.0,3503.0,3515,3513.0,3525.0,3529.0,3519.0,1215.0
2024-09-18 23:00:00,37390,Chanceaux-sur-Choisille,,49.9,,,47.4692499999674,0.717333000096916,France,Indre-et-Loire,Centre-Val de Loire,95.0,1849.0,3503.0,3515,3513.0,3525.0,3529.0,3519.0,1215.0
2024-03-11 10:00:00,38000,Grenoble,14.5,,14.5,,45.1806900002892,5.72062499982689,France,Isère,Auvergne-Rhône-Alpes,219.0,1856.0,158180.0,158454,157650.0,158198.0,158240.0,157477.0,158198.0
2024-09-19 10:00:00,38120,Mont-Saint-Martin,,,1.015,1.97,45.271894982689,5.6790270589692,France,Isère,Auvergne-Rhône-Alpes,1051.0,509.0,80.0,79,77.0,76.0,83.0,88.0,3172.0
2024-03-11 10:00:00,38150,Roussillon,8.9,65.2,0.1,,45.3678200001453,4.80514699975902,France,Isère,Auvergne-Rhône-Alpes,229.0,1179.0,8327.0,8455,8453.0,8457.0,8460.0,8589.0,1149.0
2019-12-09 01:00:00,38150,Salaise-sur-Sanne,29.9,,12.8,10.6,45.3531859994632,4.804822,France,Isère,Auvergne-Rhône-Alpes,174.0,1618.0,4542.0,4513,4485.0,4488.0,4505.0,4505.0,1149.0
2024-03-11 10:00:00,38150,Salaise-sur-Sanne,46.0,,8.3,6.3,45.3440779998565,4.80748099983527,France,Isère,Auvergne-Rhône-Alpes,174.0,1618.0,4542.0,4513,4485.0,4488.0,4505.0,4505.0,1149.0
2016-12-05 02:00:00,38200,Vienne,27.5,0.0,53.75,,45.5259808277432,4.8754085751962,France,Isère,Auvergne-Rhône-Alpes,251.0,2260.0,29454.0,29306,29583.0,29993.0,30059.0,31051.0,2260.0
2024-09-18 23:00:00,38300,Bourgoin-Jallieu,5.8,46.4,5.2,5.6,45.6082199999151,5.27087200021089,France,Isère,Auvergne-Rhône-Alpes,265.0,2466.0,27651.0,28387,28494.0,28834.0,29389.0,29577.0,28834.0
2024-09-15 04:00:00,38320,Eybens,32.1,,9.0,2.7,45.154669999885,5.74523000008768,France,Isère,Auvergne-Rhône-Alpes,247.0,456.0,10391.0,10185,9947.0,9980.0,10112.0,9974.0,671.0
2024-09-18 23:00:00,38370,Les Roches-de-Condrieu,12.6,45.8,,,45.454516999977,4.76652799989327,France,Isère,Auvergne-Rhône-Alpes,160.0,104.0,1977.0,1925,1915.0,1981.0,1970.0,2007.0,1981.0
2024-09-16 23:00:00,38400,Saint-Martin-d'Hères,20.3,82.2,6.5,2.8,45.182800000109,5.75310000015467,France,Isère,Auvergne-Rhône-Alpes,254.0,947.0,38634.0,38487,38398.0,37935.0,38188.0,38454.0,37935.0
2024-03-11 10:00:00,38440,Lieudieu,4.1,46.4,,,45.4608999999704,5.1810810001913,France,Isère,Auvergne-Rhône-Alpes,506.0,598.0,343.0,341,347.0,352.0,351.0,349.0,1824.0
2024-09-16 23:00:00,38450,Vif,1.7,79.9,3.1,,45.0577999998536,5.67670000012418,France,Isère,Auvergne-Rhône-Alpes,485.0,2731.0,8372.0,8532,8580.0,8547.0,8614.0,8584.0,1796.0
2024-09-16 08:00:00,38500,Voiron,6.0,82.2,3.7,,45.3601760000397,5.58941899990794,France,Isère,Auvergne-Rhône-Alpes,454.0,2199.0,20209.0,20108,20248.0,20372.0,20332.0,20891.0,3235.0
2024-01-29 18:00:00,38550,Sablons,4.9,76.4,,,45.3196184389656,4.77286588551395,France,Isère,Auvergne-Rhône-Alpes,141.0,1016.0,2300.0,2309,2297.0,2285.0,2274.0,2290.0,1480.0
2024-09-18 23:00:00,38550,Sablons,9.5,50.7,,,45.3218460002411,4.77070200030137,France,Isère,Auvergne-Rhône-Alpes,141.0,1016.0,2300.0,2309,2297.0,2285.0,2274.0,2290.0,1480.0
2024-03-01 10:00:00,38560,Champ-sur-Drac,9.0,76.8,,,45.0795400001299,5.72865300007762,France,Isère,Auvergne-Rhône-Alpes,420.0,885.0,3020.0,3007,3090.0,3172.0,3255.0,3339.0,3172.0
2018-02-13 08:00:00,38600,Fontaine,59.95,0.75,13.08,,45.1904389994632,5.686964,France,Isère,Auvergne-Rhône-Alpes,307.0,669.0,22411.0,22523,22906.0,23211.0,23049.0,22891.0,23211.0
2024-09-16 23:00:00,38920,Crolles,2.0,107.2,5.5,2.4,45.2796999998768,5.882199999603,France,Isère,Auvergne-Rhône-Alpes,298.0,1451.0,8296.0,8247,8260.0,8293.0,8193.0,8317.0,8293.0
2024-03-04 07:00:00,39000,Lons-le-Saunier,,53.2,,4.1,46.671307,5.556806,France,Jura,Bourgogne-Franche-Comté,287.0,762.0,17364.0,17291,17320.0,17189.0,17092.0,17043.0,17189.0
2024-09-16 08:00:00,39000,Lons-le-Saunier,,41.0,,5.1,46.6713200001368,5.55661999971506,France,Jura,Bourgogne-Franche-Comté,287.0,762.0,17364.0,17291,17320.0,17189.0,17092.0,17043.0,17189.0
2024-09-18 23:00:00,39100,Dole,9.4,61.7,12.7,7.6,47.0967200000337,5.49638900016394,France,Jura,Bourgogne-Franche-Comté,227.0,3810.0,23579.0,23708,23770.0,23711.0,23611.0,23775.0,820.0
2024-03-11 10:00:00,39500,Damparis,16.4,,,,47.0656399997769,5.41502800007799,France,Jura,Bourgogne-Franche-Comté,203.0,885.0,2727.0,2694,2662.0,2629.0,2621.0,2603.0,859.0
2024-03-11 10:00:00,39500,Tavaux,10.0,,,,47.0426099999585,5.40089700029717,France,Jura,Bourgogne-Franche-Comté,192.0,1391.0,3908.0,3918,3938.0,3957.0,3934.0,3923.0,859.0
2023-06-01 09:00:00,40000,Mont-de-Marsan,12.9,16.2,18.5,3.0,43.8960516305414,-0.490616689052445,France,Landes,Nouvelle-Aquitaine,58.0,3661.0,29885.0,29554,29683.0,29807.0,29953.0,30674.0,29807.0
2024-03-11 08:00:00,40000,Mont-de-Marsan,18.8,16.2,11.1,16.8,43.8889729996928,-0.507028000198241,France,Landes,Nouvelle-Aquitaine,58.0,3661.0,29885.0,29554,29683.0,29807.0,29953.0,30674.0,29807.0
2023-10-12 10:00:00,40100,Dax,8.0,0.3,27.0,11.5,43.7047196490079,-1.03861416519331,France,Landes,Nouvelle-Aquitaine,14.0,1970.0,20891.0,20681,20762.0,20843.0,21044.0,21347.0,20843.0
2024-03-04 08:00:00,40400,Tartas,,,3.4,,43.838333,-0.810833,France,Landes,Nouvelle-Aquitaine,45.0,3038.0,3245.0,3260,3242.0,3225.0,3209.0,3191.0,384.0
2024-09-16 08:00:00,40400,Tartas,,,9.2,,43.8388750000506,-0.812029999920392,France,Landes,Nouvelle-Aquitaine,45.0,3038.0,3245.0,3260,3242.0,3225.0,3209.0,3191.0,384.0
2018-04-25 02:00:00,41000,Blois,4.6,80.68,15.35,6.0,47.5946059994655,1.303647,France,Loir-et-Cher,Centre-Val de Loire,103.0,3752.0,45687.0,46086,45871.0,45898.0,46660.0,46813.0,45898.0
2024-01-29 18:00:00,41000,Blois,19.2,39.0,10.5,6.0,47.5945165359368,1.30173969506476,France,Loir-et-Cher,Centre-Val de Loire,103.0,3752.0,45687.0,46086,45871.0,45898.0,46660.0,46813.0,45898.0
2024-09-16 08:00:00,41000,Blois,44.2,32.57316419510452,23.84804359478292,11.6,47.5865439999998,1.32653300017541,France,Loir-et-Cher,Centre-Val de Loire,103.0,3752.0,45687.0,46086,45871.0,45898.0,46660.0,46813.0,45898.0
2024-09-18 23:00:00,41000,Blois,25.5,32.5,24.0,14.2,47.5942569998293,1.30266699988141,France,Loir-et-Cher,Centre-Val de Loire,103.0,3752.0,45687.0,46086,45871.0,45898.0,46660.0,46813.0,45898.0
2024-09-18 23:00:00,42000,Saint-Étienne,22.8,,14.1,,45.4479800001969,4.38876400007321,France,Loire,Auvergne-Rhône-Alpes,633.0,7999.0,171924.0,172565,173089.0,173821.0,174082.0,172718.0,171924.0
2024-09-18 23:00:00,42300,Roanne,20.1,27.6,2.9,,46.0411100002979,4.07465600019981,France,Loire,Auvergne-Rhône-Alpes,275.0,1607.0,34685.0,34366,34004.0,33809.0,34415.0,34762.0,7653.0
2024-09-18 23:00:00,42350,La Talaudière,13.3,39.9,14.2,,45.4817769997815,4.42966699978649,France,Loire,Auvergne-Rhône-Alpes,525.0,768.0,6734.0,6860,6931.0,6977.0,7044.0,7073.0,6977.0
2023-01-25 13:00:00,42400,Saint-Chamond,14.9,30.4,-1.0,3.7,45.4753270000971,4.51500300008891,France,Loire,Auvergne-Rhône-Alpes,520.0,5510.0,35339.0,34967,34979.0,34841.0,35309.0,35068.0,34841.0
2016-11-29 02:00:00,42520,Roisey,4.5,35.5,20.5,,45.3895622059041,4.61581342439134,France,Loire,Auvergne-Rhône-Alpes,700.0,1306.0,917.0,936,954.0,980.0,989.0,999.0,460.0
2024-01-02 10:00:00,42800,Rive-de-Gier,48.5,,22.1,,45.533406631012,4.62394317771262,France,Loire,Auvergne-Rhône-Alpes,295.0,735.0,15156.0,15184,15105.0,14978.0,15086.0,15214.0,496.0
2024-09-16 08:00:00,43000,Le Puy-en-Velay,3.8,86.6,1.8,,45.038999999839,3.88700099970405,France,Haute-Loire,Auvergne-Rhône-Alpes,750.0,1687.0,19115.0,18995,19061.0,19215.0,18947.0,18629.0,1473.0
2016-12-05 18:00:00,43160,Sembadel,,76.75,,,45.2747534308148,3.68791661796576,France,Haute-Loire,Auvergne-Rhône-Alpes,1041.0,1861.0,230.0,229,227.0,227.0,227.0,233.0,45.0
2024-09-16 14:00:00,43430,Fay-sur-Lignon,,90.5,,,44.9837699997223,4.22600599991629,France,Haute-Loire,Auvergne-Rhône-Alpes,1195.0,1335.0,368.0,363,357.0,355.0,358.0,354.0,205.0
2024-09-16 23:00:00,44000,Nantes,8.6,58.0,8.9,4.1,47.2224999999634,-1.53750000004799,France,Loire-Atlantique,Pays de la Loire,18.0,6577.0,306694.0,309346,314138.0,318808.0,320732.0,323204.0,333987.0
2024-09-16 08:00:00,44320,Frossay,6.9,,5.7,3.7,47.2474699997468,-1.93661899963548,France,Loire-Atlantique,Pays de la Loire,13.0,5991.0,3227.0,3221,3218.0,3216.0,3228.0,3248.0,2930.0
2024-03-11 09:00:00,44340,Bouguenais,9.4,,9.5,5.0,47.1859199997665,-1.59149719997376,France,Loire-Atlantique,Pays de la Loire,22.0,3112.0,19049.0,19331,19658.0,19903.0,20450.0,20410.0,19903.0
2024-09-16 08:00:00,44360,Saint-Étienne-de-Montluc,3.9,,5.2,2.7,47.2831800000453,-1.78316400017161,France,Loire-Atlantique,Pays de la Loire,26.0,5738.0,6952.0,7129,7300.0,7515.0,7578.0,7658.0,3754.0
2021-03-23 03:00:00,44480,Donges,6.6,,16.2,9.6,47.3240969999791,-2.08156700007113,France,Loire-Atlantique,Pays de la Loire,5.0,4955.0,7852.0,7961,8038.0,8152.0,8109.0,8113.0,8152.0
2024-03-04 07:00:00,44480,Donges,1.7,,16.2,9.6,47.322826,-2.039853,France,Loire-Atlantique,Pays de la Loire,5.0,4955.0,7852.0,7961,8038.0,8152.0,8109.0,8113.0,8152.0
2024-03-11 09:00:00,44480,Donges,10.5,,6.6,3.7,47.3227039997187,-2.03924400015057,France,Loire-Atlantique,Pays de la Loire,5.0,4955.0,7852.0,7961,8038.0,8152.0,8109.0,8113.0,8152.0
2024-09-16 23:00:00,44480,Donges,2.9,,6.1,2.4,47.3191570002322,-2.06695300041656,France,Loire-Atlantique,Pays de la Loire,5.0,4955.0,7852.0,7961,8038.0,8152.0,8109.0,8113.0,8152.0
2021-07-14 18:00:00,44550,Montoir-de-Bretagne,1.3,,26.5,13.7,47.3315476635576,-2.1516268022174,France,Loire-Atlantique,Pays de la Loire,3.0,2967.0,7079.0,7088,7148.0,7180.0,7216.0,7252.0,7180.0
2024-09-18 23:00:00,44550,Montoir-de-Bretagne,8.0,,26.5,13.7,47.3210799999773,-2.12732200005993,France,Loire-Atlantique,Pays de la Loire,3.0,2967.0,7079.0,7088,7148.0,7180.0,7216.0,7252.0,7180.0
2024-03-11 07:00:00,44570,Trignac,6.6,,,,47.3157270003001,-2.19076399974636,France,Loire-Atlantique,Pays de la Loire,3.0,1424.0,7871.0,7868,7926.0,7983.0,8101.0,8106.0,7983.0
2024-09-16 23:00:00,44600,Saint-Nazaire,6.15,60.2,5.8,2.5,47.2641200000181,-2.24985799984573,France,Loire-Atlantique,Pays de la Loire,16.0,4815.0,69719.0,69993,70619.0,71394.0,71887.0,72057.0,71394.0
2024-09-16 23:00:00,44830,Bouaye,,55.1,,,47.1460880000449,-1.69026900014682,France,Loire-Atlantique,Pays de la Loire,19.0,1407.0,7620.0,7844,7914.0,8008.0,8102.0,8144.0,8008.0
2024-09-18 23:00:00,45140,Saint-Jean-de-la-Ruelle,9.0,,41.7,18.0,47.910300000205,1.87343100039226,France,Loiret,Centre-Val de Loire,111.0,609.0,16298.0,16273,16445.0,16411.0,16570.0,16594.0,1053.0
2024-03-04 08:00:00,45200,Montargis,35.6,64.5,28.6,17.4,48.006935,2.74001,France,Loiret,Centre-Val de Loire,91.0,445.0,14222.0,14643,14789.0,14976.0,14738.0,15061.0,13233.0
2024-09-16 08:00:00,45200,Montargis,42.4,64.5,28.6,12.1,48.0069349997759,2.7401109996672,France,Loiret,Centre-Val de Loire,91.0,445.0,14222.0,14643,14789.0,14976.0,14738.0,15061.0,13233.0
2024-09-18 23:00:00,45200,Montargis,17.7,64.5,28.6,13.2,48.0014499999424,2.72617999990292,France,Loiret,Centre-Val de Loire,91.0,445.0,14222.0,14643,14789.0,14976.0,14738.0,15061.0,13233.0
2018-04-25 02:00:00,45700,Villemandeur,3.35,81.6,25.05,14.05,47.9979809994662,2.720156,France,Loiret,Centre-Val de Loire,92.0,1134.0,6864.0,6815,6767.0,6782.0,6835.0,6846.0,1463.0
2018-04-25 02:00:00,45700,Villemandeur,3.35,81.6,25.05,14.05,47.9979809994662,2.720156,France,Loiret,Centre-Val de Loire,96.0,502.0,212.0,212,210.0,208.0,206.0,201.0,1463.0
2020-12-14 13:00:00,45700,Villemandeur,9.1,37.1,45.5,41.2,47.9979271894844,2.71951477537923,France,Loiret,Centre-Val de Loire,92.0,1134.0,6864.0,6815,6767.0,6782.0,6835.0,6846.0,1463.0
2020-12-14 13:00:00,45700,Villemandeur,9.1,37.1,45.5,41.2,47.9979271894844,2.71951477537923,France,Loiret,Centre-Val de Loire,96.0,502.0,212.0,212,210.0,208.0,206.0,201.0,1463.0
2018-04-25 02:00:00,45760,Marigny-les-Usages,,69.33,,,47.9590139994661,2.010036,France,Loiret,Centre-Val de Loire,118.0,967.0,1494.0,1560,1627.0,1692.0,1755.0,1818.0,2094.0
2024-09-18 23:00:00,45760,Marigny-les-Usages,,74.1,,,47.9589729999032,2.00927799980123,France,Loiret,Centre-Val de Loire,118.0,967.0,1494.0,1560,1627.0,1692.0,1755.0,1818.0,2094.0
2018-04-25 02:00:00,45800,Saint-Jean-de-Braye,9.93,,6.8,8.3,47.9180779994661,1.966347,France,Loiret,Centre-Val de Loire,110.0,1371.0,20376.0,20751,21054.0,21288.0,21396.0,21700.0,494.0
2022-12-31 01:00:00,45800,Saint-Jean-de-Braye,3.2,,6.8,3.9,47.9173751802827,1.96625944333933,France,Loiret,Centre-Val de Loire,110.0,1371.0,20376.0,20751,21054.0,21288.0,21396.0,21700.0,494.0
2018-12-27 08:00:00,47000,Agen,23.2,1.1,16.0,,44.1922219994633,0.623889,France,Lot-et-Garonne,Nouvelle-Aquitaine,65.0,1152.0,33569.0,33576,33012.0,32602.0,32214.0,32485.0,32602.0
2024-03-04 08:00:00,47200,Marmande,33.4,,9.8,5.7,44.508656,0.142503,France,Lot-et-Garonne,Nouvelle-Aquitaine,43.0,4491.0,17645.0,17691,17534.0,17421.0,17265.0,17239.0,1632.0
2024-09-16 08:00:00,47200,Marmande,24.8,,15.5,2.0,44.5087799997058,0.142694999651937,France,Lot-et-Garonne,Nouvelle-Aquitaine,43.0,4491.0,17645.0,17691,17534.0,17421.0,17265.0,17239.0,1632.0
2024-09-16 23:00:00,49080,Bouchemaine,,66.3,,,47.4301640001622,-0.610063999718759,France,Maine-et-Loire,Pays de la Loire,44.0,2053.0,6709.0,6774,6796.0,6774.0,6757.0,6690.0,6774.0
2024-09-16 23:00:00,49300,Cholet,6.5,64.4,6.5,,47.0544429999979,-0.886110999943241,France,Maine-et-Loire,Pays de la Loire,116.0,8747.0,53718.0,53917,54186.0,54037.0,54357.0,53936.0,54037.0
2024-09-18 23:00:00,50000,Saint-Lô,10.4,72.9,43.6,,49.1163900000927,-1.08472200006952,France,Manche,Normandie,79.0,920.0,915.0,919,924.0,955.0,964.0,974.0,544.0
2024-09-18 23:00:00,50000,Saint-Lô,10.4,72.9,43.6,,49.1163900000927,-1.08472200006952,France,Manche,Normandie,68.0,2326.0,18961.0,19116,19024.0,19050.0,19206.0,19373.0,544.0
2021-12-09 01:00:00,50100,Cherbourg-en-Cotentin,2.4,82.0,13.8,3.7,49.6363812210033,-1.62666931648363,France,Manche,Normandie,46.0,1580.0,80076.0,79200,79144.0,78549.0,77789.0,77808.0,79144.0
2024-09-16 08:00:00,50100,Cherbourg-en-Cotentin,8.8,70.1307783890303,7.1,3.7,49.6338900002764,-1.62472220013899,France,Manche,Normandie,46.0,1580.0,80076.0,79200,79144.0,78549.0,77789.0,77808.0,79144.0
2024-09-18 23:00:00,50100,Cherbourg-en-Cotentin,28.3,70.1,44.1,23.5,49.6422500002307,-1.62436100013966,France,Manche,Normandie,46.0,1580.0,80076.0,79200,79144.0,78549.0,77789.0,77808.0,79144.0
2024-09-16 23:00:00,51100,Reims,18.05,56.9,17.25,7.949999999999999,49.2241669997297,4.02055599976787,France,Marne,Grand Est,93.0,4692.0,183113.0,182460,182211.0,181194.0,180318.0,179380.0,181194.0
2018-01-05 13:00:00,51110,Bourgogne-Fresne,15.18,62.8,10.65,,49.3491275183707,4.06959281588246,France,Marne,Grand Est,85.0,1442.0,1383.0,1396,1409.0,1422.0,1432.0,1442.0,1074.0
2024-07-23 13:00:00,51300,Vitry-le-François,2.2,30.8,,,48.7266000002082,4.59478099976097,France,Marne,Grand Est,100.0,635.0,12552.0,12133,11743.0,11376.0,11458.0,11454.0,95.0
2024-07-23 13:00:00,51300,Vitry-le-François,2.2,30.8,,,48.7266000002082,4.59478099976097,France,Marne,Grand Est,120.0,1770.0,844.0,828,828.0,830.0,826.0,838.0,95.0
2024-09-16 23:00:00,52100,Saint-Dizier,5.4,67.2,13.3,5.6,48.6458359997777,4.96611099961485,France,Haute-Marne,Grand Est,156.0,4838.0,24932.0,24012,23382.0,22928.0,23085.0,23068.0,424.0
2024-09-16 23:00:00,52100,Saint-Dizier,5.4,67.2,13.3,5.6,48.6458359997777,4.96611099961485,France,Haute-Marne,Grand Est,148.0,822.0,452.0,440,428.0,424.0,422.0,420.0,424.0
2024-03-11 07:00:00,53000,Laval,5.9,58.4,-1.0,4.0,48.0694300001585,-0.767691999765811,France,Mayenne,Pays de la Loire,82.0,3431.0,49492.0,49728,49573.0,49733.0,49617.0,49657.0,49733.0
2024-09-18 23:00:00,53000,Laval,10.3,58.4,-1.0,4.0,48.0710599997756,-0.767080000020623,France,Mayenne,Pays de la Loire,82.0,3431.0,49492.0,49728,49573.0,49733.0,49617.0,49657.0,49733.0
2024-09-16 23:00:00,53290,Saint-Denis-d'Anjou,3.3,61.0,5.3,2.9,47.7877299999136,-0.444044000271216,France,Mayenne,Pays de la Loire,60.0,825.0,376.0,364,352.0,340.0,339.0,336.0,203.0
2024-09-16 23:00:00,53290,Saint-Denis-d'Anjou,3.3,61.0,5.3,2.9,47.7877299999136,-0.444044000271216,France,Mayenne,Pays de la Loire,58.0,4180.0,1557.0,1558,1550.0,1548.0,1545.0,1528.0,203.0
2024-09-16 23:00:00,53290,Saint-Denis-d'Anjou,3.3,61.0,5.3,2.9,47.7877299999136,-0.444044000271216,France,Mayenne,Pays de la Loire,60.0,1327.0,529.0,528,526.0,525.0,526.0,525.0,203.0
2024-01-29 18:00:00,54000,Nancy,39.7,,,11.1,48.6963231696882,6.14612046034746,France,Meurthe-et-Moselle,Grand Est,231.0,1494.0,104592.0,104286,104885.0,105058.0,104403.0,104260.0,104885.0
2024-03-11 09:00:00,54000,Nancy,6.1,,,11.1,48.6858560002873,6.17511099989272,France,Meurthe-et-Moselle,Grand Est,231.0,1494.0,104592.0,104286,104885.0,105058.0,104403.0,104260.0,104885.0
2024-09-16 08:00:00,54160,Frolois,,,10.8,,48.5654449997811,6.12957799966176,France,Meurthe-et-Moselle,Grand Est,272.0,937.0,708.0,708,703.0,700.0,705.0,709.0,187.0
2020-03-26 13:00:00,54210,Saint-Nicolas-de-Port,6.5,,,,48.6333389994676,6.304828,France,Meurthe-et-Moselle,Grand Est,234.0,834.0,7573.0,7520,7466.0,7417.0,7383.0,7364.0,424.0
2024-09-18 23:00:00,54230,Neuves-Maisons,,,48.7,,48.6149139999688,6.10767200024852,France,Meurthe-et-Moselle,Grand Est,241.0,450.0,6820.0,6729,6653.0,6633.0,6629.0,6619.0,2826.0
2024-03-04 08:00:00,54520,Laxou,14.1,,,7.5,48.68871,6.15426,France,Meurthe-et-Moselle,Grand Est,322.0,1595.0,14321.0,14444,14300.0,14366.0,14445.0,14671.0,14366.0
2024-03-11 09:00:00,54600,Villers-lès-Nancy,4.1,85.0,,,48.6569440000801,6.1360219996737,France,Meurthe-et-Moselle,Grand Est,330.0,1000.0,14455.0,14415,14558.0,14525.0,14305.0,14761.0,14525.0
2023-09-18 13:00:00,54700,Atton,23.3,,1.4,,48.8863869997662,6.09361099988959,France,Meurthe-et-Moselle,Grand Est,205.0,1584.0,813.0,832,852.0,872.0,878.0,883.0,872.0
2024-09-16 08:00:00,54700,Pont-à-Mousson,,,11.3,,48.9149999999374,6.05833600022855,France,Meurthe-et-Moselle,Grand Est,214.0,2153.0,14404.0,14228,14434.0,14497.0,14357.0,14338.0,872.0
2021-03-17 04:00:00,55000,Bar-le-Duc,7.7,50.5,10.8,,48.7758318853958,5.16278861773887,France,Meuse,Grand Est,252.0,2369.0,15221.0,14985,14733.0,14625.0,14592.0,14668.0,14625.0
2019-05-02 13:00:00,55130,Houdelaincourt,6.0,92.4,93.2,104.2,48.5492988706458,5.46068793225859,France,Meuse,Grand Est,335.0,1613.0,306.0,299,291.0,285.0,279.0,273.0,290.0
2024-09-16 08:00:00,55160,Jonville-en-Woëvre,7.5,71.2,17.2,11.2,49.0658299999143,5.78555600021588,France,Meuse,Grand Est,213.0,1086.0,149.0,149,148.0,148.0,147.0,145.0,346.0
2024-03-09 00:00:00,55430,Belleville-sur-Meuse,13.7,,,9.2,49.1677799998708,5.38746100010222,France,Meuse,Grand Est,255.0,1016.0,3092.0,3092,3066.0,3040.0,3020.0,3021.0,3040.0
2017-05-31 09:00:00,56000,Vannes,24.85,8.03,23.0,13.1,47.6566951743188,-2.75819623151342,France,Morbihan,Bretagne,21.0,3323.0,53218.0,53352,53438.0,53719.0,54017.0,54420.0,53719.0
2024-01-29 18:00:00,56000,Vannes,9.3,38.5,23.0,13.1,47.648889066211,-2.76389155041474,France,Morbihan,Bretagne,21.0,3323.0,53218.0,53352,53438.0,53719.0,54017.0,54420.0,53719.0
2024-09-18 23:00:00,56000,Vannes,7.5,70.8,37.9,21.5,47.6489200000658,-2.76399000037999,France,Morbihan,Bretagne,21.0,3323.0,53218.0,53352,53438.0,53719.0,54017.0,54420.0,53719.0
2020-12-03 01:00:00,56100,Lorient,6.8,76.0,30.2,16.9,47.7522102114299,-3.37565324205297,France,Morbihan,Bretagne,18.0,1483.0,57274.0,57149,57084.0,57246.0,57412.0,57846.0,57246.0
2024-01-29 18:00:00,56100,Lorient,10.3,41.7,30.2,16.9,47.742485358103,-3.3948053239104,France,Morbihan,Bretagne,18.0,1483.0,57274.0,57149,57084.0,57246.0,57412.0,57846.0,57246.0
2024-03-11 10:00:00,56100,Lorient,5.8,48.90028586742898,37.2,22.0,47.7589450001341,-3.36938000009845,France,Morbihan,Bretagne,18.0,1483.0,57274.0,57149,57084.0,57246.0,57412.0,57846.0,57246.0
2024-09-18 23:00:00,56100,Lorient,6.1,82.0,38.7,22.3,47.7424999999031,-3.395009999658,France,Morbihan,Bretagne,18.0,1483.0,57274.0,57149,57084.0,57246.0,57412.0,57846.0,57246.0
2024-03-11 10:00:00,57000,Metz,9.0,59.2,15.2,13.4,49.1194420002004,6.18083299965629,France,Moselle,Grand Est,190.0,4171.0,117890.0,116429,116581.0,118489.0,120211.0,120874.0,122696.0
2020-03-24 15:00:00,57070,Saint-Julien-lès-Metz,69.5,,0.0,,49.1311139994689,6.207225,France,Moselle,Grand Est,211.0,456.0,3366.0,3421,3411.0,3373.0,3467.0,3514.0,423.0
2023-01-17 11:00:00,57100,Thionville,4.4,63.85,9.3,9.8,49.3686110119252,6.16083486470134,France,Moselle,Grand Est,211.0,4986.0,40586.0,40701,40477.0,40778.0,41383.0,42163.0,2915.0
2024-09-17 23:00:00,57100,Thionville,7.25,63.85,24.0,9.8,49.3583370001585,6.15694200014625,France,Moselle,Grand Est,211.0,4986.0,40586.0,40701,40477.0,40778.0,41383.0,42163.0,2915.0
2024-09-17 23:00:00,57160,Scy-Chazelles,4.6,73.3,,,49.1075020002343,6.12277499962463,France,Moselle,Grand Est,239.0,442.0,2670.0,2676,2675.0,2675.0,2665.0,2662.0,1916.0
2018-04-12 14:00:00,57175,Gandrange,,,2.0,,49.2713919994693,6.1325,France,Moselle,Grand Est,180.0,411.0,2846.0,2907,2967.0,3028.0,3035.0,3029.0,3028.0
2024-09-18 23:00:00,57600,Forbach,21.3,58.9,18.9,7.6,49.1874199998884,6.91086700017932,France,Moselle,Grand Est,244.0,1646.0,21627.0,21552,21652.0,21597.0,21509.0,21130.0,1325.0
2019-07-10 12:00:00,57640,Malroy,6.3,,1.5,,49.1688475216756,6.21266765659504,France,Moselle,Grand Est,178.0,351.0,360.0,355,351.0,348.0,350.0,351.0,184.0
2021-01-01 01:00:00,57700,Hayange,12.0,,19.9,,49.3247183840929,6.07610576710319,France,Moselle,Grand Est,253.0,1223.0,15776.0,15811,15888.0,16005.0,15994.0,15968.0,16005.0
2024-09-16 08:00:00,57700,Hayange,12.0,,13.1,,49.3374000000503,6.08207000027807,France,Moselle,Grand Est,253.0,1223.0,15776.0,15811,15888.0,16005.0,15994.0,15968.0,16005.0
2024-01-29 17:00:00,58000,Nevers,22.9,26.3,10.4,13.3,46.9966666387206,3.17083735727372,France,Nièvre,Bourgogne-Franche-Comté,190.0,1735.0,33235.0,32990,33279.0,33005.0,32284.0,32830.0,1526.0
2024-09-18 23:00:00,58000,Nevers,21.2,13.4,12.4,7.6,46.9968259997978,3.17109200001237,France,Nièvre,Bourgogne-Franche-Comté,190.0,1735.0,33235.0,32990,33279.0,33005.0,32284.0,32830.0,1526.0
2024-01-29 18:00:00,58230,Saint-Brisson,1.4,65.6,3.2,3.8,47.2750173101874,4.09832992182145,France,Nièvre,Bourgogne-Franche-Comté,559.0,2423.0,143.0,137,133.0,131.0,129.0,135.0,607.0
2024-01-29 18:00:00,58230,Saint-Brisson,1.4,65.6,3.2,3.8,47.2750173101874,4.09832992182145,France,Nièvre,Bourgogne-Franche-Comté,624.0,2990.0,266.0,264,261.0,260.0,257.0,255.0,607.0
2024-09-16 08:00:00,58230,Saint-Brisson,1.9,30.1,10.8,5.0,47.2747599997626,4.09947599964745,France,Nièvre,Bourgogne-Franche-Comté,559.0,2423.0,143.0,137,133.0,131.0,129.0,135.0,607.0
2024-09-16 08:00:00,58230,Saint-Brisson,1.9,30.1,10.8,5.0,47.2747599997626,4.09947599964745,France,Nièvre,Bourgogne-Franche-Comté,624.0,2990.0,266.0,264,261.0,260.0,257.0,255.0,607.0
2018-04-25 02:00:00,59000,Lille,6.8,,9.1,6.98,50.6294439994737,3.090833,France,Nord,Hauts-de-France,27.0,3499.0,232440.0,232787,233098.0,234475.0,236234.0,236710.0,238381.0
2024-09-16 23:00:00,59100,Roubaix,11.0,,9.7,2.8,50.7065350000372,3.18066000012097,France,Nord,Hauts-de-France,31.0,1323.0,96412.0,96990,98089.0,98828.0,98066.0,98892.0,98828.0
2024-09-16 23:00:00,59139,Wattignies,,58.9,,,50.5977400001888,3.0494600000498,France,Nord,Hauts-de-France,36.0,630.0,14485.0,14549,14736.0,15075.0,15372.0,15531.0,858.0
2024-01-29 18:00:00,59180,Cappelle-la-Grande,29.4,15.1,12.0,2.65,50.9959079994751,2.365994,France,Nord,Hauts-de-France,2.0,548.0,7888.0,7899,7909.0,7920.0,7953.0,7899.0,7920.0
2024-09-13 08:00:00,59180,Cappelle-la-Grande,3.5,69.6,13.7,2.65,50.9959400001875,2.36627000018506,France,Nord,Hauts-de-France,2.0,548.0,7888.0,7899,7909.0,7920.0,7953.0,7899.0,7920.0
2018-04-25 02:00:00,59200,Tourcoing,7.0,57.7,10.5,4.5,50.7254499994741,3.159958,France,Nord,Hauts-de-France,36.0,1519.0,97476.0,97368,97442.0,98656.0,99165.0,99011.0,98656.0
2018-12-13 10:00:00,59200,Tourcoing,7.0,57.7,16.8,4.5,50.7241878513227,3.15906044389892,France,Nord,Hauts-de-France,36.0,1519.0,97476.0,97368,97442.0,98656.0,99165.0,99011.0,98656.0
2024-09-16 23:00:00,59200,Tourcoing,7.0,57.7,9.5,4.5,50.7333340002115,3.17361100003655,France,Nord,Hauts-de-France,36.0,1519.0,97476.0,97368,97442.0,98656.0,99165.0,99011.0,98656.0
2018-04-25 02:00:00,59220,Denain,8.78,51.9,10.4,7.6,50.3274999994726,3.4,France,Nord,Hauts-de-France,36.0,1160.0,19714.0,19825,19933.0,19877.0,20415.0,20640.0,19877.0
2024-09-17 23:00:00,59220,Denain,7.5,75.6,15.8,7.6,50.3227600000871,3.39593000027307,France,Nord,Hauts-de-France,36.0,1160.0,19714.0,19825,19933.0,19877.0,20415.0,20640.0,19877.0
2018-04-23 13:00:00,59230,Saint-Amand-les-Eaux,5.35,61.5,,,50.438677999473,3.433458,France,Nord,Hauts-de-France,19.0,3410.0,16147.0,15889,16053.0,15870.0,15997.0,15980.0,862.0
2024-09-17 23:00:00,59230,Saint-Amand-les-Eaux,8.2,56.6,,,50.456470000169,3.42794000027044,France,Nord,Hauts-de-France,19.0,3410.0,16147.0,15889,16053.0,15870.0,15997.0,15980.0,862.0
2018-04-25 02:00:00,59240,Dunkerque,,,10.65,2.53,51.0513889994753,2.423056,France,Nord,Hauts-de-France,5.0,4297.0,88108.0,87353,86865.0,86279.0,86545.0,86788.0,85751.0
2024-09-16 23:00:00,59240,Dunkerque,,,10.8,4.7,51.0485799999799,2.42004000000581,France,Nord,Hauts-de-France,5.0,4297.0,88108.0,87353,86865.0,86279.0,86545.0,86788.0,85751.0
2018-04-25 02:00:00,59244,Cartignies,5.0,42.38,18.03,12.5,50.0930799994718,3.850003,France,Nord,Hauts-de-France,174.0,2662.0,1262.0,1253,1245.0,1246.0,1257.0,1260.0,1246.0
2024-09-17 23:00:00,59244,Cartignies,5.0,67.6,22.1,12.5,50.0922500001161,3.85002999965121,France,Nord,Hauts-de-France,174.0,2662.0,1262.0,1253,1245.0,1246.0,1257.0,1260.0,1246.0
2018-04-25 02:00:00,59250,Halluin,2.95,56.28,,,50.7754809994743,3.127047,France,Nord,Hauts-de-France,25.0,1267.0,20708.0,20800,20808.0,20743.0,20812.0,20829.0,20743.0
2024-03-11 01:00:00,59250,Halluin,7.5,52.6,,,50.7754819998265,3.12568000015524,France,Nord,Hauts-de-France,25.0,1267.0,20708.0,20800,20808.0,20743.0,20812.0,20829.0,20743.0
2017-07-18 22:00:00,59278,Escautpont,7.78,,19.2,,50.4202708576586,3.55181286926881,France,Nord,Hauts-de-France,25.0,577.0,4211.0,4192,4173.0,4208.0,4172.0,4152.0,4208.0
2016-12-05 02:00:00,59280,Armentières,44.35,0.95,,,50.6872089262531,2.88004371665139,France,Nord,Hauts-de-France,16.0,623.0,25015.0,24882,24778.0,24909.0,25225.0,25581.0,24909.0
2018-04-25 02:00:00,59300,Valenciennes,13.415,61.3,9.19,6.35,50.3647189994728,3.523611,France,Nord,Hauts-de-France,32.0,1393.0,43680.0,43336,43405.0,43229.0,42738.0,42991.0,7224.0
2024-09-16 08:00:00,59300,Valenciennes,16.0,61.3,16.2,12.95,50.3585300000656,3.50804000015779,France,Nord,Hauts-de-France,32.0,1393.0,43680.0,43336,43405.0,43229.0,42738.0,42991.0,7224.0
2024-09-17 23:00:00,59300,Valenciennes,14.3,61.3,19.1,9.7,50.3642500001959,3.52272999998034,France,Nord,Hauts-de-France,32.0,1393.0,43680.0,43336,43405.0,43229.0,42738.0,42991.0,7224.0
2018-04-25 02:00:00,59400,Cambrai,,,10.3,4.7,50.1752779994721,3.234167,France,Nord,Hauts-de-France,64.0,1821.0,32668.0,32558,32501.0,32176.0,31559.0,31425.0,259.0
2018-12-10 10:00:00,59400,Cambrai,,,8.7,4.6,50.1724794592506,3.23606403005364,France,Nord,Hauts-de-France,64.0,1821.0,32668.0,32558,32501.0,32176.0,31559.0,31425.0,259.0
2017-06-29 14:00:00,59496,Salomé,4.4,60.4,13.5,,50.5320309994734,2.839,France,Nord,Hauts-de-France,24.0,533.0,2969.0,2969,2956.0,2945.0,2985.0,3051.0,1281.0
2018-04-25 02:00:00,59500,Douai,2.8,63.85,7.35,1.3,50.3666639994728,3.082778,France,Nord,Hauts-de-France,24.0,1692.0,39657.0,39700,39634.0,39613.0,39842.0,39648.0,39613.0
2024-09-17 23:00:00,59500,Douai,10.0,59.8,12.5,5.9,50.378220000192,3.06585999960954,France,Nord,Hauts-de-France,24.0,1692.0,39657.0,39700,39634.0,39613.0,39842.0,39648.0,39613.0
2018-04-25 02:00:00,59600,Maubeuge,10.2,55.48,13.3,,50.2783359994725,3.973611,France,Nord,Hauts-de-France,144.0,1897.0,29679.0,29944,29632.0,29589.0,29625.0,29066.0,1815.0
2024-09-16 08:00:00,59600,Maubeuge,5.9,58.5,11.5,,50.2793599998152,3.97690999972442,France,Nord,Hauts-de-France,144.0,1897.0,29679.0,29944,29632.0,29589.0,29625.0,29066.0,1815.0
2023-04-03 14:00:00,59700,Marcq-en-Barœul,23.25,141.1,17.7,,50.6700299997373,3.07656000004533,France,Nord,Hauts-de-France,25.0,1401.0,38805.0,38617,38570.0,38486.0,38604.0,39356.0,38486.0
2018-04-24 15:00:00,59760,Grande-Synthe,5.13,,8.78,,51.0112059994752,2.293056,France,Nord,Hauts-de-France,4.0,2108.0,23294.0,22966,22777.0,22522.0,20635.0,20331.0,22522.0
2024-03-11 04:00:00,59760,Grande-Synthe,1.7,,16.9,,51.0244600002385,2.30214999973289,France,Nord,Hauts-de-France,4.0,2108.0,23294.0,22966,22777.0,22522.0,20635.0,20331.0,22522.0
2018-04-25 02:00:00,59820,Gravelines,,,14.75,,50.981663999475,2.143056,France,Nord,Hauts-de-France,5.0,1968.0,11461.0,11166,11132.0,11014.0,11001.0,11223.0,11014.0
2024-09-16 08:00:00,59820,Gravelines,,,1.9,,50.9810600000164,2.14317000014894,France,Nord,Hauts-de-France,5.0,1968.0,11461.0,11166,11132.0,11014.0,11001.0,11223.0,11014.0
2024-09-16 23:00:00,60000,Beauvais,4.1,,8.9,7.4,49.4359320000813,2.08429199995963,France,Oise,Hauts-de-France,91.0,3309.0,56020.0,56254,56605.0,57071.0,56889.0,56677.0,1622.0
2023-07-14 11:00:00,60100,Creil,14.4,62.8,8.9,4.6,49.2595520002579,2.4743970003557,France,Oise,Hauts-de-France,74.0,1104.0,35747.0,35657,35800.0,36169.0,35970.0,36106.0,36169.0
2022-01-21 09:00:00,60180,Nogent-sur-Oise,38.7,16.8,19.8,,49.2763912615378,2.48217089416201,France,Oise,Hauts-de-France,47.0,739.0,19595.0,20033,20298.0,20780.0,21589.0,21382.0,20780.0
2017-03-28 18:00:00,60870,Rieux,10.93,,15.15,,49.2978953606785,2.51744773536939,France,Oise,Hauts-de-France,60.0,235.0,1561.0,1567,1556.0,1548.0,1542.0,1548.0,2011.0
2024-09-18 23:00:00,61000,Cerisé,6.0,79.1,39.2,22.6,48.4455530000175,0.110832999792571,France,Orne,Normandie,139.0,444.0,859.0,863,857.0,866.0,876.0,862.0,25870.0
2024-09-18 23:00:00,61220,La Coulonche,,81.3,39.7,21.6,48.6450000001438,-0.458333000235777,France,Orne,Normandie,264.0,1407.0,495.0,493,496.0,500.0,503.0,501.0,1074.0
2017-06-20 17:00:00,62100,Calais,13.3,77.85,9.2,3.8,50.9472900000261,1.84308000007845,France,Pas-de-Calais,Hauts-de-France,4.0,3345.0,74978.0,73911,72929.0,72509.0,67544.0,67380.0,72509.0
2017-07-18 22:00:00,62100,Calais,17.63,77.85,9.029505853525729,3.818294825023645,50.9615772767861,1.873903648979,France,Pas-de-Calais,Hauts-de-France,4.0,3345.0,74978.0,73911,72929.0,72509.0,67544.0,67380.0,72509.0
2018-04-22 19:00:00,62100,Calais,4.7,77.85,7.35,3.998513714362924,50.9508329994749,1.8425,France,Pas-de-Calais,Hauts-de-France,4.0,3345.0,74978.0,73911,72929.0,72509.0,67544.0,67380.0,72509.0
2018-04-25 02:00:00,62100,Calais,4.699705656742244,77.83945269993042,13.05,4.0,50.9470999994749,1.84276,France,Pas-de-Calais,Hauts-de-France,4.0,3345.0,74978.0,73911,72929.0,72509.0,67544.0,67380.0,72509.0
2024-09-13 12:00:00,62100,Calais,4.4,67.1,5.1,4.0,50.9577999999066,1.89008000037235,France,Pas-de-Calais,Hauts-de-France,4.0,3345.0,74978.0,73911,72929.0,72509.0,67544.0,67380.0,72509.0
2024-09-18 23:00:00,62113,Verquigneul,13.0,45.7,19.6,,50.4897199999063,2.66641999963169,France,Pas-de-Calais,Hauts-de-France,26.0,360.0,1886.0,1929,1974.0,2019.0,2021.0,2016.0,2893.0
2024-09-16 23:00:00,62200,Boulogne-sur-Mer,,,13.6,4.8,50.7170300001077,1.60591299983562,France,Pas-de-Calais,Hauts-de-France,34.0,780.0,41669.0,40874,40664.0,40251.0,40588.0,40910.0,40251.0
2024-09-16 08:00:00,62223,Saint-Laurent-Blangy,10.2,67.7,21.2,8.1,50.3088599999415,2.80736899956143,France,Pas-de-Calais,Hauts-de-France,76.0,988.0,6659.0,6606,6575.0,6542.0,6522.0,6507.0,2751.0
2024-09-16 08:00:00,62223,Saint-Laurent-Blangy,10.2,67.7,21.2,8.1,50.3088599999415,2.80736899956143,France,Pas-de-Calais,Hauts-de-France,81.0,444.0,3499.0,3511,3503.0,3562.0,3653.0,3594.0,2751.0
2024-09-16 08:00:00,62223,Saint-Laurent-Blangy,10.2,67.7,21.2,8.1,50.3088599999415,2.80736899956143,France,Pas-de-Calais,Hauts-de-France,77.0,316.0,4806.0,4738,4724.0,4687.0,4659.0,4603.0,2751.0
2018-04-25 02:00:00,62230,Outreau,5.3,69.15,9.53,,50.6938919994739,1.576389,France,Pas-de-Calais,Hauts-de-France,49.0,709.0,13709.0,13422,13575.0,13378.0,13178.0,13270.0,13378.0
2024-09-16 23:00:00,62230,Outreau,6.6,51.0,7.0,,50.6943499999625,1.57657000000044,France,Pas-de-Calais,Hauts-de-France,49.0,709.0,13709.0,13422,13575.0,13378.0,13178.0,13270.0,13378.0
2024-09-16 23:00:00,62231,Sangatte,1.5,62.8,17.2,,50.9498899997613,1.76916999975983,France,Pas-de-Calais,Hauts-de-France,28.0,1432.0,4789.0,4820,4852.0,4845.0,4840.0,4842.0,2602.0
2017-07-18 22:00:00,62300,Lens,33.48,,50.1,,50.436809254151,2.82668378877469,France,Pas-de-Calais,Hauts-de-France,45.0,1169.0,30689.0,31415,31606.0,31461.0,32458.0,32618.0,2840.0
2024-09-18 23:00:00,62300,Lens,33.48,,50.1,,50.4286039997944,2.83611100042039,France,Pas-de-Calais,Hauts-de-France,45.0,1169.0,30689.0,31415,31606.0,31461.0,32458.0,32618.0,2840.0
2018-04-25 02:00:00,62440,Harnes,7.7,60.55,7.9,5.8,50.4494559994731,2.9,France,Pas-de-Calais,Hauts-de-France,31.0,1082.0,12524.0,12354,12324.0,12237.0,12277.0,12317.0,12237.0
2024-09-18 23:00:00,62440,Harnes,15.2,57.6,28.5,5.8,50.4491399998364,2.89999999999557,France,Pas-de-Calais,Hauts-de-France,31.0,1082.0,12524.0,12354,12324.0,12237.0,12277.0,12317.0,12237.0
2016-12-05 02:00:00,62500,Saint-Omer,5.9,54.0,8.6,,50.7482300002354,2.25977999995667,France,Pas-de-Calais,Hauts-de-France,4.0,1649.0,14443.0,14782,14726.0,14903.0,14782.0,14661.0,245.0
2016-12-05 02:00:00,62500,Saint-Omer,5.9,54.0,8.6,,50.7482300002354,2.25977999995667,France,Pas-de-Calais,Hauts-de-France,17.0,482.0,5897.0,5906,5914.0,5923.0,5970.0,5916.0,245.0
2018-04-25 02:00:00,62500,Saint-Omer,2.0,60.28,5.6,,50.7483329994742,2.254722,France,Pas-de-Calais,Hauts-de-France,4.0,1649.0,14443.0,14782,14726.0,14903.0,14782.0,14661.0,245.0
2018-04-25 02:00:00,62500,Saint-Omer,2.0,60.28,5.6,,50.7483329994742,2.254722,France,Pas-de-Calais,Hauts-de-France,17.0,482.0,5897.0,5906,5914.0,5923.0,5970.0,5916.0,245.0
2024-09-16 23:00:00,62650,Campagne-lès-Boulonnais,,60.9,9.3,5.5,50.6104799998165,1.9914499996383,France,Pas-de-Calais,Hauts-de-France,158.0,1329.0,613.0,634,655.0,667.0,676.0,685.0,203.0
2023-12-20 13:00:00,63000,Clermont-Ferrand,46.8,4.8,6.1,0.9,45.7757153069085,3.09625023923328,France,Puy-de-Dôme,Auvergne-Rhône-Alpes,370.0,4307.0,142686.0,143886,146734.0,147865.0,147284.0,147327.0,144751.0
2024-02-15 11:00:00,63000,Clermont-Ferrand,67.7,4.8,0.1,1.9499615680245963,45.772167,3.0875,France,Puy-de-Dôme,Auvergne-Rhône-Alpes,370.0,4307.0,142686.0,143886,146734.0,147865.0,147284.0,147327.0,144751.0
2024-09-16 14:00:00,63000,Clermont-Ferrand,4.2,3.7,6.5,5.9,45.7690000000847,3.1550000004242,France,Puy-de-Dôme,Auvergne-Rhône-Alpes,370.0,4307.0,142686.0,143886,146734.0,147865.0,147284.0,147327.0,144751.0
2017-12-31 19:00:00,63130,Royat,2.4,68.18,,,45.7646669994634,3.047194,France,Puy-de-Dôme,Auvergne-Rhône-Alpes,687.0,667.0,4798.0,4651,4505.0,4359.0,4395.0,4403.0,4359.0
2024-09-16 14:00:00,63130,Royat,2.8,89.6,,,45.7641099997366,3.04611099982223,France,Puy-de-Dôme,Auvergne-Rhône-Alpes,687.0,667.0,4798.0,4651,4505.0,4359.0,4395.0,4403.0,4359.0
2018-08-23 14:00:00,63200,Riom,6.68,114.8,15.2,,45.8941939994635,3.115056,France,Puy-de-Dôme,Auvergne-Rhône-Alpes,335.0,3257.0,19029.0,19180,19011.0,19004.0,18733.0,18736.0,677.0
2024-09-16 14:00:00,63200,Riom,2.6,79.0,15.2,,45.896739999897,3.12225399993477,France,Puy-de-Dôme,Auvergne-Rhône-Alpes,335.0,3257.0,19029.0,19180,19011.0,19004.0,18733.0,18736.0,677.0
2023-01-09 13:00:00,63400,Chamalières,14.7,,4.1,,45.7747754785278,3.06296765795665,France,Puy-de-Dôme,Auvergne-Rhône-Alpes,444.0,376.0,17282.0,17173,17210.0,17276.0,17196.0,17454.0,17276.0
2017-12-20 10:00:00,63500,Issoire,28.45,22.2,22.5,,45.5449339994633,3.247649,France,Puy-de-Dôme,Auvergne-Rhône-Alpes,408.0,1967.0,14662.0,14822,15214.0,15296.0,15297.0,15014.0,319.0
2022-12-25 11:00:00,63770,Les Ancizes-Comps,,,6.9,,45.9293204617359,2.82980992596343,France,Puy-de-Dôme,Auvergne-Rhône-Alpes,645.0,2206.0,1568.0,1610,1652.0,1694.0,1705.0,1699.0,1694.0
2024-03-11 10:00:00,64000,Pau,23.6,,11.3,,43.3110920001214,-0.352115999818861,France,Pyrénées-Atlantiques,Nouvelle-Aquitaine,211.0,3152.0,77251.0,77130,76275.0,75627.0,75665.0,77066.0,75627.0
2024-03-04 08:00:00,64100,Bayonne,14.6,50.5,2.4,,43.47972,-1.488056,France,Pyrénées-Atlantiques,Nouvelle-Aquitaine,17.0,2584.0,50589.0,51228,51411.0,51894.0,52006.0,52749.0,51894.0
2024-09-16 08:00:00,64100,Bayonne,18.2,41.8,4.9,,43.4798199999506,-1.48915700043803,France,Pyrénées-Atlantiques,Nouvelle-Aquitaine,17.0,2584.0,50589.0,51228,51411.0,51894.0,52006.0,52749.0,51894.0
2024-03-04 08:00:00,64150,Mourenx,4.2,,,,43.376945,-0.609444,France,Pyrénées-Atlantiques,Nouvelle-Aquitaine,115.0,645.0,6487.0,6485,6341.0,6122.0,5903.0,5846.0,214.0
2024-03-11 10:00:00,64150,Mourenx,4.7,,,,43.3771930000606,-0.610277999979003,France,Pyrénées-Atlantiques,Nouvelle-Aquitaine,115.0,645.0,6487.0,6485,6341.0,6122.0,5903.0,5846.0,214.0
2024-03-04 07:00:00,64170,Labastide-Cézéracq,20.6,16.3,6.9,,43.37611,-0.536944,France,Pyrénées-Atlantiques,Nouvelle-Aquitaine,161.0,835.0,591.0,589,598.0,604.0,599.0,596.0,3428.0
2024-03-04 07:00:00,64170,Labastide-Cézéracq,20.6,16.3,6.9,,43.37611,-0.536944,France,Pyrénées-Atlantiques,Nouvelle-Aquitaine,117.0,504.0,559.0,555,556.0,556.0,557.0,576.0,3428.0
2024-03-11 10:00:00,64170,Labastide-Cézéracq,7.0,32.9,2.9,,43.376278000024,-0.538206000342397,France,Pyrénées-Atlantiques,Nouvelle-Aquitaine,161.0,835.0,591.0,589,598.0,604.0,599.0,596.0,3428.0
2024-03-11 10:00:00,64170,Labastide-Cézéracq,7.0,32.9,2.9,,43.376278000024,-0.538206000342397,France,Pyrénées-Atlantiques,Nouvelle-Aquitaine,117.0,504.0,559.0,555,556.0,556.0,557.0,576.0,3428.0
2024-03-04 08:00:00,64170,Lacq,12.8,,,,43.410557,-0.616944,France,Pyrénées-Atlantiques,Nouvelle-Aquitaine,116.0,1723.0,735.0,732,729.0,725.0,729.0,731.0,3428.0
2024-09-18 23:00:00,64170,Lacq,10.2,,,,43.4112300000173,-0.617727999921422,France,Pyrénées-Atlantiques,Nouvelle-Aquitaine,116.0,1723.0,735.0,732,729.0,725.0,729.0,731.0,3428.0
2024-09-16 08:00:00,64200,Biarritz,16.3,49.2,7.1,2.2,43.4702379999568,-1.55387600021659,France,Pyrénées-Atlantiques,Nouvelle-Aquitaine,47.0,1235.0,24777.0,25404,25532.0,25787.0,25885.0,25764.0,3195.0
2019-01-21 11:00:00,64320,Bizanos,11.5,27.4,8.8,,43.307777999464,-0.322778,France,Pyrénées-Atlantiques,Nouvelle-Aquitaine,202.0,441.0,4652.0,4626,4590.0,4563.0,4522.0,4548.0,763.0
2024-03-04 07:00:00,64600,Anglet,33.0,,3.3,,43.494167,-1.527778,France,Pyrénées-Atlantiques,Nouvelle-Aquitaine,25.0,2763.0,38663.0,38929,39604.0,39719.0,40310.0,41153.0,39719.0
2024-09-18 23:00:00,64600,Anglet,21.2,,12.9,,43.4940400001703,-1.52875299992194,France,Pyrénées-Atlantiques,Nouvelle-Aquitaine,25.0,2763.0,38663.0,38929,39604.0,39719.0,40310.0,41153.0,39719.0
2024-03-04 07:00:00,65000,Tarbes,23.7,20.5,9.4,10.2,43.230278,0.062222,France,Hautes-Pyrénées,Occitanie,306.0,1533.0,40318.0,41518,42426.0,42758.0,42925.0,43955.0,42758.0
2024-09-16 23:00:00,65000,Tarbes,12.5,55.1,8.9,4.8,43.230296999729,0.062338999671559,France,Hautes-Pyrénées,Occitanie,306.0,1533.0,40318.0,41518,42426.0,42758.0,42925.0,43955.0,42758.0
2020-06-10 07:00:00,65100,Lourdes,5.9,86.4,1.0,1.9,43.0949969994643,-0.051944,France,Hautes-Pyrénées,Occitanie,466.0,3689.0,13651.0,13389,13210.0,13132.0,13247.0,13509.0,826.0
2024-03-04 08:00:00,65100,Lourdes,3.7,86.4,1.0,10.6,43.096943,-0.038889,France,Hautes-Pyrénées,Occitanie,466.0,3689.0,13651.0,13389,13210.0,13132.0,13247.0,13509.0,826.0
2024-09-16 23:00:00,65100,Lourdes,10.6,53.4,10.1,4.6,43.0962500002002,-0.0404969998324175,France,Hautes-Pyrénées,Occitanie,466.0,3689.0,13651.0,13389,13210.0,13132.0,13247.0,13509.0,826.0
2024-03-04 08:00:00,66000,Perpignan,12.4,77.1,5.4,2.4,42.6958,2.8997,France,Pyrénées-Orientales,Occitanie,38.0,6831.0,121875.0,120158,119188.0,119344.0,118032.0,119656.0,122791.0
2024-09-16 08:00:00,66000,Perpignan,57.9,79.86299559471367,18.9,5.952422907488987,42.6958700001418,2.88848299977518,France,Pyrénées-Orientales,Occitanie,38.0,6831.0,121875.0,120158,119188.0,119344.0,118032.0,119656.0,122791.0
2024-09-18 23:00:00,66000,Perpignan,15.7,79.9,15.9,6.0,42.6955000001482,2.90052999972499,France,Pyrénées-Orientales,Occitanie,38.0,6831.0,121875.0,120158,119188.0,119344.0,118032.0,119656.0,122791.0
2024-09-16 08:00:00,66240,Saint-Estève,,75.5,,,42.7197999999356,2.83987999987422,France,Pyrénées-Orientales,Occitanie,55.0,1168.0,11841.0,11658,11697.0,11719.0,11642.0,11550.0,11719.0
2024-03-11 09:00:00,67000,Strasbourg,51.2,,45.9,,48.5880550000064,7.72972199987815,France,Bas-Rhin,Grand Est,139.0,7809.0,279284.0,280966,284677.0,287228.0,290576.0,291313.0,290576.0
2024-09-18 23:00:00,67118,Geispolsheim,,76.6,,,48.5157000002352,7.68781900008216,France,Bas-Rhin,Grand Est,147.0,2215.0,7476.0,7540,7605.0,7561.0,7603.0,7603.0,7561.0
2024-09-18 23:00:00,67130,Grandfontaine,3.0,68.9,38.9,13.7,48.4929920001705,7.12980000037835,France,Bas-Rhin,Grand Est,679.0,3935.0,410.0,396,393.0,385.0,376.0,384.0,838.0
2024-09-18 23:00:00,67290,La Petite-Pierre,2.3,90.9,,,48.8573100002683,7.31417500024352,France,Bas-Rhin,Grand Est,307.0,1988.0,624.0,618,621.0,624.0,623.0,612.0,299.0
2020-02-10 17:00:00,67300,Schiltigheim,8.9,,,,48.6088169994676,7.708917,France,Bas-Rhin,Grand Est,141.0,763.0,31811.0,31894,33069.0,33780.0,33993.0,34129.0,33780.0
2024-09-18 23:00:00,67470,Munchhausen,10.5,75.5,11.8,,48.9193569998863,8.15845799983553,France,Bas-Rhin,Grand Est,112.0,585.0,732.0,763,793.0,802.0,811.0,812.0,511.0
2024-09-17 23:00:00,67500,Haguenau,9.2,69.7,,10.8,48.8183500000267,7.78640900010634,France,Bas-Rhin,Grand Est,148.0,18358.0,34460.0,34504,34789.0,35196.0,35448.0,35715.0,978.0
2024-03-11 09:00:00,68000,Colmar,18.4,56.2,9.5,,48.074642000044,7.35066699972224,France,Haut-Rhin,Grand Est,187.0,6645.0,69899.0,69105,68703.0,68682.0,68294.0,67730.0,68682.0
2024-09-16 08:00:00,68000,Colmar,21.8,56.2,13.2,,48.0744440002721,7.35055540021787,France,Haut-Rhin,Grand Est,187.0,6645.0,69899.0,69105,68703.0,68682.0,68294.0,67730.0,68682.0
2024-09-18 23:00:00,68000,Colmar,21.8,56.2,13.2,,48.0654140000039,7.33313900003328,France,Haut-Rhin,Grand Est,187.0,6645.0,69899.0,69105,68703.0,68682.0,68294.0,67730.0,68682.0
2024-09-18 23:00:00,68100,Mulhouse,21.9,,21.1,,47.7574349997438,7.34729400010354,France,Haut-Rhin,Grand Est,250.0,2234.0,108999.0,109443,108942.0,108312.0,108038.0,106341.0,108312.0
2020-02-25 09:00:00,68128,Village-Neuf,42.9,44.6,3.9,,47.5949129999996,7.56817499969113,France,Haut-Rhin,Grand Est,245.0,680.0,4243.0,4284,4356.0,4421.0,4486.0,4513.0,2371.0
2024-09-18 23:00:00,68350,Brunstatt-Didenheim,,70.8,,,47.7231060000767,7.34160300030211,France,Haut-Rhin,Grand Est,289.0,960.0,7850.0,8012,8107.0,8163.0,8168.0,8172.0,8163.0
2024-09-12 09:00:00,68490,Chalampé,12.9,,,,47.8202480001832,7.53868299989303,France,Haut-Rhin,Grand Est,214.0,480.0,950.0,950,951.0,970.0,978.0,987.0,1594.0
2022-03-28 02:00:00,69100,Villeurbanne,47.7,,23.1,,45.7583572550156,4.88621530806415,France,Métropole de Lyon,Auvergne-Rhône-Alpes,175.0,1480.0,149019.0,147712,150659.0,152212.0,154781.0,156928.0,152212.0
2024-03-11 10:00:00,69100,Villeurbanne,66.7,,13.4,,45.7748199998086,4.89857200041154,France,Métropole de Lyon,Auvergne-Rhône-Alpes,175.0,1480.0,149019.0,147712,150659.0,152212.0,154781.0,156928.0,152212.0
2024-01-04 09:00:00,69120,Vaulx-en-Velin,54.2,-0.8,13.7,1.7,45.7789106049275,4.92469913483583,France,Métropole de Lyon,Auvergne-Rhône-Alpes,174.0,2102.0,48497.0,49658,50823.0,52795.0,51761.0,52139.0,52795.0
2023-01-10 10:00:00,69190,Saint-Fons,34.7,,1.6,,45.7078189856086,4.86440421296573,France,Rhône,Auvergne-Rhône-Alpes,177.0,606.0,18566.0,18802,19254.0,19617.0,19500.0,19360.0,19617.0
2024-09-16 08:00:00,69320,Feyzin,62.1,,11.4,,45.6638999998941,4.84589999968447,France,Métropole de Lyon,Auvergne-Rhône-Alpes,192.0,1041.0,9879.0,9857,9879.0,9902.0,9926.0,9850.0,9902.0
2024-09-18 23:00:00,69330,Pusignan,9.2,30.9,8.3,4.7,45.7532999996927,5.07219999998525,France,Rhône,Auvergne-Rhône-Alpes,219.0,1320.0,4063.0,4114,4110.0,4191.0,4190.0,4172.0,6076.0
2024-09-16 08:00:00,69350,La Mulatière,25.7,,15.2,8.0,45.7200240000445,4.8181560001567,France,Métropole de Lyon,Auvergne-Rhône-Alpes,194.0,185.0,6320.0,6334,6431.0,6524.0,6617.0,6595.0,6524.0
2024-03-11 10:00:00,69360,Ternay,20.3,37.8,19.0,13.7,45.6018999997678,4.80220000011266,France,Rhône,Auvergne-Rhône-Alpes,204.0,793.0,5437.0,5514,5514.0,5512.0,5511.0,5503.0,4242.0
2017-12-18 22:00:00,69400,Villefranche-sur-Saône,24.33,14.05,20.33,11.8,45.9863829994635,4.719281,France,Rhône,Auvergne-Rhône-Alpes,181.0,945.0,37266.0,36857,36288.0,36291.0,36009.0,35913.0,3897.0
2024-09-18 23:00:00,69400,Villefranche-sur-Saône,22.6,28.4,9.9,6.1,45.9901120000703,4.71556599980171,France,Rhône,Auvergne-Rhône-Alpes,181.0,945.0,37266.0,36857,36288.0,36291.0,36009.0,35913.0,3897.0
2024-09-16 08:00:00,70000,Vesoul,15.1,38.7,10.5,3.8,47.6200200000515,6.15764199975499,France,Haute-Saône,Bourgogne-Franche-Comté,234.0,908.0,14998.0,14916,14973.0,14914.0,14866.0,15130.0,143.0
2018-07-18 14:00:00,71100,Chalon-sur-Saône,5.38,117.18,-0.2,6.9,46.7972219994643,4.853889,France,Saône-et-Loire,Bourgogne-Franche-Comté,180.0,1529.0,45446.0,45096,44810.0,45056.0,45094.0,45031.0,45056.0
2024-01-29 17:00:00,71100,Chalon-sur-Saône,69.8,117.18,-0.2,6.9,46.7824722190452,4.84726435734473,France,Saône-et-Loire,Bourgogne-Franche-Comté,180.0,1529.0,45446.0,45096,44810.0,45056.0,45094.0,45031.0,45056.0
2024-09-18 23:00:00,71100,Chalon-sur-Saône,50.2,117.18,-0.2,6.4,46.7823099997673,4.84732200043988,France,Saône-et-Loire,Bourgogne-Franche-Comté,180.0,1529.0,45446.0,45096,44810.0,45056.0,45094.0,45031.0,45056.0
2022-01-01 01:00:00,71200,Le Creusot,10.53,25.2,,6.6,46.8022145735861,4.41750134226911,France,Saône-et-Loire,Bourgogne-Franche-Comté,384.0,1806.0,21752.0,21630,21491.0,21269.0,21057.0,20731.0,21269.0
2024-01-29 18:00:00,71300,Montceau-les-Mines,47.3,14.5,12.1,8.1,46.6666401423631,4.36666568034079,France,Saône-et-Loire,Bourgogne-Franche-Comté,292.0,1671.0,18722.0,18398,17897.0,17678.0,17239.0,16831.0,899.0
2024-09-16 08:00:00,71300,Montceau-les-Mines,8.0,39.9,14.8,5.6,46.6787830000584,4.36689299992175,France,Saône-et-Loire,Bourgogne-Franche-Comté,292.0,1671.0,18722.0,18398,17897.0,17678.0,17239.0,16831.0,899.0
2024-09-16 08:00:00,71530,Champforgeuil,17.2,37.3,15.9,8.6,46.8210560001565,4.83508299997113,France,Saône-et-Loire,Bourgogne-Franche-Comté,185.0,721.0,2491.0,2534,2580.0,2588.0,2594.0,2595.0,2588.0
2024-03-11 07:00:00,72100,Le Mans,6.5,54.6,4.6,2.2,47.9889200000644,0.195983000322153,France,Sarthe,Pays de la Loire,65.0,5260.0,142991.0,142946,143252.0,143847.0,145155.0,145004.0,143847.0
2024-09-16 23:00:00,72100,Le Mans,4.5,54.6,4.6,2.2,47.9710660000466,0.221422000085985,France,Sarthe,Pays de la Loire,65.0,5260.0,142991.0,142946,143252.0,143847.0,145155.0,145004.0,143847.0
2024-09-16 23:00:00,72700,Spay,,55.1,,,47.9219200000772,0.151825000092627,France,Sarthe,Pays de la Loire,44.0,1413.0,2897.0,2890,2885.0,2881.0,2863.0,2843.0,11167.0
2024-03-11 10:00:00,73000,Chambéry,15.2,35.1,8.7,4.4,45.59667,5.918611,France,Savoie,Auvergne-Rhône-Alpes,308.0,2121.0,59183.0,58919,58833.0,58917.0,59172.0,59856.0,5022.0
2024-09-16 08:00:00,73000,Chambéry,21.9,53.44509462693061,6.3,4.4,45.5694299999296,5.93298599996747,France,Savoie,Auvergne-Rhône-Alpes,308.0,2121.0,59183.0,58919,58833.0,58917.0,59172.0,59856.0,5022.0
2024-09-18 23:00:00,73000,Chambéry,11.1,53.7,6.5,4.4,45.564719999865,5.92833299988358,France,Savoie,Auvergne-Rhône-Alpes,308.0,2121.0,59183.0,58919,58833.0,58917.0,59172.0,59856.0,5022.0
2024-03-11 10:00:00,73140,Saint-Michel-de-Maurienne,5.3,,5.4,,45.209365999758,6.4803260000502,France,Savoie,Auvergne-Rhône-Alpes,1622.0,1922.0,685.0,679,679.0,679.0,679.0,684.0,328.0
2024-03-11 10:00:00,73140,Saint-Michel-de-Maurienne,5.3,,5.4,,45.209365999758,6.4803260000502,France,Savoie,Auvergne-Rhône-Alpes,1065.0,489.0,360.0,361,344.0,327.0,310.0,305.0,328.0
2024-03-11 10:00:00,73140,Saint-Michel-de-Maurienne,5.3,,5.4,,45.209365999758,6.4803260000502,France,Savoie,Auvergne-Rhône-Alpes,1665.0,3624.0,2456.0,2461,2466.0,2467.0,2474.0,2469.0,328.0
2024-03-11 10:00:00,73200,Albertville,16.5,18.7,10.5,6.5,45.6750000001249,6.38972200044397,France,Savoie,Auvergne-Rhône-Alpes,596.0,1730.0,19055.0,18899,19214.0,19502.0,19830.0,19812.0,19502.0
2024-09-18 23:00:00,73300,Saint-Jean-de-Maurienne,3.3,57.7,6.6,,45.2747230002974,6.3497219998307,France,Savoie,Auvergne-Rhône-Alpes,655.0,1148.0,7794.0,7746,7683.0,7621.0,7560.0,7536.0,147.0
2024-09-18 23:00:00,73300,Saint-Jean-de-Maurienne,3.3,57.7,6.6,,45.2747230002974,6.3497219998307,France,Savoie,Auvergne-Rhône-Alpes,1265.0,569.0,293.0,290,294.0,297.0,301.0,304.0,147.0
2024-03-18 08:00:00,73440,Saint-Martin-de-Belleville,,81.9,,,45.3187700001581,6.5783899996446,France,Savoie,Auvergne-Rhône-Alpes,2117.0,16259.0,2952.0,3494,3503.0,3494.0,3476.0,3472.0,2800.0
2018-02-13 08:00:00,73870,Saint-Julien-Mont-Denis,44.93,,14.6,,45.2525809994632,6.397014,France,Savoie,Auvergne-Rhône-Alpes,1552.0,3290.0,1626.0,1618,1616.0,1627.0,1588.0,1549.0,475.0
2022-12-20 14:00:00,74000,Annecy,10.8,42.5,9.8,3.6,45.9169430001156,6.13555600041669,France,Haute-Savoie,Auvergne-Rhône-Alpes,554.0,1595.0,126419.0,126924,128199.0,130721.0,131766.0,131715.0,130721.0
2024-09-15 04:00:00,74000,Annecy,38.8,28.42587495084545,11.1,3.6,45.9096999999883,6.11824999958726,France,Haute-Savoie,Auvergne-Rhône-Alpes,554.0,1595.0,126419.0,126924,128199.0,130721.0,131766.0,131715.0,130721.0
2024-09-16 08:00:00,74000,Annecy,19.1,28.4,11.5,3.6,45.8952799999222,6.11833300032625,France,Haute-Savoie,Auvergne-Rhône-Alpes,554.0,1595.0,126419.0,126924,128199.0,130721.0,131766.0,131715.0,130721.0
2024-09-18 23:00:00,74100,Annemasse,35.3,21.9,14.5,10.5,46.1958299999168,6.24055600011761,France,Haute-Savoie,Auvergne-Rhône-Alpes,443.0,494.0,35041.0,35712,36250.0,36582.0,37485.0,37918.0,6138.0
2024-03-11 10:00:00,74190,Passy,9.4,13.6,13.4,7.7,45.9236099997872,6.71361099996299,France,Haute-Savoie,Auvergne-Rhône-Alpes,1517.0,8004.0,10863.0,10902,11203.0,11233.0,11350.0,11068.0,11500.0
2024-09-18 23:00:00,74240,Gaillard,5.5,21.2,9.7,7.5,46.1936899998302,6.21485799988769,France,Haute-Savoie,Auvergne-Rhône-Alpes,406.0,390.0,11152.0,10619,10419.0,10071.0,10350.0,10175.0,10071.0
2024-09-18 23:00:00,74400,Chamonix-Mont-Blanc,12.95,9.6,16.700000000000003,,45.9072229998124,6.84583299985817,France,Haute-Savoie,Auvergne-Rhône-Alpes,2445.0,24545.0,8759.0,8611,8648.0,8640.0,8644.0,8642.0,8640.0
2017-06-14 01:00:00,74460,Marnaz,,,14.5,,46.0576968089975,6.53339316248423,France,Haute-Savoie,Auvergne-Rhône-Alpes,824.0,905.0,5447.0,5521,5607.0,5642.0,5735.0,5827.0,5642.0
2024-09-18 23:00:00,74910,Saint-Germain-sur-Rhône,7.3,42.9,4.8,3.1,46.0722240002064,5.82083300042506,France,Haute-Savoie,Auvergne-Rhône-Alpes,468.0,784.0,514.0,526,556.0,587.0,617.0,639.0,419.0
2024-09-17 23:00:00,75001,Paris,16.9,56.6,10.3,18.5,48.8621199998727,2.34461599976858,France,Paris,Île-de-France,33.0,181.0,16252.0,16266,16093.0,15917.0,16030.0,15919.0,15917.0
2024-09-17 23:00:00,75002,Paris,23.7,,30.7,,48.8702740002815,2.33250000022179,France,Paris,Île-de-France,36.0,99.0,20260.0,20900,21420.0,21595.0,21130.0,21119.0,21595.0
2018-04-25 02:00:00,75004,Paris,14.75,78.0,23.65,15.3,48.8594439994682,2.351111,France,Paris,Île-de-France,33.0,160.0,27487.0,28088,28763.0,29131.0,29064.0,28324.0,29131.0
2019-09-23 10:00:00,75004,Paris,33.2,23.0,14.3,7.4,48.8589975104964,2.35099889637488,France,Paris,Île-de-France,33.0,160.0,27487.0,28088,28763.0,29131.0,29064.0,28324.0,29131.0
2024-03-11 10:00:00,75004,Paris,22.6,23.0,14.3,7.4,48.8527799997953,2.36055599991909,France,Paris,Île-de-France,33.0,160.0,27487.0,28088,28763.0,29131.0,29064.0,28324.0,29131.0
2024-09-17 23:00:00,75006,Paris,29.1,,,,48.8563879999191,2.33527799981374,France,Paris,Île-de-France,40.0,215.0,40916.0,41100,40525.0,40303.0,39625.0,40209.0,40303.0
2024-09-17 23:00:00,75007,Paris,17.3,,,,48.8571999997726,2.29329999967468,France,Paris,Île-de-France,34.0,411.0,52512.0,51367,50196.0,48888.0,48520.0,47947.0,48888.0
2024-03-11 10:00:00,75008,Paris,45.0,,,16.0,48.8688899999167,2.3119439997973,France,Paris,Île-de-France,39.0,385.0,36453.0,36808,36222.0,35655.0,35631.0,35123.0,35655.0
2024-09-17 23:00:00,75008,Paris,15.1,,,7.7,48.8687700002676,2.31123099976978,France,Paris,Île-de-France,39.0,385.0,36453.0,36808,36222.0,35655.0,35631.0,35123.0,35655.0
2024-09-16 08:00:00,75009,Paris,24.5,,18.4,6.0,48.8733330000044,2.33027800029853,France,Paris,Île-de-France,44.0,218.0,59629.0,59555,59835.0,60026.0,60168.0,58951.0,60026.0
2023-04-13 21:00:00,75012,Paris,25.4,,13.9,9.0,48.8379529715682,2.40805988322215,France,Paris,Île-de-France,49.0,1636.0,141494.0,140296,139665.0,139297.0,140311.0,140954.0,139297.0
2024-03-11 10:00:00,75012,Paris,14.6,,13.9,9.0,48.8372230000981,2.39389999991001,France,Paris,Île-de-France,49.0,1636.0,141494.0,140296,139665.0,139297.0,140311.0,140954.0,139297.0
2024-09-16 08:00:00,75012,Paris,45.3,,13.9,9.0,48.8386150001873,2.4127809998591,France,Paris,Île-de-France,49.0,1636.0,141494.0,140296,139665.0,139297.0,140311.0,140954.0,139297.0
2024-09-17 23:00:00,75013,Paris,13.5,63.9,,,48.828610000236,2.36027800008475,France,Paris,Île-de-France,46.0,713.0,181552.0,182099,180632.0,180005.0,177833.0,178350.0,180005.0
2024-01-09 10:00:00,75014,Paris,35.7,,29.3,4.21,48.8277822163547,2.32749896854232,France,Paris,Île-de-France,63.0,560.0,137105.0,135964,136596.0,135592.0,133967.0,136368.0,135592.0
2024-09-08 23:00:00,75014,Paris,35.7,,4.34,4.21,48.8267718090601,2.33216279739659,France,Paris,Île-de-France,63.0,560.0,137105.0,135964,136596.0,135592.0,133967.0,136368.0,135592.0
2024-03-11 08:00:00,75015,Paris,-1.0,,-1.0,,48.8303869997457,2.26988899966535,France,Paris,Île-de-France,40.0,846.0,233484.0,233392,232144.0,230981.0,229472.0,227746.0,230981.0
2024-03-11 08:00:00,75018,Paris,19.6,59.1,19.4,9.6,48.8916659998976,2.34666699998761,France,Paris,Île-de-France,57.0,604.0,195060.0,195233,193665.0,192468.0,191135.0,188446.0,192468.0
2016-12-05 18:00:00,76000,Rouen,58.5,0.7,52.0,35.75,49.4414447487293,1.08265856357369,France,Seine-Maritime,Normandie,36.0,2142.0,110117.0,110145,111360.0,112321.0,114187.0,114083.0,116149.0
2024-03-04 08:00:00,76000,Rouen,39.1,0.7,13.7,10.8,49.44246,1.093694,France,Seine-Maritime,Normandie,36.0,2142.0,110117.0,110145,111360.0,112321.0,114187.0,114083.0,116149.0
2024-03-11 10:00:00,76000,Rouen,24.2,3.3924690581078245,12.5,8.6,49.4366999998995,1.09883799978172,France,Seine-Maritime,Normandie,36.0,2142.0,110117.0,110145,111360.0,112321.0,114187.0,114083.0,116149.0
2024-09-18 23:00:00,76000,Rouen,14.3,76.2,52.7,29.0,49.4423560001848,1.0937889998627,France,Seine-Maritime,Normandie,36.0,2142.0,110117.0,110145,111360.0,112321.0,114187.0,114083.0,116149.0
2020-12-30 11:00:00,76140,Le Petit-Quevilly,43.9,,20.8,,49.4280668762657,1.05777523020358,France,Seine-Maritime,Normandie,15.0,436.0,22134.0,21995,22291.0,22000.0,21997.0,21782.0,22000.0
2024-03-11 10:00:00,76140,Le Petit-Quevilly,35.4,,61.1,,49.4341620000421,1.06705269987794,France,Seine-Maritime,Normandie,15.0,436.0,22134.0,21995,22291.0,22000.0,21997.0,21782.0,22000.0
2024-09-15 17:00:00,76200,Dieppe,28.1,68.2,18.2,1.2,49.9180069998654,1.07397200030333,France,Seine-Maritime,Normandie,48.0,1216.0,29606.0,29080,28561.0,28241.0,28091.0,28358.0,27599.0
2024-09-18 23:00:00,76200,Dieppe,28.1,68.2,65.6,35.4,49.9204900002416,1.04789199958368,France,Seine-Maritime,Normandie,48.0,1216.0,29606.0,29080,28561.0,28241.0,28091.0,28358.0,27599.0
2024-09-18 23:00:00,76240,Le Mesnil-Esnard,,82.6,,,49.4061900002854,1.15515000009118,France,Seine-Maritime,Normandie,145.0,522.0,7978.0,7967,7927.0,7886.0,7925.0,7980.0,2235.0
2024-03-04 08:00:00,76300,Sotteville-lès-Rouen,30.2,1.1,15.2,9.8,49.40052,1.098825,France,Seine-Maritime,Normandie,14.0,741.0,28991.0,28965,28958.0,29068.0,29071.0,28965.0,29068.0
2024-03-11 10:00:00,76300,Sotteville-lès-Rouen,7.3,85.7,51.2,28.3,49.4005000001846,1.09904199999622,France,Seine-Maritime,Normandie,14.0,741.0,28991.0,28965,28958.0,29068.0,29071.0,28965.0,29068.0
2024-01-01 01:00:00,76430,Saint-Romain-de-Colbosc,,81.0,,,49.5289242164163,0.35873322556029,France,Seine-Maritime,Normandie,109.0,715.0,657.0,645,645.0,652.0,644.0,651.0,1276.0
2024-01-01 01:00:00,76430,Saint-Romain-de-Colbosc,,81.0,,,49.5289242164163,0.35873322556029,France,Seine-Maritime,Normandie,117.0,1176.0,4093.0,4132,4172.0,4259.0,4355.0,4436.0,1276.0
2024-01-01 01:00:00,76430,Saint-Romain-de-Colbosc,,81.0,,,49.5289242164163,0.35873322556029,France,Seine-Maritime,Normandie,23.0,3657.0,1113.0,1130,1134.0,1137.0,1141.0,1167.0,1276.0
2024-01-01 01:00:00,76430,Saint-Romain-de-Colbosc,,81.0,,,49.5289242164163,0.35873322556029,France,Seine-Maritime,Normandie,111.0,483.0,641.0,655,669.0,691.0,695.0,701.0,1276.0
2024-01-01 01:00:00,76430,Saint-Romain-de-Colbosc,,81.0,,,49.5289242164163,0.35873322556029,France,Seine-Maritime,Normandie,104.0,682.0,1886.0,1900,1907.0,1917.0,1935.0,1954.0,1276.0
2024-09-18 23:00:00,76530,Grand-Couronne,,,46.4,,49.358214999835,1.00785300040897,France,Seine-Maritime,Normandie,71.0,1691.0,9676.0,9648,9716.0,9739.0,9731.0,9726.0,722.0
2024-09-16 14:00:00,76600,Le Havre,14.35,,26.3,9.5,49.4983000002172,0.142706000420907,France,Seine-Maritime,Normandie,36.0,5471.0,170352.0,170147,169733.0,168290.0,165830.0,166058.0,163087.0
2024-09-18 23:00:00,76660,Bures-en-Bray,,66.6,,,49.7812199997992,1.34508299968839,France,Seine-Maritime,Normandie,103.0,1092.0,320.0,323,325.0,326.0,328.0,329.0,221.0
2024-09-16 14:00:00,76700,Gonfreville-l'Orcher,3.3,,6.6,,49.50273000006,0.232485999671531,France,Seine-Maritime,Normandie,21.0,2590.0,9146.0,9057,9162.0,9124.0,9042.0,8961.0,2526.0
2024-09-16 14:00:00,76700,Rogerville,,70.3,,,49.5036199999966,0.266871999577949,France,Seine-Maritime,Normandie,31.0,1027.0,1331.0,1416,1501.0,1574.0,1668.0,1706.0,2526.0
2024-09-16 14:00:00,76940,Notre-Dame-de-Bliquetuit,4.5,62.3,,7.8,49.4982950002272,0.758833000385088,France,Seine-Maritime,Normandie,16.0,999.0,749.0,754,772.0,790.0,808.0,817.0,299.0
2024-03-11 08:00:00,77000,Melun,8.7,63.0,21.6,11.6,48.5413900000572,2.66138900015433,France,Seine-et-Marne,Île-de-France,63.0,800.0,40228.0,40032,39947.0,40844.0,41609.0,42367.0,2181.0
2024-09-18 23:00:00,77000,Melun,56.5,63.0,21.6,11.6,48.5280570001283,2.65361100014886,France,Seine-et-Marne,Île-de-France,63.0,800.0,40228.0,40032,39947.0,40844.0,41609.0,42367.0,2181.0
2024-01-29 18:00:00,77120,Coulommiers,,,28.3,11.8,48.8055412818308,3.08444637639995,France,Seine-et-Marne,Île-de-France,101.0,1095.0,14947.0,14838,14757.0,14779.0,14953.0,15250.0,826.0
2024-09-18 23:00:00,77120,Coulommiers,,,57.4,23.6,48.8058999999097,3.08415800012575,France,Seine-et-Marne,Île-de-France,101.0,1095.0,14947.0,14838,14757.0,14779.0,14953.0,15250.0,826.0
2024-09-17 23:00:00,77185,Lognes,9.8,64.3,9.2,,48.8402800002083,2.63527800037086,France,Seine-et-Marne,Île-de-France,95.0,402.0,13999.0,14000,14268.0,14353.0,14388.0,14650.0,14353.0
2024-09-18 23:00:00,77230,Montgé-en-Goële,,78.4,,,49.0280570001604,2.75027800000051,France,Seine-et-Marne,Île-de-France,123.0,1149.0,756.0,772,757.0,743.0,728.0,720.0,10355.0
2024-09-17 23:00:00,77300,Fontainebleau,5.6,69.7,,7.0,48.3547000001938,2.6453000000409,France,Seine-et-Marne,Île-de-France,103.0,17237.0,14907.0,14886,15407.0,15696.0,15903.0,15945.0,15696.0
2024-09-17 23:00:00,78000,Versailles,10.9,55.8,,,48.7991680000162,2.13055599976146,France,Yvelines,Île-de-France,136.0,2606.0,85346.0,85862,85205.0,84808.0,83583.0,83587.0,84808.0
2024-09-17 23:00:00,78120,Rambouillet,,77.3,26.9,14.6,48.6337299998935,1.83052900033848,France,Yvelines,Île-de-France,164.0,3590.0,26202.0,26736,26933.0,27141.0,27043.0,26816.0,818.0
2024-09-17 23:00:00,78120,Sonchamp,6.7,69.8,,,48.5819439998197,1.88333300041171,France,Yvelines,Île-de-France,160.0,4637.0,1640.0,1641,1619.0,1600.0,1580.0,1630.0,818.0
2024-03-11 10:00:00,78200,Mantes-la-Jolie,10.7,76.9,,,48.9963999999874,1.70330000028582,France,Yvelines,Île-de-France,26.0,949.0,43969.0,44299,44227.0,43921.0,43945.0,44539.0,264.0
2020-01-22 07:00:00,79000,Niort,11.7,26.2,17.4,17.1,46.3295859994638,-0.458889,France,Deux-Sèvres,Nouvelle-Aquitaine,33.0,6834.0,59005.0,58707,59059.0,59193.0,58966.0,59309.0,1721.0
2021-03-19 05:00:00,79000,Niort,6.0,43.635015590077536,26.5,13.66329019618664,46.3217459318821,-0.46597230754791,France,Deux-Sèvres,Nouvelle-Aquitaine,33.0,6834.0,59005.0,58707,59059.0,59193.0,58966.0,59309.0,1721.0
2024-03-11 08:00:00,79000,Niort,16.3,88.6,15.65,4.8,46.3338800001563,-0.47187800021067,France,Deux-Sèvres,Nouvelle-Aquitaine,33.0,6834.0,59005.0,58707,59059.0,59193.0,58966.0,59309.0,1721.0
2024-01-29 18:00:00,79360,Villiers-en-Bois,0.8,31.4,7.3,5.3,46.143173,-0.396042,France,Deux-Sèvres,Nouvelle-Aquitaine,74.0,1860.0,125.0,123,122.0,121.0,118.0,121.0,1768.0
2024-09-16 14:00:00,79360,Villiers-en-Bois,3.2,88.8,9.0,4.7,46.1432340000161,-0.395913000373364,France,Deux-Sèvres,Nouvelle-Aquitaine,74.0,1860.0,125.0,123,122.0,121.0,118.0,121.0,1768.0
2021-10-07 11:00:00,79600,Airvault,14.8,33.4,29.2,,46.8243469167798,-0.135460554953519,France,Deux-Sèvres,Nouvelle-Aquitaine,114.0,4928.0,2981.0,3281,3291.0,3270.0,3279.0,3287.0,3270.0
2024-09-16 14:00:00,79600,Airvault,3.2,85.9,8.7,,46.8237950001734,-0.135633999871946,France,Deux-Sèvres,Nouvelle-Aquitaine,114.0,4928.0,2981.0,3281,3291.0,3270.0,3279.0,3287.0,3270.0
2024-03-04 08:00:00,80000,Amiens,32.2,3.8,16.1,12.2,49.9025,2.3046,France,Somme,Hauts-de-France,47.0,5008.0,133755.0,134057,133891.0,134706.0,134167.0,133625.0,134026.0
2024-03-11 10:00:00,80000,Amiens,6.5,53.1,7.6,3.7,49.9016700001433,2.30459699978705,France,Somme,Hauts-de-France,47.0,5008.0,133755.0,134057,133891.0,134706.0,134167.0,133625.0,134026.0
2024-09-16 23:00:00,80000,Amiens,26.33,53.1,24.73,3.8,49.8772200002389,2.28249999967978,France,Somme,Hauts-de-France,47.0,5008.0,133755.0,134057,133891.0,134706.0,134167.0,133625.0,134026.0
2024-03-11 10:00:00,80480,Salouël,7.0,54.5,5.2,,49.8688900000735,2.23980600003846,France,Somme,Hauts-de-France,65.0,467.0,4044.0,3979,3921.0,3918.0,4011.0,4099.0,485.0
2024-09-16 23:00:00,80700,Roye,,53.6,,4.7,49.6966969998357,2.80113899980974,France,Somme,Hauts-de-France,84.0,1561.0,5864.0,5786,5709.0,5693.0,5703.0,5662.0,279.0
2024-09-16 23:00:00,80820,Arrest,,55.4,8.0,3.9,50.1294479997896,1.61083299988321,France,Somme,Hauts-de-France,41.0,1113.0,862.0,869,855.0,842.0,828.0,827.0,842.0
2024-03-04 08:00:00,81000,Albi,17.7,23.1,6.9,,43.928055,2.146111,France,Tarn,Occitanie,182.0,4493.0,49024.0,48970,48993.0,48902.0,49094.0,49714.0,48902.0
2024-09-16 23:00:00,81000,Albi,3.6,23.1,7.9,,43.9277700001112,2.14589699968727,France,Tarn,Occitanie,182.0,4493.0,49024.0,48970,48993.0,48902.0,49094.0,49714.0,48902.0
2024-03-04 08:00:00,81100,Castres,8.3,56.6,6.3,5.4,43.610558,2.23,France,Tarn,Occitanie,219.0,9871.0,41338.0,41636,41795.0,42079.0,42394.0,42672.0,2053.0
2024-09-16 23:00:00,81100,Castres,4.3,66.4,7.0,3.7,43.6104969997267,2.2301500000663,France,Tarn,Occitanie,219.0,9871.0,41338.0,41636,41795.0,42079.0,42394.0,42672.0,2053.0
2024-09-18 23:00:00,82000,Montauban,33.3,26.3,12.2,4.9,44.0128559998603,1.37530519955676,France,Tarn-et-Garonne,Occitanie,102.0,13591.0,60444.0,60810,60952.0,61372.0,61677.0,61919.0,61372.0
2024-01-29 17:00:00,83160,La Valette-du-Var,,65.7,,6.4,43.1322279826256,5.99220311956643,France,Var,Provence-Alpes-Côte d'Azur,207.0,1540.0,23775.0,23884,23795.0,24087.0,24114.0,23955.0,24087.0
2024-09-16 08:00:00,83160,La Valette-du-Var,,30.4,,7.1,43.1359019998724,6.01151300038498,France,Var,Provence-Alpes-Côte d'Azur,207.0,1540.0,23775.0,23884,23795.0,24087.0,24114.0,23955.0,24087.0
2024-01-29 17:00:00,83170,Brignoles,,62.5,14.0,,43.3987241550087,6.07610576710319,France,Var,Provence-Alpes-Côte d'Azur,302.0,7081.0,17498.0,17179,17364.0,17361.0,17652.0,17664.0,17361.0
2024-09-17 23:00:00,83170,Brignoles,,31.1,7.8,,43.3987299999985,6.07561100019752,France,Var,Provence-Alpes-Côte d'Azur,302.0,7081.0,17498.0,17179,17364.0,17361.0,17652.0,17664.0,17361.0
2024-03-11 10:00:00,83500,La Seyne-sur-Mer,10.6,,,,43.1015659997901,5.87540400013688,France,Var,Provence-Alpes-Côte d'Azur,45.0,2356.0,64620.0,63936,62888.0,62987.0,62232.0,62763.0,62987.0
2024-09-16 08:00:00,83640,Plan-d'Aups-Sainte-Baume,,62.0,5.7,3.8,43.3352000000667,5.72736500011483,France,Var,Provence-Alpes-Côte d'Azur,730.0,2467.0,2113.0,2158,2174.0,2187.0,2235.0,2333.0,2187.0
2023-02-02 01:00:00,84000,Avignon,5.7,67.2,18.0,11.2,43.9370778926249,4.82493223938152,France,Vaucluse,Provence-Alpes-Côte d'Azur,25.0,6491.0,92378.0,91921,91729.0,91143.0,90597.0,90330.0,89519.0
2024-01-29 18:00:00,84000,Avignon,22.0,67.2,21.7,11.2,43.9497553662994,4.80507947160248,France,Vaucluse,Provence-Alpes-Côte d'Azur,25.0,6491.0,92378.0,91921,91729.0,91143.0,90597.0,90330.0,89519.0
2024-03-11 08:00:00,84000,Avignon,3.2,90.7,24.5,5.2,43.9496729999063,4.80434099984507,France,Vaucluse,Provence-Alpes-Côte d'Azur,25.0,6491.0,92378.0,91921,91729.0,91143.0,90597.0,90330.0,89519.0
2024-09-16 08:00:00,84000,Avignon,4.8,90.7,14.9,3.1,43.9314000002095,4.82687499979534,France,Vaucluse,Provence-Alpes-Côte d'Azur,25.0,6491.0,92378.0,91921,91729.0,91143.0,90597.0,90330.0,89519.0
2024-01-29 18:00:00,84130,Le Pontet,21.9,,,4.5,43.9601669829441,4.85720870753994,France,Vaucluse,Provence-Alpes-Côte d'Azur,23.0,1074.0,17556.0,17530,17273.0,17041.0,17018.0,17551.0,17041.0
2024-09-16 14:00:00,84130,Le Pontet,5.2,,,4.5,43.9601439998545,4.85673099964152,France,Vaucluse,Provence-Alpes-Côte d'Azur,23.0,1074.0,17556.0,17530,17273.0,17041.0,17018.0,17551.0,17041.0
2024-09-16 14:00:00,84200,Carpentras,,78.6,,,44.0603500001585,5.06741300000705,France,Vaucluse,Provence-Alpes-Côte d'Azur,105.0,3783.0,28554.0,28309,28798.0,29236.0,29865.0,30769.0,29236.0
2024-01-29 18:00:00,84400,Apt,,43.8,,,43.8800605564821,5.36250207170432,France,Vaucluse,Provence-Alpes-Côte d'Azur,311.0,4509.0,11710.0,11425,11011.0,11037.0,10889.0,10536.0,11037.0
2024-09-16 14:00:00,84400,Apt,,68.3,,,43.8801200000807,5.36203800023192,France,Vaucluse,Provence-Alpes-Côte d'Azur,311.0,4509.0,11710.0,11425,11011.0,11037.0,10889.0,10536.0,11037.0
2024-09-16 23:00:00,85000,La Roche-sur-Yon,7.1,69.4,12.9,5.7,46.6607000002319,-1.43683100021568,France,Vendée,Pays de la Loire,68.0,8778.0,53741.0,54372,54766.0,55147.0,55213.0,54952.0,4971.0
2018-12-10 08:00:00,86000,Poitiers,66.1,15.8,33.7,10.3,46.570002999464,0.323575,France,Vienne,Nouvelle-Aquitaine,111.0,4241.0,87961.0,88291,88665.0,89212.0,90033.0,90240.0,89212.0
2024-03-04 07:00:00,86000,Poitiers,21.6,15.8,11.4,10.3,46.586918,0.358583,France,Vienne,Nouvelle-Aquitaine,111.0,4241.0,87961.0,88291,88665.0,89212.0,90033.0,90240.0,89212.0
2024-03-04 08:00:00,86000,Poitiers,42.150000000000006,7.5,22.2,10.3,46.58389,0.345556,France,Vienne,Nouvelle-Aquitaine,111.0,4241.0,87961.0,88291,88665.0,89212.0,90033.0,90240.0,89212.0
2024-09-16 08:00:00,86000,Poitiers,15.6,74.51452229299362,19.7,7.303821656050955,46.591232000116,0.340390000259412,France,Vienne,Nouvelle-Aquitaine,111.0,4241.0,87961.0,88291,88665.0,89212.0,90033.0,90240.0,89212.0
2024-09-16 14:00:00,86000,Poitiers,8.7,74.6,10.9,7.3,46.5839999999289,0.34558200029356,France,Vienne,Nouvelle-Aquitaine,111.0,4241.0,87961.0,88291,88665.0,89212.0,90033.0,90240.0,89212.0
2024-09-18 23:00:00,86000,Poitiers,10.0,56.4,15.9,7.3,46.5869600000919,0.358457999723541,France,Vienne,Nouvelle-Aquitaine,111.0,4241.0,87961.0,88291,88665.0,89212.0,90033.0,90240.0,89212.0
2024-09-18 23:00:00,87000,Limoges,13.8,,21.6,,45.8299749997519,1.25477199998511,France,Haute-Vienne,Nouvelle-Aquitaine,313.0,7971.0,132660.0,132175,131479.0,130876.0,130592.0,129760.0,127823.0
2024-03-04 07:00:00,87200,Saint-Junien,11.9,7.2,8.8,,45.89,0.9,France,Haute-Vienne,Nouvelle-Aquitaine,240.0,1431.0,563.0,565,566.0,568.0,567.0,566.0,1257.0
2024-03-04 07:00:00,87200,Saint-Junien,11.9,7.2,8.8,,45.89,0.9,France,Haute-Vienne,Nouvelle-Aquitaine,246.0,2080.0,1663.0,1669,1676.0,1682.0,1665.0,1658.0,1257.0
2024-03-04 07:00:00,87200,Saint-Junien,11.9,7.2,8.8,,45.89,0.9,France,Haute-Vienne,Nouvelle-Aquitaine,241.0,5883.0,11147.0,11202,11257.0,11254.0,11295.0,11387.0,1257.0
2024-09-18 23:00:00,87200,Saint-Junien,2.9,56.4,2.6,,45.8848500001393,0.89843099970453,France,Haute-Vienne,Nouvelle-Aquitaine,240.0,1431.0,563.0,565,566.0,568.0,567.0,566.0,1257.0
2024-09-18 23:00:00,87200,Saint-Junien,2.9,56.4,2.6,,45.8848500001393,0.89843099970453,France,Haute-Vienne,Nouvelle-Aquitaine,246.0,2080.0,1663.0,1669,1676.0,1682.0,1665.0,1658.0,1257.0
2024-09-18 23:00:00,87200,Saint-Junien,2.9,56.4,2.6,,45.8848500001393,0.89843099970453,France,Haute-Vienne,Nouvelle-Aquitaine,241.0,5883.0,11147.0,11202,11257.0,11254.0,11295.0,11387.0,1257.0
2024-03-04 07:00:00,87410,Le Palais-sur-Vienne,,14.2,11.6,,45.869995,1.31,France,Haute-Vienne,Nouvelle-Aquitaine,290.0,1036.0,6043.0,6042,6038.0,6023.0,6008.0,5947.0,6023.0
2024-09-16 08:00:00,87410,Le Palais-sur-Vienne,,60.8,10.6,,45.8733100001496,1.30791599981697,France,Haute-Vienne,Nouvelle-Aquitaine,290.0,1036.0,6043.0,6042,6038.0,6023.0,6008.0,5947.0,6023.0
2024-09-18 23:00:00,87720,Saillat-sur-Vienne,2.3,,4.2,,45.87583500017,0.823951000371826,France,Haute-Vienne,Nouvelle-Aquitaine,202.0,636.0,838.0,832,825.0,812.0,799.0,813.0,812.0
2021-04-09 06:00:00,88200,Remiremont,9.1,51.6,,,48.0246097658125,6.58583680877113,France,Vosges,Grand Est,555.0,1720.0,7728.0,7714,7691.0,7691.0,7711.0,7611.0,1882.0
2024-09-18 23:00:00,88400,Xonrupt-Longemer,0.5,73.8,,,48.0511169998905,7.01111400023723,France,Vosges,Grand Est,902.0,3089.0,1526.0,1522,1522.0,1515.0,1500.0,1488.0,7807.0
2024-01-29 08:00:00,89000,Auxerre,15.75,5.3,11.8,10.8,47.8005658610427,3.57639077544232,France,Yonne,Bourgogne-Franche-Comté,147.0,4979.0,34846.0,34634,34764.0,34451.0,34151.0,34778.0,1258.0
2024-09-18 23:00:00,89000,Auxerre,15.75,35.4,25.5,13.5,47.8005750002943,3.57618900035478,France,Yonne,Bourgogne-Franche-Comté,147.0,4979.0,34846.0,34634,34764.0,34451.0,34151.0,34778.0,1258.0
2024-01-29 18:00:00,89100,Sens,55.3,3.3,34.9,,48.2005841475738,3.277224836372,France,Yonne,Bourgogne-Franche-Comté,83.0,2184.0,25913.0,25935,26586.0,26688.0,26854.0,27034.0,676.0
2024-03-11 10:00:00,89100,Sens,18.1,47.2,13.4,,48.2004359999738,3.27730000020845,France,Yonne,Bourgogne-Franche-Comté,83.0,2184.0,25913.0,25935,26586.0,26688.0,26854.0,27034.0,676.0
2024-03-11 10:00:00,90000,Belfort,23.2,33.8,16.0,,47.6406669998236,6.85927800027395,France,Territoire-de-Belfort,Bourgogne-Franche-Comté,412.0,1708.0,48973.0,47656,46954.0,46443.0,45458.0,45155.0,46443.0
2024-09-18 23:00:00,90000,Belfort,25.7,33.8,16.0,,47.6307559997415,6.85894400036311,France,Territoire-de-Belfort,Bourgogne-Franche-Comté,412.0,1708.0,48973.0,47656,46954.0,46443.0,45458.0,45155.0,46443.0
2024-09-17 23:00:00,91150,Bois-Herpin,,68.4,24.5,15.5,48.3641660000587,2.2369439998826,France,Essonne,Île-de-France,125.0,396.0,76.0,77,79.0,80.0,81.0,82.0,324.0
2024-03-11 10:00:00,91230,Montgeron,14.8,67.4,,,48.7066999998811,2.45720000020453,France,Essonne,Île-de-France,70.0,1116.0,23972.0,23775,23775.0,23760.0,23943.0,23800.0,23760.0
2024-09-18 23:00:00,91310,Montlhéry,38.8,,,14.7,48.6409299998147,2.26872000042656,France,Essonne,Île-de-France,103.0,331.0,7561.0,7593,7624.0,7681.0,8561.0,8670.0,4378.0
2024-09-17 23:00:00,91940,Les Ulis,,70.0,,,48.6794430002305,2.16555599996121,France,Essonne,Île-de-France,154.0,543.0,24868.0,25208,24764.0,25024.0,25165.0,25253.0,2664.0
2024-03-11 10:00:00,92200,Neuilly-sur-Seine,14.9,64.0,,,48.8813900000285,2.27805599983326,France,Hauts-de-Seine,Île-de-France,32.0,371.0,60580.0,60361,59940.0,59599.0,59388.0,59267.0,59599.0
2024-07-30 13:00:00,92230,Gennevilliers,34.9,,34.7,11.9,48.9297199997604,2.29472200043009,France,Hauts-de-Seine,Île-de-France,28.0,1163.0,46653.0,46907,47702.0,48530.0,49880.0,49410.0,48530.0
2024-09-17 23:00:00,92230,Gennevilliers,12.9,,10.4,12.9,48.9303199998812,2.2943499999861,France,Hauts-de-Seine,Île-de-France,28.0,1163.0,46653.0,46907,47702.0,48530.0,49880.0,49410.0,48530.0
2016-12-05 01:00:00,92380,Garches,,1.0,,,48.8464073182877,2.18944587567883,France,Hauts-de-Seine,Île-de-France,134.0,271.0,17663.0,17869,17762.0,17795.0,17557.0,17898.0,17795.0
2020-12-31 14:00:00,92800,Puteaux,20.7,,8.4,22.4,48.8913880002415,2.24055599987591,France,Hauts-de-Seine,Île-de-France,45.0,318.0,44662.0,44645,44837.0,45157.0,44009.0,43672.0,45157.0
2024-03-11 10:00:00,93000,Bobigny,27.4,,47.2,27.3,48.9025040001429,2.45250000026497,France,Seine-Saint-Denis,Île-de-France,48.0,674.0,52337.0,53640,54272.0,54363.0,54906.0,55056.0,54363.0
2024-03-11 08:00:00,93200,Saint-Denis,12.3,,16.4,16.9,48.9372200002586,2.36166700032988,France,Seine-Saint-Denis,Île-de-France,34.0,1238.0,111354.0,111135,112091.0,112852.0,113116.0,113942.0,115315.0
2024-09-16 08:00:00,93200,Saint-Denis,31.0,,16.4,16.9,48.9252779998288,2.35666699991635,France,Seine-Saint-Denis,Île-de-France,34.0,1238.0,111354.0,111135,112091.0,112852.0,113116.0,113942.0,115315.0
2024-09-17 23:00:00,93250,Villemomble,9.1,67.2,,,48.881946999811,2.50722199958953,France,Seine-Saint-Denis,Île-de-France,64.0,403.0,30051.0,29964,30005.0,30405.0,30583.0,30332.0,30405.0
2024-09-17 23:00:00,93290,Tremblay-en-France,9.2,61.5,9.6,,48.9555499999541,2.57527799990011,France,Seine-Saint-Denis,Île-de-France,81.0,2259.0,35691.0,36180,36230.0,36461.0,36477.0,37271.0,36461.0
2024-09-17 23:00:00,93300,Aubervilliers,20.1,,,,48.9038999997566,2.38470000004744,France,Seine-Saint-Denis,Île-de-France,40.0,577.0,86061.0,86375,87572.0,88948.0,89401.0,90071.0,88948.0
2024-03-11 10:00:00,93500,Pantin,48.3,,28.1,,48.9022199998218,2.39083299971474,France,Seine-Saint-Denis,Île-de-France,53.0,504.0,55342.0,57482,59060.0,59846.0,60419.0,60800.0,59846.0
2024-09-17 23:00:00,94130,Nogent-sur-Marne,,,24.8,,48.8405569997725,2.4844440001401,France,Val-de-Marne,Île-de-France,63.0,279.0,31947.0,32851,32922.0,34042.0,33578.0,33472.0,34042.0
2018-04-20 08:00:00,94200,Ivry-sur-Seine,72.0,,,,48.8174999994681,2.395,France,Val-de-Marne,Île-de-France,44.0,612.0,60771.0,62052,63309.0,63748.0,64016.0,64001.0,63748.0
2016-12-05 01:00:00,94230,Cachan,,1.5,,,48.7994469635619,2.33055324050832,France,Val-de-Marne,Île-de-France,62.0,278.0,30208.0,31069,30884.0,30440.0,30214.0,30592.0,30440.0
2024-03-11 10:00:00,94400,Vitry-sur-Seine,10.1,68.1,27.7,15.6,48.7758980000422,2.37578800006495,France,Val-de-Marne,Île-de-France,56.0,1165.0,92755.0,93557,94649.0,95510.0,95649.0,96205.0,95510.0
2024-09-17 23:00:00,94500,Champigny-sur-Marne,11.1,64.6,,,48.8163870001885,2.51750000025093,France,Val-de-Marne,Île-de-France,67.0,1130.0,77409.0,77630,77039.0,76990.0,77439.0,77724.0,76990.0
2024-09-17 23:00:00,95100,Argenteuil,8.2,,,,48.9513899998373,2.22361099961982,France,Val-d'Oise,Île-de-France,55.0,1738.0,110468.0,110210,110213.0,111038.0,108567.0,107221.0,111038.0
2024-09-17 23:00:00,95270,Saint-Martin-du-Tertre,,79.3,20.1,9.3,49.1002769998272,2.34388900039566,France,Val-d'Oise,Île-de-France,140.0,1173.0,2773.0,2778,2737.0,2697.0,2656.0,2663.0,2939.0
2024-09-16 08:00:00,95500,Gonesse,4.6,,,4.6,48.9908300001307,2.44472200025949,France,Val-d'Oise,Île-de-France,70.0,2029.0,26336.0,25999,26019.0,26106.0,25853.0,25963.0,1129.0
2024-09-17 23:00:00,95800,Cergy,,74.8,4.9,,49.0463900000834,2.04305600016042,France,Val-d'Oise,Île-de-France,62.0,1453.0,63820.0,65177,66322.0,65911.0,67790.0,68348.0,65911.0
